{"version": 0.6, "generator": "Overpass API 0.7.62.1 084b4234", "osm3s": {"timestamp_osm_base": "2024-05-29T15:33:17Z", "copyright": "The data included in this document is from www.openstreetmap.org. The data is made available under ODbL."}, "elements": [{"type": "node", "id": 1866502248, "lat": 34.036761, "lon": -4.9978456, "tags": {"addr:city": "F\u00e8s", "addr:housenumber": "61", "addr:postcode": "30000", "addr:street": "Boulevard Mohamed V", "amenity": "pharmacy", "dispensing": "yes", "healthcare": "pharmacy", "name": "Pharmacie Centrale \u0627\u0644\u0635\u064a\u062f\u0644\u064a\u0629 \u0627\u0644\u0645\u0631\u0643\u0632\u064a\u0629", "operator": "BENZAKOUR MOHAMED", "phone": "0535622504"}}, {"type": "node", "id": 2328748922, "lat": 34.0400364, "lon": -5.0057261, "tags": {"addr:city": "F\u00e8s", "addr:housenumber": "10", "addr:postcode": "30000", "addr:street": "AV Obaida ibn El Jarrah", "amenity": "pharmacy", "dispensing": "yes", "healthcare": "pharmacy", "name": "Pharmacie Filali \u0635\u064a\u062f\u0644\u064a\u0629 \u0641\u064a\u0644\u0627\u0644\u064a", "operator": "FILALI ABDERRAHIM", "phone": "0535622163"}}, {"type": "node", "id": 3718016810, "lat": 34.0607842, "lon": -4.9730652, "tags": {"addr:city": "F\u00e8s", "addr:postcode": "30000", "amenity": "pharmacy", "dispensing": "yes", "healthcare": "pharmacy", "name": "Pharmacie Rcif \u0635\u064a\u062f\u0644\u064a\u0629 \u0627\u0644\u0631\u0635\u064a\u0641", "operator": "Ph PRF"}}, {"type": "node", "id": 4606353707, "lat": 34.0091704, "lon": -5.0299565, "tags": {"addr:city": "F\u00e8s", "addr:postcode": "30000", "addr:street": "HAY AL WIFAQ RTE AIN SMAEN", "amenity": "pharmacy", "dispensing": "yes", "healthcare": "pharmacy", "name": "Pharmacie Irchad \u0635\u064a\u062f\u0644\u064a\u0629 \u0625\u0631\u0634\u0627\u062f", "operator": "MSAIDI SAFAE", "phone": "0535601836"}}, {"type": "node", "id": 4681620692, "lat": 34.0165709, "lon": -5.0335195, "tags": {"addr:city": "F\u00e8s", "addr:full": "1227, HAY JDID- ZOUAGHA", "addr:postcode": "30000", "amenity": "pharmacy", "dispensing": "yes", "healthcare": "pharmacy", "name": "Pharmacie Basmati \u0635\u064a\u062f\u0644\u064a\u0629 \u0628\u0633\u0645\u062a\u064a", "operator": "ALAMI ASSIA", "phone": "0535603313"}}, {"type": "node", "id": 4698968089, "lat": 34.0665469, "lon": -4.9713274, "tags": {"addr:city": "F\u00e8s \u2d3c\u2d30\u2d59 \u0641\u0627\u0633", "addr:housenumber": "HAY LABLIDA", "addr:postcode": "30000", "addr:street": "\u0634\u0648\u0627\u0631\u0629", "amenity": "pharmacy", "dispensing": "yes", "healthcare": "pharmacy", "name": "Pharmacie Lablida \u0635\u064a\u062f\u0644\u064a\u0629 \u0627\u0644\u0628\u0644\u064a\u062f\u0629", "operator": "EL MALHI KHALID", "phone": "+212 632775720 (0535637714)"}}, {"type": "node", "id": 4711448391, "lat": 34.0155439, "lon": -5.0204776, "tags": {"addr:city": "F\u00e8s", "addr:postcode": "30000", "addr:street": "\u0637\u0631\u064a\u0642 \u0639\u064a\u0646 \u0627\u0644\u0633\u0645\u0646 Route A\u00efn Smen\u0642\u0627\u0645\u0629 \u0628\u0633\u0645 \u0627\u0644\u0644\u0647 \u0637\u0631\u064a\u0642 \u0639\u064a\u0646 \u0627\u0644\u0633\u0645\u0646", "amenity": "pharmacy", "dispensing": "yes", "healthcare": "pharmacy", "name": "Pharmacie la Tulipe \u0635\u064a\u062f\u0644\u064a\u0629 \u0644\u0627\u062a\u0648\u0644\u064a\u0628", "operator": "EL OUATANI FATIMA", "phone": "0535602060"}}, {"type": "node", "id": 4711868990, "lat": 34.0452085, "lon": -4.9969331, "tags": {"addr:city": "F\u00e8s", "addr:postcode": "30000", "addr:street": "Place de la R\u00e9sistance", "amenity": "pharmacy", "dispensing": "yes", "healthcare": "pharmacy", "name": "Pharmacie de la Libert\u00e9 \u0635\u064a\u062f\u0644\u064a\u0629 \u0627\u0644\u062d\u0631\u064a\u0629", "operator": "BELHMER OMAR", "phone": "0535621973"}}, {"type": "node", "id": 4711934790, "lat": 34.0394593, "lon": -5.0015078, "tags": {"addr:city": "F\u00e9s", "addr:housenumber": "14", "addr:postcode": "30000", "addr:street": "Avenue Hassan II", "amenity": "pharmacy", "dispensing": "yes", "healthcare": "pharmacy", "name": "Pharmacie les Palmiers \u0635\u064a\u062f\u0644\u064a\u0629 \u0627\u0644\u0646\u062e\u064a\u0644", "operator": "FASSI FIHRI SOUAD", "phone": "0535621284"}}, {"type": "node", "id": 4711934894, "lat": 34.0429619, "lon": -4.9987649, "tags": {"addr:city": "F\u00e8s", "addr:housenumber": "46", "addr:postcode": "30000", "addr:street": "Avenue Hassan II", "amenity": "pharmacy", "dispensing": "yes", "healthcare": "pharmacy", "name": "Pharmacie de France \u0635\u064a\u062f\u0644\u064a\u0629 \u0641\u0631\u0646\u0633\u0627", "operator": "SBAI ABDELFATAH", "phone": "0535622309"}}, {"type": "node", "id": 4712385991, "lat": 34.014454, "lon": -5.0096513, "tags": {"addr:city": "F\u00e9s", "addr:housenumber": "221", "addr:postcode": "30000", "addr:street": "RUE MED FASSI 221 HAY ADARISSA", "amenity": "pharmacy", "dispensing": "yes", "healthcare": "pharmacy", "name": "Pharmacie l'Amiti\u00e9 \u0635\u064a\u062f\u0644\u064a\u0629 \u0627\u0644\u0635\u062f\u0627\u0642\u0629", "operator": "FIHRI KARIM", "phone": "0535609139"}}, {"type": "node", "id": 4712445890, "lat": 34.0094085, "lon": -5.0261096, "tags": {"addr:city": "F\u00e9s", "addr:postcode": "30000", "addr:street": "LOT AL WIFAK AIN SMEN", "amenity": "pharmacy", "dispensing": "yes", "healthcare": "pharmacy", "name": "Pharmacie Bouslikhane \u0635\u064a\u062f\u0644\u064a\u0629 \u0628\u0648\u0633\u0644\u064a\u062e\u0646", "operator": "Bousslikhane ASMAE", "phone": "0535604525"}}, {"type": "node", "id": 4712508653, "lat": 34.0296079, "lon": -5.0105717, "tags": {"addr:city": "F\u00e8s", "addr:postcode": "30000", "addr:street": "CENTRE COMMERCIAL ACIMA", "amenity": "pharmacy", "dispensing": "yes", "healthcare": "pharmacy", "name": "Pharmacie Acima \u0635\u064a\u062f\u0644\u064a\u0629 \u0623\u0633\u064a\u0645\u0627", "operator": "IDRISSI KENZA", "phone": "+212 535944310"}}, {"type": "node", "id": 4724813489, "lat": 34.0078033, "lon": -5.0322131, "tags": {"addr:city": "F\u00e8s", "addr:postcode": "30000", "addr:street": "lotiss anbra S3 45fin rte ain smen fes", "amenity": "pharmacy", "dispensing": "yes", "healthcare": "pharmacy", "name": "Pharmacie Echadli \u0635\u064a\u062f\u0644\u064a\u0629 \u0627\u0644\u0634\u0627\u062f\u0644\u064a", "operator": "Hassania Echadli", "phone": "0535964899"}}, {"type": "node", "id": 4725748199, "lat": 34.033564, "lon": -5.0069404, "tags": {"addr:city": "F\u00e8s", "addr:postcode": "30000", "addr:street": "Avenue Allal Ben Abdallah", "amenity": "pharmacy", "dispensing": "yes", "healthcare": "pharmacy", "name": "Pharmacie Allal Ben Abdellah \u0635\u064a\u062f\u0644\u064a\u0629 \u0639\u0644\u0627\u0644 \u0628\u0646 \u0639\u0628\u062f \u0627\u0644\u0644\u0647", "operator": "LAZRAK AMAL", "phone": "0535652744"}}, {"type": "node", "id": 4729539594, "lat": 34.0604344, "lon": -4.9817913, "tags": {"addr:city": "F\u00e8s", "addr:postcode": "30000", "addr:street": "BATHA", "amenity": "pharmacy", "dispensing": "yes", "healthcare": "pharmacy", "name": "Pharmacie du Maroc \u0635\u064a\u062f\u0644\u064a\u0629 \u0627\u0644\u0645\u063a\u0631\u0628", "operator": "LAHBABI LATIFA", "phone": "0535633574"}}, {"type": "node", "id": 4730950544, "lat": 34.0005071, "lon": -5.0434417, "tags": {"addr:city": "F\u00e8s", "addr:postcode": "30000", "addr:street": "11 QUARTIER AL AMANE BENSOUDA", "amenity": "pharmacy", "dispensing": "yes", "healthcare": "pharmacy", "name": "Pharmacie la Cri\u00e9e \u0635\u064a\u062f\u0644\u064a\u0629 \u0627\u0644\u0645\u0632\u0627\u062f", "operator": "BERRADA HIND", "phone": "0535655327"}}, {"type": "node", "id": 4738031421, "lat": 34.0389152, "lon": -4.9986734, "tags": {"addr:city": "F\u00e8s", "addr:postcode": "30000", "addr:street": "Boulevard Mohammed 5", "amenity": "pharmacy", "dispensing": "yes", "healthcare": "pharmacy", "name": "Pharmacie Bahja \u0635\u064a\u062f\u0644\u064a\u0629 \u0627\u0644\u0628\u0647\u062c\u0629", "operator": "TRICHA FATIMA", "phone": "0535622441"}}, {"type": "node", "id": 4738681626, "lat": 34.0128456, "lon": -4.9854532, "tags": {"addr:city": "F\u00e8s", "addr:housenumber": "56 et 58", "addr:postcode": "30000", "addr:street": "Avenue Ismailia", "amenity": "pharmacy", "dispensing": "yes", "healthcare": "pharmacy", "name": "Pharmacie de la Sant\u00e9 \u0635\u064a\u062f\u0644\u064a\u0629 \u0627\u0644\u0635\u062d\u0629", "operator": "Benaicha Saida", "phone": "0535656723"}}, {"type": "node", "id": 4740427422, "lat": 34.0267254, "lon": -5.0034341, "tags": {"addr:city": "F\u00e8s", "addr:postcode": "30000", "addr:street": "DEBUT HAY SAADA RTE AIN CHKEF", "amenity": "pharmacy", "dispensing": "yes", "healthcare": "pharmacy", "name": "Pharmacie Idrissi \u0635\u064a\u062f\u0644\u064a\u0629 \u0627\u0644\u0625\u062f\u0631\u064a\u0633\u064a", "operator": "IDRISSI OMAR", "phone": "0535606731"}}, {"type": "node", "id": 4741642523, "lat": 34.0428163, "lon": -5.0038728, "tags": {"addr:city": "F\u00e8s", "addr:housenumber": "1", "addr:postcode": "30000", "addr:street": "Avenue OUBEIDA IBN JARRAH", "amenity": "pharmacy", "dispensing": "yes", "healthcare": "pharmacy", "name": "Pharmacie Debbagh \u0635\u064a\u062f\u0644\u064a\u0629 \u0627\u0644\u062f\u0628\u0627\u063a", "office": "government", "operator": "DEBBAGH TOURIA", "phone": "0535622381"}}, {"type": "node", "id": 4744887621, "lat": 34.0421156, "lon": -5.001262, "tags": {"addr:city": "F\u00e8s", "addr:housenumber": "3", "addr:postcode": "30000", "addr:street": "Avenue Lalla Meryem \u0634\u0627\u0631\u0639 \u0644\u0644\u0627 \u0645\u0631\u064a\u0645", "amenity": "pharmacy", "dispensing": "yes", "healthcare": "pharmacy", "name": "Pharmacie et Laboratoire Al Amrani \u0635\u064a\u062f\u0644\u064a\u0629 \u0648 \u0645\u062e\u062a\u0628\u0631 \u0627\u0644\u0639\u0645\u0631\u0627\u0646\u064a", "operator": "Ph PAM"}}, {"type": "node", "id": 4746773124, "lat": 34.0365542, "lon": -5.0084996, "tags": {"addr:city": "F\u00e8s", "addr:housenumber": "1", "addr:postcode": "30000", "addr:street": "Avenue du Prince Heritier champs de course", "amenity": "pharmacy", "dispensing": "yes", "healthcare": "pharmacy", "name": "Pharmacie Moulay El Kamel \u0635\u064a\u062f\u0644\u064a\u0629 \u0645\u0648\u0644\u0627\u064a \u0627\u0644\u0643\u0627\u0645\u0644", "operator": "FILALI OUAFAE", "phone": "0535626636"}}, {"type": "node", "id": 4746889021, "lat": 34.0326314, "lon": -5.0123203, "tags": {"addr:city": "F\u00e8s \u0641\u0627\u0633", "addr:postcode": "30000", "addr:street": "20 AV . Prince Heritier", "amenity": "pharmacy", "dispensing": "yes", "healthcare": "pharmacy", "name": "Pharmacie Mimousa \u0635\u064a\u062f\u0644\u064a\u0629 \u0645\u064a\u0645\u0648\u0632\u0629", "operator": "fouad hafida", "phone": "0535623376"}}, {"type": "node", "id": 4753542728, "lat": 34.0185021, "lon": -5.0190467, "tags": {"addr:city": "F\u00e8s", "addr:postcode": "30000", "addr:street": "RESIDENCE NAKHLA RTE AIN SMEN", "amenity": "pharmacy", "dispensing": "yes", "healthcare": "pharmacy", "name": "Pharmacie Zemmouri \u0635\u064a\u062f\u0644\u064a\u0629 \u0627\u0644\u0632\u0645\u0648\u0631\u064a", "operator": "zemouri zin abidine", "phone": "0535601446"}}, {"type": "node", "id": 4757773462, "lat": 34.0210364, "lon": -4.9929013, "tags": {"addr:city": "F\u00e8s", "addr:housenumber": "62", "addr:postcode": "30000", "addr:street": "Bourmana derb kristiani", "amenity": "pharmacy", "dispensing": "yes", "healthcare": "pharmacy", "name": "Pharmacie et Laboratoire El Karaouyine \u0635\u064a\u062f\u0644\u064a\u0629 \u0648 \u0645\u062e\u062a\u0628\u0631 \u0627\u0644\u0642\u0631\u0648\u064a\u064a\u0646", "operator": "FASSI FIHRI ABDELILAH", "phone": "0535640749"}}, {"type": "node", "id": 4759451623, "lat": 34.0304772, "lon": -5.0051309, "tags": {"addr:city": "F\u00e9s", "addr:postcode": "30000", "addr:street": "rue Akhtal ibn battouta", "amenity": "pharmacy", "dispensing": "yes", "healthcare": "pharmacy", "name": "Pharmacie Jnane F\u00e8s \u0635\u064a\u062f\u0644\u064a\u0629 \u062c\u0646\u0627\u0646 \u0641\u0627\u0633", "operator": "BENJELLOUN MOHCINE", "phone": "0535653950"}}, {"type": "node", "id": 4759495424, "lat": 34.030867, "lon": -5.0078186, "tags": {"addr:city": "F\u00e8s", "addr:postcode": "30000", "addr:street": "Rue Al Baroudi", "amenity": "pharmacy", "dispensing": "yes", "healthcare": "pharmacy", "name": "Pharmacie Oudghiri \u0635\u064a\u062f\u0644\u064a\u0629 \u0627\u0644\u0648\u062f\u063a\u064a\u0631\u064a", "operator": "Ph PDGH"}}, {"type": "node", "id": 4763995654, "lat": 34.0451989, "lon": -5.0029903, "tags": {"addr:city": "F\u00e8s", "addr:housenumber": "7", "addr:postcode": "30000", "addr:street": "Rue Jordani", "amenity": "pharmacy", "dispensing": "yes", "healthcare": "pharmacy", "name": "Pharmacie Assalama \u0635\u064a\u062f\u0644\u064a\u0629 \u0627\u0644\u0633\u0644\u0627\u0645\u0629", "operator": "Ibn Elkhayat Najia", "phone": "0535621300"}}, {"type": "node", "id": 4772565121, "lat": 34.0196299, "lon": -4.9959536, "tags": {"addr:city": "F\u00e8s", "addr:postcode": "30000", "addr:street": "Avenue Roi Houssaine", "amenity": "pharmacy", "dispensing": "yes", "healthcare": "pharmacy", "name": "Pharmacie Route d'Immouzer \u0635\u064a\u062f\u0644\u064a\u0629 \u0637\u0631\u064a\u0642 \u0625\u064a\u0645\u0648\u0632\u0627\u0631", "operator": "ADIB MOUNIR", "phone": "0535316525"}}, {"type": "node", "id": 4774537683, "lat": 34.0392486, "lon": -4.9936096, "tags": {"addr:city": "F\u00e8s", "addr:postcode": "30000", "addr:street": "Rue Mohammed Diouri \u0632\u0646\u0642\u0629 \u0645\u062d\u0645\u062f \u0627\u0644\u062f\u064a\u0648\u0631\u064a", "amenity": "pharmacy", "dispensing": "yes", "healthcare": "pharmacy", "name": "Pharmacie de l'H\u00f4pital \u0635\u064a\u062f\u0644\u064a\u0629 \u0627\u0644\u0645\u0633\u062a\u0634\u0641\u0649", "operator": "BENZAKOUR ABDELJA", "phone": "0535626468"}}, {"type": "node", "id": 4788557121, "lat": 34.0336413, "lon": -5.0189835, "tags": {"addr:city": "F\u00e8s", "addr:postcode": "30000", "addr:street": "lot kenza chapm course", "amenity": "pharmacy", "dispensing": "yes", "healthcare": "pharmacy", "name": "Pharmacie Moulay Driss \u0635\u064a\u062f\u0644\u064a\u0629 \u0645\u0648\u0644\u0627\u064a \u0627\u062f\u0631\u064a\u0633", "operator": "sebti ikram", "phone": "0535651050"}}, {"type": "node", "id": 4788557323, "lat": 34.0307431, "lon": -5.0229027, "tags": {"addr:city": "F\u00e8s", "addr:postcode": "30000", "addr:street": "HAY TARIK A COTE PALAIS SANABIL", "amenity": "pharmacy", "dispensing": "yes", "healthcare": "pharmacy", "name": "Pharmacie le Palais \u0635\u064a\u062f\u0644\u064a\u0629 \u0627\u0644\u0642\u0635\u0631", "operator": "GENNOUN ANAS", "phone": "0535610327"}}, {"type": "node", "id": 4797223421, "lat": 34.0117154, "lon": -5.0108792, "tags": {"addr:city": "F\u00e9s", "addr:postcode": "30000", "addr:street": "Route Ain Chkef", "amenity": "pharmacy", "dispensing": "yes", "healthcare": "pharmacy", "name": "Pharmacie Nouzha \u0635\u064a\u062f\u0644\u064a\u0629 \u0627\u0644\u0646\u0632\u0647\u0629", "operator": "LAHLOU SANAE", "phone": "0535610347"}}, {"type": "node", "id": 4801102022, "lat": 34.0374402, "lon": -5.0003795, "tags": {"addr:city": "F\u00e8s", "addr:housenumber": "18", "addr:postcode": "30000", "addr:street": "Avenue Mohamed Es Slaoui", "amenity": "pharmacy", "dispensing": "yes", "healthcare": "pharmacy", "name": "Pharmacie El Fath \u0635\u064a\u062f\u0644\u064a\u0629 \u0627\u0644\u0641\u062a\u062d", "operator": "CHAMI RACHIDA", "phone": "0535623089"}}, {"type": "node", "id": 4801209322, "lat": 34.0385288, "lon": -4.9981613, "tags": {"addr:city": "BV MOHAMED 5", "addr:postcode": "30000", "addr:street": "Boulevard Mohammed V \u0634\u0627\u0631\u0639 \u0645\u062d\u0645\u062f \u0627\u0644\u062e\u0627\u0645\u0633", "amenity": "pharmacy", "dispensing": "yes", "healthcare": "pharmacy", "name": "Pharmacie la Croix Verte \u0635\u064a\u062f\u0644\u064a\u0629 \u0644\u0627\u0643\u0631\u0648\u0627 \u0641\u064a\u0631\u062a", "operator": "Ph PCV"}}, {"type": "node", "id": 4802070122, "lat": 34.0492382, "lon": -5.0355052, "tags": {"addr:city": "F\u00e8s", "addr:postcode": "30000", "addr:street": "SUPER MARCHE MARJANE", "amenity": "pharmacy", "dispensing": "yes", "healthcare": "pharmacy", "name": "Pharmacie Marjane \u0635\u064a\u062f\u0644\u064a\u0629 \u0645\u0631\u062c\u0627\u0646", "operator": "BENMANSOUR KENZA", "phone": "0535754234"}}, {"type": "node", "id": 4803244621, "lat": 34.0167606, "lon": -5.0109578, "tags": {"addr:city": "F\u00e8s", "addr:postcode": "30000", "addr:street": "367 AHMED BALAFEJ ADARISSA", "amenity": "pharmacy", "dispensing": "yes", "healthcare": "pharmacy", "name": "Pharmacie Al Ichrak \u0635\u064a\u062f\u0644\u064a\u0629 \u0627\u0644\u0625\u0634\u0631\u0627\u0642", "operator": "JANATI Achraf", "phone": "0535607787"}}, {"type": "node", "id": 4803711989, "lat": 34.0392401, "lon": -5.0129692, "tags": {"addr:city": "F\u00e8s", "addr:postcode": "30000", "addr:street": "Champs de Cours Dokkarat", "amenity": "pharmacy", "dispensing": "yes", "healthcare": "pharmacy", "name": "Pharmacie Al Mernissi \u0635\u064a\u062f\u0644\u064a\u0629 \u0627\u0644\u0645\u0631\u0646\u064a\u0633\u064a", "operator": "BOUDKARA FATIMA", "phone": "+212 5356-26767"}}, {"type": "node", "id": 4805354921, "lat": 34.0194622, "lon": -5.0056751, "tags": {"addr:city": "F\u00e8s", "addr:postcode": "30000", "addr:street": "RUE AL AMIR RTE AYN CHKEF", "amenity": "pharmacy", "dispensing": "yes", "healthcare": "pharmacy", "name": "Pharmacie Masjid Ataqwa \u0635\u064a\u062f\u0644\u064a\u0629 \u0645\u0633\u062c\u062f \u0627\u0644\u062a\u0642\u0648\u0649", "operator": "filali nabila", "phone": "0535748140"}}, {"type": "node", "id": 4805418523, "lat": 34.0182594, "lon": -5.0079836, "tags": {"addr:city": "F\u00e8s", "addr:housenumber": "13", "addr:postcode": "30000", "addr:street": "ERAC HAY AL ADARISSA", "addr:suburb": "Hay Adarissa", "amenity": "pharmacy", "dispensing": "yes", "healthcare": "pharmacy", "name": "Pharmacie Sounni \u0635\u064a\u062f\u0644\u064a\u0629 \u0627\u0644\u0633\u0646\u064a", "operator": "KAZMANE AHMED", "phone": "+212 535603774"}}, {"type": "node", "id": 4805680322, "lat": 34.032488, "lon": -5.02417, "tags": {"addr:city": "F\u00e8s", "addr:postcode": "30000", "addr:street": "HAY TARIK I", "amenity": "pharmacy", "dispensing": "yes", "healthcare": "pharmacy", "name": "Pharmacie Bennani \u0635\u064a\u062f\u0644\u064a\u0629 \u0628\u0646\u0627\u0646\u064a", "operator": "BENNANI TAOUFIK", "phone": "0535608788"}}, {"type": "node", "id": 4807116122, "lat": 34.0156004, "lon": -5.026931, "tags": {"addr:city": "F\u00e8s", "addr:postcode": "30000", "addr:street": "Hay Griyou Zouagha Haute", "amenity": "pharmacy", "dispensing": "yes", "healthcare": "pharmacy", "name": "Pharmacie Arrachad \u0635\u064a\u062f\u0644\u064a\u0629 \u0627\u0644\u0631\u0634\u0627\u062f", "operator": "MSAIDI safae", "phone": "+212 535601836"}}, {"type": "node", "id": 4807118621, "lat": 34.0221038, "lon": -5.0122016, "tags": {"addr:city": "F\u00e8s", "addr:housenumber": "13", "addr:postcode": "30000", "addr:street": "Avenue Ibn Al Atir \u0634\u0627\u0631\u0639 \u0627\u0628\u0646 \u0627\u0644\u0623\u062b\u064a\u0631", "amenity": "pharmacy", "dispensing": "yes", "healthcare": "pharmacy", "name": "Pharmacie Farah \u0635\u064a\u062f\u0644\u064a\u0629 \u0641\u0631\u062d", "operator": "Yahyaoui Rachida", "phone": "+212 535600514"}}, {"type": "node", "id": 4807118622, "lat": 34.0304648, "lon": -5.013688, "tags": {"addr:city": "F\u00e8s", "addr:postcode": "30000", "amenity": "pharmacy", "dispensing": "yes", "healthcare": "pharmacy", "name": "Pharmacie Belbacha \u0635\u064a\u062f\u0644\u064a\u0629 \u0628\u0627\u0644\u0628\u0627\u0634\u0629", "operator": "BELBACHA OLAYA", "phone": "0535654870"}}, {"type": "node", "id": 4807373024, "lat": 34.029394, "lon": -5.0005704, "tags": {"addr:city": "F\u00e8s", "addr:postcode": "30000", "addr:street": "RUE SAIN LOUIS RTE AIN CHKAEF", "amenity": "pharmacy", "dispensing": "yes", "healthcare": "pharmacy", "name": "Pharmacie Moulay Slimane \u0635\u064a\u062f\u0644\u064a\u0629 \u0645\u0648\u0644\u0627\u064a \u0633\u0644\u064a\u0645\u0627\u0646", "operator": "BENNIS BAHIA", "phone": "0535657608"}}, {"type": "node", "id": 4811706021, "lat": 34.0094418, "lon": -5.0456351, "tags": {"addr:city": "F\u00e8s", "addr:postcode": "30000", "amenity": "pharmacy", "dispensing": "yes", "healthcare": "pharmacy", "name": "Pharmacie la Station \u0635\u064a\u062f\u0644\u064a\u0629 \u0627\u0644\u0645\u062d\u0637\u0629", "operator": "Ph PST"}}, {"type": "node", "id": 4811862222, "lat": 34.0247453, "lon": -5.0407415, "tags": {"addr:city": "F\u00e8s", "addr:postcode": "30000", "addr:street": "1 BAB atlas lot N 41 zouagha", "amenity": "pharmacy", "dispensing": "yes", "healthcare": "pharmacy", "name": "Pharmacie Azzahraouayn \u0635\u064a\u062f\u0644\u064a\u0629 \u0627\u0644\u0632\u0647\u0631\u0627\u0648\u064a\u064a\u0646", "operator": "Ph PZH", "phone": "0535655250"}}, {"type": "node", "id": 4814399221, "lat": 34.0423848, "lon": -5.006424, "tags": {"addr:city": "F\u00e8s", "addr:housenumber": "23", "addr:postcode": "30000", "addr:street": "rue Imam Malik", "amenity": "pharmacy", "dispensing": "yes", "healthcare": "pharmacy", "name": "Pharmacie Imam Ali \u0635\u064a\u062f\u0644\u064a\u0629 \u0627\u0644\u0625\u0645\u0627\u0645 \u0639\u0644\u064a", "operator": "Guessouss Afaf", "phone": "+212 535931264"}}, {"type": "node", "id": 4815220421, "lat": 34.029135, "lon": -5.0265075, "tags": {"addr:city": "F\u00e8s", "addr:postcode": "30000", "addr:street": "Rue Abdellah Guenoun", "amenity": "pharmacy", "dispensing": "yes", "healthcare": "pharmacy", "name": "Pharmacie Touzani \u0635\u064a\u062f\u0644\u064a\u0629 \u0627\u0644\u062a\u0648\u0632\u0627\u0646\u064a", "operator": "TOUZANI ABDELKADER", "phone": "0535612221"}}, {"type": "node", "id": 4815250118, "lat": 34.0129982, "lon": -5.0401436, "tags": {"addr:city": "F\u00e8s", "addr:postcode": "30000", "addr:street": "IMM 84 N 3 LOT .DALILA-ADDOHA-ZOUAGHA", "amenity": "pharmacy", "dispensing": "yes", "healthcare": "pharmacy", "name": "Pharmacie Pavlov \u0635\u064a\u062f\u0644\u064a\u0629 \u0628\u0627\u0641\u0644\u0648\u0641", "operator": "loukili anas", "phone": "0535726161"}}, {"type": "node", "id": 4815400180, "lat": 34.0608412, "lon": -4.9664226, "tags": {"addr:city": "F\u00e8s", "addr:postcode": "30000", "addr:street": "BAB FTOUH", "amenity": "pharmacy", "dispensing": "yes", "healthcare": "pharmacy", "name": "Pharmacie Bab Ftouh \u0635\u064a\u062f\u0644\u064a\u0629 \u0628\u0627\u0628 \u0641\u062a\u0648\u062d", "operator": "BENCHkROUN HOUCINE", "phone": "0535649135"}}, {"type": "node", "id": 4815416019, "lat": 34.0112189, "lon": -4.9763526, "tags": {"addr:city": "F\u00e8s", "addr:postcode": "30000", "addr:street": "LOT 394 NARJISS LOT OUAFAE RTE SEFROU", "amenity": "pharmacy", "dispensing": "yes", "healthcare": "pharmacy", "name": "Pharmacie Al Ouafae \u0635\u064a\u062f\u0644\u064a\u0629 \u0627\u0644\u0648\u0641\u0627\u0621", "operator": "BENBRAHIM HASSAN", "phone": "0535619201"}}, {"type": "node", "id": 4815618965, "lat": 34.0570103, "lon": -4.9905245, "tags": {"addr:city": "F\u00e8s", "addr:postcode": "30000", "amenity": "pharmacy", "dispensing": "yes", "healthcare": "pharmacy", "name": "Pharmacie Naima Lahlou \u0635\u064a\u062f\u0644\u064a\u0629 \u0646\u0639\u064a\u0645\u0629 \u0644\u062d\u0644\u0648", "operator": "FEGROUCH SAMIA", "phone": "0535631211"}}, {"type": "node", "id": 4815669288, "lat": 34.0638765, "lon": -4.9943906, "tags": {"addr:city": "F\u00e8s", "addr:postcode": "30000", "addr:street": "ROND POINT KARAOUINE BEN DEBBAB", "amenity": "pharmacy", "dispensing": "yes", "healthcare": "pharmacy", "name": "Pharmacie Ben Debbab \u0635\u064a\u062f\u0644\u064a\u0629 \u0628\u0646 \u062f\u0628\u0627\u0628", "operator": "bennani fouad", "phone": "0535645174"}}, {"type": "node", "id": 4815708754, "lat": 34.0697582, "lon": -5.0120009, "tags": {"addr:city": "F\u00e8s \u2d3c\u2d30\u2d59 \u0641\u0627\u0633", "addr:postcode": "30000", "amenity": "pharmacy", "dispensing": "yes", "healthcare": "pharmacy", "name": "Pharmacie Lwdaya \u0635\u064a\u062f\u0644\u064a\u0629 \u0644\u0648\u062f\u0627\u064a\u0629", "operator": "Ph PDY"}}, {"type": "node", "id": 4815722783, "lat": 34.03271, "lon": -5.047852, "tags": {"addr:city": "F\u00e8s", "addr:postcode": "30000", "addr:street": "N 1 RUE MERJA ZOUAGHA", "amenity": "pharmacy", "dispensing": "yes", "healthcare": "pharmacy", "name": "Pharmacie Arrajae \u0635\u064a\u062f\u0644\u064a\u0629 \u0627\u0644\u0631\u062c\u0627\u0621", "operator": "BELLAMINE KARIMA", "phone": "0535726162"}}, {"type": "node", "id": 4816625221, "lat": 34.0206795, "lon": -5.0270395, "tags": {"addr:city": "F\u00e8s", "addr:postcode": "30000", "amenity": "pharmacy", "dispensing": "yes", "healthcare": "pharmacy", "name": "Pharmacie Bouzoubaa \u0635\u064a\u062f\u0644\u064a\u0629 \u0628\u0648\u0632\u0648\u0628\u0639", "operator": "Ph PBZ"}}, {"type": "node", "id": 4817715044, "lat": 34.0356746, "lon": -5.0245247, "tags": {"addr:city": "F\u00e8s \u0641\u0627\u0633", "addr:postcode": "30000", "addr:street": "HAY TARIK 1 RUE 3", "amenity": "pharmacy", "dispensing": "yes", "healthcare": "pharmacy", "name": "Pharmacie El Malhi \u0635\u064a\u062f\u0644\u064a\u0629 \u0627\u0644\u0645\u0644\u062d\u064a", "operator": "EL MALHI SANAE", "phone": "0535611029"}}, {"type": "node", "id": 4817730225, "lat": 34.0551533, "lon": -5.0329316, "tags": {"addr:city": "F\u00e8s", "addr:postcode": "30000", "addr:street": "hay oued fes", "amenity": "pharmacy", "dispensing": "yes", "healthcare": "pharmacy", "name": "Pharmacie El Wardi \u0635\u064a\u062f\u0644\u064a\u0629 \u0627\u0644\u0648\u0631\u062f\u064a", "operator": "el wardi idrissia", "phone": "0535631046"}}, {"type": "node", "id": 4817763683, "lat": 34.0067267, "lon": -5.0165884, "tags": {"addr:city": "F\u00e9s", "addr:housenumber": "422", "addr:postcode": "30000", "addr:street": "Boulevard Karaouine", "amenity": "pharmacy", "dispensing": "yes", "healthcare": "pharmacy", "name": "Pharmacie Al Mawada \u0635\u064a\u062f\u0644\u064a\u0629 \u0627\u0644\u0645\u0648\u062f\u0629", "operator": "falah meryem", "phone": "+212 534295947"}}, {"type": "node", "id": 4817810561, "lat": 34.0543407, "lon": -4.9532305, "tags": {"addr:city": "F\u00e8s", "addr:postcode": "30000", "addr:street": "5 sehb el ward hors bab ftouh", "amenity": "pharmacy", "dispensing": "yes", "healthcare": "pharmacy", "name": "Pharmacie Sahb El Ward \u0635\u064a\u062f\u0644\u064a\u0629 \u0633\u0647\u0628 \u0627\u0644\u0648\u0631\u062f", "operator": "filali myriem", "phone": "0535761484"}}, {"type": "node", "id": 4817824057, "lat": 34.0403695, "lon": -4.9898563, "tags": {"addr:city": "F\u00e8s", "addr:postcode": "30000", "addr:street": "DHAR MEHRAZ BAB EL GHOUL", "amenity": "pharmacy", "dispensing": "yes", "healthcare": "pharmacy", "name": "Pharmacie Al Ghassani \u0635\u064a\u062f\u0644\u064a\u0629 \u0627\u0644\u063a\u0633\u0627\u0646\u064a", "operator": "GUELLOUCHI Sonia", "phone": "+212 535940078"}}, {"type": "node", "id": 4817843397, "lat": 34.0213738, "lon": -4.9984577, "tags": {"addr:city": "f\u00e9s", "addr:street": "19 RUE BIZERT RTE D'IMMOUZER", "amenity": "pharmacy", "name": "Pharmacie L'IRIS \u0635\u064a\u062f\u0644\u064a\u0629 \u0627\u0644\u0627\u063a\u064a\u0633", "name:ar": "\u0635\u064a\u062f\u0644\u064a\u0629 \u0627\u0644\u0627\u063a\u064a\u0633", "name:fr": "Pharmacie L'IRIS", "operator": "GUENNOUNA MAHA", "phone": "0535748019"}}, {"type": "node", "id": 4817921284, "lat": 34.0576478, "lon": -4.9769857, "tags": {"addr:city": "F\u00e8s", "addr:postcode": "30000", "addr:street": "DREB ZIAT BATHA", "amenity": "pharmacy", "dispensing": "yes", "healthcare": "pharmacy", "name": "Pharmacie Ziat \u0635\u064a\u062f\u0644\u064a\u0629 \u0627\u0644\u0632\u064a\u0627\u062a", "operator": "GUISSI", "phone": "+212535634446"}}, {"type": "node", "id": 4817966862, "lat": 34.0326792, "lon": -4.9969956, "tags": {"addr:city": "F\u00e8s", "addr:postcode": "30000", "addr:street": "14 RUE 1 BLOC PAM BENSOUDA", "amenity": "pharmacy", "dispensing": "yes", "healthcare": "pharmacy", "name": "Pharmacie Saiss \u0635\u064a\u062f\u0644\u064a\u0629 \u0633\u0627\u064a\u0633", "operator": "HJIEJ HANANE", "phone": "0535655213"}}, {"type": "node", "id": 4818028572, "lat": 34.0633492, "lon": -5.0083871, "tags": {"addr:city": "F\u00e9s", "addr:postcode": "30000", "addr:street": "HAY MSELLAH", "amenity": "pharmacy", "dispensing": "yes", "healthcare": "pharmacy", "name": "Pharmacie Nahid \u0635\u064a\u062f\u0644\u064a\u0629 \u0646\u0627\u0647\u064a\u062f", "operator": "IHENDYANE NAHID", "phone": "+212 535630681"}}, {"type": "node", "id": 4822485122, "lat": 34.0420078, "lon": -5.0172347, "tags": {"addr:city": "F\u00e8s", "addr:full": "HAY ALMOUADAFINE DOUKARAT", "addr:postcode": "30000", "amenity": "pharmacy", "dispensing": "yes", "healthcare": "pharmacy", "name": "Pharmacie El Attar \u0635\u064a\u062f\u0644\u064a\u0629 \u0627\u0644\u0639\u0637\u0627\u0631", "operator": "EL ATTAR MOHAMED \u0645\u062d\u0645\u062f \u0627\u0644\u0639\u0637\u0627\u0631", "operator:ar": "\u0645\u062d\u0645\u062f \u0627\u0644\u0639\u0637\u0627\u0631", "phone": "0535943030"}}, {"type": "node", "id": 4822797821, "lat": 34.0584106, "lon": -4.972887, "tags": {"addr:city": "F\u00e8s", "addr:postcode": "30000", "addr:street": "32 TRIK JDIDA RCIF", "amenity": "pharmacy", "dispensing": "yes", "healthcare": "pharmacy", "name": "Pharmacie Amine \u0635\u064a\u062f\u0644\u064a\u0629 \u0623\u0645\u064a\u0646", "operator": "amrani bouchra", "phone": "0535760770"}}, {"type": "node", "id": 4823680821, "lat": 33.9916405, "lon": -5.042749, "tags": {"addr:city": "F\u00e8s", "addr:postcode": "30000", "amenity": "pharmacy", "dispensing": "yes", "healthcare": "pharmacy", "name": "Pharmacie Arssat Zitoun \u0635\u064a\u062f\u0644\u064a\u0629 \u0639\u0631\u0635\u0629 \u0627\u0644\u0632\u064a\u062a\u0648\u0646", "operator": "Ph PAZ"}}, {"type": "node", "id": 4823696521, "lat": 33.9942988, "lon": -5.0401468, "tags": {"addr:city": "F\u00e8s", "addr:postcode": "30000", "addr:street": "178 Olivrie secT 27 Zouagha haut", "amenity": "pharmacy", "dispensing": "yes", "healthcare": "pharmacy", "name": "Pharmacie Saidi \u0635\u064a\u062f\u0644\u064a\u0629 \u0633\u0639\u064a\u062f\u064a", "operator": "Ph PSD", "phone": "0535691784"}}, {"type": "node", "id": 4825502723, "lat": 33.9977066, "lon": -5.0480324, "tags": {"addr:city": "F\u00e8s", "addr:postcode": "30000", "amenity": "pharmacy", "dispensing": "yes", "healthcare": "pharmacy", "name": "Pharmacie Niama \u0635\u064a\u062f\u0644\u064a\u0629 \u0646\u0639\u0645\u0629", "operator": "Ph PNM"}}, {"type": "node", "id": 4826191124, "lat": 34.0427102, "lon": -5.0123896, "tags": {"addr:city": "F\u00e8s", "addr:housenumber": "14", "addr:postcode": "30000", "addr:street": "Avenue des Almohades \u0634\u0627\u0631\u0639 \u0627\u0644\u0645\u0648\u062d\u062f\u064a\u0646", "amenity": "pharmacy", "dispensing": "yes", "healthcare": "pharmacy", "name": "Pharmacie El Mouahidine \u0635\u064a\u062f\u0644\u064a\u0629 \u0627\u0644\u0645\u0648\u062d\u062f\u064a\u0646", "operator": "BENMOUSSA ABDELHAY", "phone": "0535621919"}}, {"type": "node", "id": 4830547721, "lat": 34.0337314, "lon": -5.0268101, "tags": {"addr:city": "F\u00e8s", "addr:postcode": "30000", "addr:street": "HAY TARIK 2", "amenity": "pharmacy", "dispensing": "yes", "healthcare": "pharmacy", "name": "Pharmacie la Bont\u00e9 \u0635\u064a\u062f\u0644\u064a\u0629 \u0627\u0644\u0637\u064a\u0628\u0629", "operator": "AMRANI MERIEM", "phone": "0535610622"}}, {"type": "node", "id": 4830823521, "lat": 34.0404482, "lon": -5.0087851, "tags": {"addr:city": "F\u00e8s", "addr:postcode": "30000", "addr:street": "Avenue des Far route de meknes", "amenity": "pharmacy", "dispensing": "yes", "healthcare": "pharmacy", "name": "Pharmacie Chifae \u0635\u064a\u062f\u0644\u064a\u0629 \u0627\u0644\u0634\u0641\u0627\u0621", "operator": "CHAMI MOHAMED", "phone": "0535650544"}}, {"type": "node", "id": 4832498324, "lat": 34.0407699, "lon": -5.0166336, "tags": {"addr:city": "F\u00e8s", "addr:postcode": "30000", "addr:street": "Avenue des Forces Arm\u00e9es Royales \u0634\u0627\u0631\u0639 \u0627\u0644\u062c\u064a\u0634 \u0627\u0644\u0645\u0644\u0643\u064a", "amenity": "pharmacy", "dispensing": "yes", "healthcare": "pharmacy", "name": "Pharmacie des FAR \u0635\u064a\u062f\u0644\u064a\u0629 \u0627\u0644\u062c\u064a\u0634 \u0627\u0644\u0645\u0644\u0643\u064a", "operator": "Ph PFR"}}, {"type": "node", "id": 4834354024, "lat": 34.0393502, "lon": -5.0217359, "tags": {"addr:city": "F\u00e8s \u0641\u0627\u0633", "addr:full": "ROUTE DE MEKNES", "addr:postcode": "30000", "addr:street": "Avenue des Forces Arm\u00e9es Royales \u0634\u0627\u0631\u0639 \u0627\u0644\u062c\u064a\u0634 \u0627\u0644\u0645\u0644\u0643\u064a", "amenity": "pharmacy", "dispensing": "yes", "healthcare": "pharmacy", "name": "Pharmacie Doukkarat \u0635\u064a\u062f\u0644\u064a\u0629 \u0627\u0644\u062f\u0643\u0627\u0631\u0627\u062a", "operator": "ABDELMALKI NOURDINE", "phone": "0535620921"}}, {"type": "node", "id": 4841546126, "lat": 34.0395245, "lon": -5.0272749, "tags": {"addr:city": "F\u00e8s", "addr:postcode": "30000", "addr:street": "lot karim amrani doukarat", "amenity": "pharmacy", "dispensing": "yes", "healthcare": "pharmacy", "name": "Pharmacie Route de Mekn\u00e8s \u0635\u064a\u062f\u0644\u064a\u0629 \u0637\u0631\u064a\u0642 \u0645\u0643\u0646\u0627\u0633", "operator": "Mrani Alaoui bouchra", "phone": "0535944857"}}, {"type": "node", "id": 4841769221, "lat": 34.0397879, "lon": -5.0313486, "tags": {"addr:city": "F\u00e8s", "addr:postcode": "30000", "addr:street": "RTE MEKNES LOTISS LAHBABI N 11 FES", "amenity": "pharmacy", "dispensing": "yes", "healthcare": "pharmacy", "name": "Pharmacie Tazi \u0635\u064a\u062f\u0644\u064a\u0629 \u0627\u0644\u062a\u0627\u0632\u064a", "operator": "TAZI YOUSSEF", "phone": "0535931682"}}, {"type": "node", "id": 4843629022, "lat": 34.0281108, "lon": -5.0239044, "tags": {"addr:city": "F\u00e8s", "addr:postcode": "30000", "addr:street": "86 HAY TARIK 2 RTE BENSOUDA FES", "amenity": "pharmacy", "dispensing": "yes", "healthcare": "pharmacy", "name": "Pharmacie Tarik \u0635\u064a\u062f\u0644\u064a\u0629 \u0637\u0627\u0631\u0642", "operator": "fatiha hammadi", "phone": "0535602149"}}, {"type": "node", "id": 4843833522, "lat": 34.0260824, "lon": -5.0012035, "tags": {"addr:city": "F\u00e8s", "addr:postcode": "30000", "addr:street": "AIT SKATTO HAY SAADA", "amenity": "pharmacy", "dispensing": "yes", "healthcare": "pharmacy", "name": "Pharmacie Ait Skattou \u0635\u064a\u062f\u0644\u064a\u0629 \u0627\u064a\u062a \u0633\u0642\u0627\u0637\u0648", "operator": "ELISABET G", "phone": "0535748673"}}, {"type": "node", "id": 4845395322, "lat": 34.0268021, "lon": -5.0219356, "tags": {"addr:city": "F\u00e8s", "addr:postcode": "30000", "addr:street": "HAY TARIK", "amenity": "pharmacy", "dispensing": "yes", "healthcare": "pharmacy", "name": "Pharmacie Benjelloun \u0635\u064a\u062f\u0644\u064a\u0629 \u0628\u0646\u062c\u0644\u0648\u0646", "operator": "BENJELLOUN BAHAE EDDINE", "phone": "0535610967"}}, {"type": "node", "id": 4854006421, "lat": 34.0183664, "lon": -5.026767, "tags": {"addr:city": "F\u00e8s", "addr:postcode": "30000", "addr:street": "Rue lalla soukaina", "amenity": "pharmacy", "dispensing": "yes", "healthcare": "pharmacy", "name": "Pharmacie Lalla Soukaina \u0635\u064a\u062f\u0644\u064a\u0629 \u0644\u0644\u0627\u0633\u0643\u064a\u0646\u0629", "operator": "Ph PLS"}}, {"type": "node", "id": 4855335623, "lat": 34.0335369, "lon": -5.022362, "tags": {"addr:city": "F\u00e8s", "addr:postcode": "30000", "addr:street": "Rue 2 Hay Rajae Tarik 1", "amenity": "pharmacy", "dispensing": "yes", "healthcare": "pharmacy", "name": "Pharmacie la Lavande \u0635\u064a\u062f\u0644\u064a\u0629 \u0627\u0644\u062e\u0632\u0627\u0645\u0649", "operator": "LAHLOU FAIZA", "phone": "0535607879"}}, {"type": "node", "id": 4861633424, "lat": 34.0359013, "lon": -4.9953162, "tags": {"addr:city": "F\u00e8s", "addr:postcode": "30000", "addr:street": "Rue Abdelaziz Boutaleb", "amenity": "pharmacy", "dispensing": "yes", "healthcare": "pharmacy", "name": "Pharmacie du Passage \u0635\u064a\u062f\u0644\u064a\u0629 \u0627\u0644\u0645\u0633\u0627\u0631", "operator": "KARMOPUNI AZIZ", "phone": "0535650352"}}, {"type": "node", "id": 4869569771, "lat": 34.0560401, "lon": -4.9870892, "tags": {"addr:city": "F\u00e8s \u2d3c\u2d30\u2d59 \u0641\u0627\u0633", "addr:postcode": "30000", "addr:street": "Fes eljadid", "amenity": "pharmacy", "dispensing": "yes", "healthcare": "pharmacy", "name": "Pharmacie Boutouil \u0635\u064a\u062f\u0644\u064a\u0629 \u0628\u0648\u0637\u0648\u064a\u0644", "operator": "IRAQUI MERIEM", "phone": "0535652845"}}, {"type": "node", "id": 4869596663, "lat": 34.0539632, "lon": -4.9893255, "tags": {"addr:city": "F\u00e8s \u2d3c\u2d30\u2d59 \u0641\u0627\u0633", "addr:postcode": "30000", "addr:street": "28 BAB JIAF FES JDID", "amenity": "pharmacy", "dispensing": "yes", "healthcare": "pharmacy", "name": "Pharmacie Populaire \u0627\u0644\u0635\u064a\u062f\u0644\u064a\u0629 \u0627\u0644\u0634\u0639\u0628\u064a\u0629", "operator": "BERRADA AHMED", "phone": "0535621929"}}, {"type": "node", "id": 4869602270, "lat": 34.0522071, "lon": -4.9901683, "tags": {"addr:city": "F\u00e8s \u2d3c\u2d30\u2d59 \u0641\u0627\u0633", "addr:postcode": "30000", "addr:street": "33 DERB JAMAA NOUVEL MELLAH", "amenity": "pharmacy", "dispensing": "yes", "healthcare": "pharmacy", "name": "Pharmacie Louajriyeine \u0635\u064a\u062f\u0644\u064a\u0629 \u0627\u0644\u0648\u062c\u0631\u064a\u064a\u0646", "operator": "Ph PLJ", "phone": "0535940033"}}, {"type": "node", "id": 4871949522, "lat": 34.0345554, "lon": -4.9938759, "tags": {"addr:city": "F\u00e8s", "addr:housenumber": "26", "addr:postcode": "30000", "addr:street": "Rue Omar Al Idrissi", "amenity": "pharmacy", "dispensing": "yes", "healthcare": "pharmacy", "name": "Pharmacie Ravin \u0635\u064a\u062f\u0644\u064a\u0629 \u0627\u0644\u0631\u0627\u0641\u0627\u0646", "operator": "KHALID ADIB", "phone": "0535624785"}}, {"type": "node", "id": 4871952121, "lat": 34.0215149, "lon": -5.0070833, "tags": {"addr:city": "F\u00e8s", "addr:postcode": "30000", "addr:street": "HAY SAADA RTE AIN CHQEF", "amenity": "pharmacy", "dispensing": "yes", "healthcare": "pharmacy", "name": "Pharmacie Adarissa \u0635\u064a\u062f\u0644\u064a\u0629 \u0623\u062f\u0627\u0631\u0633\u0629", "operator": "AKESBI SABAH", "phone": "0535602367"}}, {"type": "node", "id": 4883661122, "lat": 34.0158487, "lon": -5.0070187, "tags": {"addr:city": "F\u00e8s", "addr:postcode": "30050", "addr:street": "Av Saint Louis RTE AIN CHKEF", "amenity": "pharmacy", "dispensing": "yes", "healthcare": "pharmacy", "name": "Pharmacie Yassine \u0635\u064a\u062f\u0644\u064a\u0629 \u064a\u0627\u0633\u064a\u0646", "operator": "DOUIRI MERIEM", "phone": "0535604253"}}, {"type": "node", "id": 4885602324, "lat": 34.0369664, "lon": -4.9896306, "tags": {"addr:city": "F\u00e8s", "addr:postcode": "30000", "amenity": "pharmacy", "dispensing": "yes", "healthcare": "pharmacy", "name": "Pharmacie Dhar El Mehraz \u0635\u064a\u062f\u0644\u064a\u0629 \u0638\u0647\u0631 \u0627\u0644\u0645\u0647\u0631\u0627\u0632", "operator": "GUERCH MOSTAPHA", "phone": "0535642021"}}, {"type": "node", "id": 4887681622, "lat": 34.0349848, "lon": -5.0558381, "tags": {"addr:city": "F\u00e8s \u2d3c\u2d30\u2d59 \u0641\u0627\u0633", "addr:postcode": "30000", "amenity": "pharmacy", "dispensing": "yes", "healthcare": "pharmacy", "name": "Pharmacie Jnane El Berdai \u0635\u064a\u062f\u0644\u064a\u0629 \u062c\u0646\u0627\u0646 \u0627\u0644\u0628\u0631\u062f\u0639\u064a", "operator": "Ph PJB"}}, {"type": "node", "id": 4894589424, "lat": 34.0448431, "lon": -5.0066483, "tags": {"addr:city": "F\u00e8s", "addr:housenumber": "21", "addr:postcode": "30000", "addr:street": "Imam chafai", "amenity": "pharmacy", "dispensing": "yes", "healthcare": "pharmacy", "name": "Pharmacie de la Gare \u0635\u064a\u062f\u0644\u064a\u0629 \u0627\u0644\u0645\u062d\u0637\u0629", "operator": "Dandashy - Ammour Ouafae", "phone": "0535652475"}}, {"type": "node", "id": 4894951222, "lat": 34.0100955, "lon": -5.0352723, "tags": {"addr:city": "F\u00e8s", "addr:postcode": "30000", "addr:street": "38 AV IBN LKHATIB DERB EL WARD FES", "amenity": "pharmacy", "dispensing": "yes", "healthcare": "pharmacy", "name": "Pharmacie Hay El Anbra \u0635\u064a\u062f\u0644\u064a\u0629 \u062d\u064a \u0627\u0644\u0639\u0646\u0628\u0631\u0629", "operator": "MOUSSAOUI HAKIMA", "phone": "0535605614"}}, {"type": "node", "id": 4894951223, "lat": 34.0047517, "lon": -5.0137715, "tags": {"addr:city": "F\u00e8s", "addr:postcode": "30000", "addr:street": "715 LOTT ALKARAOUINE AIN CHEKEF", "amenity": "pharmacy", "dispensing": "yes", "healthcare": "pharmacy", "name": "Pharmacie Saadi \u0635\u064a\u062f\u0644\u064a\u0629 \u0627\u0644\u0633\u0639\u062f\u064a", "operator": "SAADI LAILA", "phone": "0535749824", "phone_1": "0535749824"}}, {"type": "node", "id": 4894953823, "lat": 34.0026816, "lon": -5.004085, "tags": {"addr:city": "F\u00e8s", "addr:full": "3 Rue anas route ain chkef fes", "addr:postcode": "30000", "addr:street": "37 rue el flaha hay hassani rte ain chekaf", "amenity": "pharmacy", "dispensing": "yes", "healthcare": "pharmacy", "name": "Pharmacie Ain Amir \u0635\u064a\u062f\u0644\u064a\u0629 \u0639\u064a\u0646 \u0639\u0645\u064a\u0631", "operator": "Ph PAA", "phone": "0535968845"}}, {"type": "node", "id": 4897372624, "lat": 34.0314245, "lon": -4.9925868, "tags": {"addr:city": "F\u00e8s", "addr:housenumber": "3", "addr:postcode": "30000", "addr:street": "Rue M'diq", "amenity": "pharmacy", "dispensing": "yes", "healthcare": "pharmacy", "name": "Pharmacie Boulevard du Joulane \u0635\u064a\u062f\u0644\u064a\u0629 \u0634\u0627\u0631\u0639 \u0627\u0644\u062c\u0648\u0644\u0627\u0646", "operator": "CHATIER MOHAMED SAAD", "phone": "0535733109"}}, {"type": "node", "id": 4902417424, "lat": 34.0343137, "lon": -4.9980042, "tags": {"addr:city": "F\u00e8s", "addr:full": "placE DE LA MARCHE VERTE", "addr:housenumber": "29", "addr:postcode": "30000", "addr:street": "Avenue des Forces Arm\u00e9es Royales \u0634\u0627\u0631\u0639 \u0627\u0644\u062c\u064a\u0634 \u0627\u0644\u0645\u0644\u0643\u064a", "amenity": "pharmacy", "dispensing": "yes", "healthcare": "pharmacy", "name": "Pharmacie Ville Nouvelle \u0635\u064a\u062f\u0644\u064a\u0629 \u0627\u0644\u0645\u062f\u064a\u0646\u0629 \u0627\u0644\u062c\u062f\u064a\u062f\u0629", "operator": "BENABDELAH F ZAHRA", "phone": "0535641966"}}, {"type": "node", "id": 4904980522, "lat": 34.0408528, "lon": -4.9966699, "tags": {"addr:city": "F\u00e8s", "addr:postcode": "30000", "addr:street": "Avenue Abdallah Chefchaouni", "amenity": "pharmacy", "dispensing": "yes", "healthcare": "pharmacy", "name": "Pharmacie du Boulevard \u0635\u064a\u062f\u0644\u064a\u0629 \u0627\u0644\u0634\u0627\u0631\u0639", "operator": "LAHRICHI ABDELHAK"}}, {"type": "node", "id": 4913789721, "lat": 33.9940124, "lon": -5.0477063, "tags": {"addr:city": "F\u00e8s", "addr:postcode": "30000", "amenity": "pharmacy", "dispensing": "yes", "healthcare": "pharmacy", "name": "Pharmacie Mariam \u0635\u064a\u062f\u0644\u064a\u0629 \u0645\u0631\u064a\u0645", "operator": "Ph PMR"}}, {"type": "node", "id": 4916834521, "lat": 34.0586789, "lon": -4.9795617, "tags": {"addr:city": "F\u00e8s", "addr:postcode": "30000", "addr:street": "Boulevard Ahmed Mekouar", "amenity": "pharmacy", "dispensing": "yes", "healthcare": "pharmacy", "name": "Pharmacie Oum Al Banine \u0635\u064a\u062f\u0644\u064a\u0629 \u0623\u0645 \u0627\u0644\u0628\u0646\u064a\u0646", "operator": "BENMANSSOUR KENZA", "phone": "+212 535635562"}}, {"type": "node", "id": 4924422021, "lat": 34.0323548, "lon": -5.0002925, "tags": {"addr:city": "F\u00e8s", "addr:postcode": "30000", "addr:street": "rue Benzakour Pres Clinique ryad", "amenity": "pharmacy", "dispensing": "yes", "healthcare": "pharmacy", "name": "Pharmacie Sebti \u0635\u064a\u062f\u0644\u064a\u0629 \u0627\u0644\u0633\u0628\u062a\u064a", "operator": "sebti mhamed", "phone": "0535640666"}}, {"type": "node", "id": 4941858121, "lat": 34.0333816, "lon": -5.0153706, "tags": {"addr:city": "F\u00e8s \u2d3c\u2d30\u2d59 \u0641\u0627\u0633", "addr:postcode": "30000", "amenity": "pharmacy", "dispensing": "yes", "healthcare": "pharmacy", "name": "Pharmacie la Commune \u0635\u064a\u062f\u0644\u064a\u0629 \u0627\u0644\u062c\u0645\u0627\u0639\u0629 \u0627\u0644\u062c\u062f\u064a\u062f\u0629", "operator": "Ph PCM"}}, {"type": "node", "id": 4952409023, "lat": 34.0293711, "lon": -4.9818124, "tags": {"addr:city": "F\u00e8s", "addr:postcode": "30050", "addr:street": "801 bd ibn el haytem q sidi brahim", "amenity": "pharmacy", "dispensing": "yes", "healthcare": "pharmacy", "name": "Pharmacie Youssra \u0635\u064a\u062f\u0644\u064a\u0629 \u064a\u0633\u0631\u0649", "operator": "AJOUYED ASSIA", "phone": "0535640583"}}, {"type": "node", "id": 4956435822, "lat": 34.0451274, "lon": -4.9876615, "tags": {"addr:city": "F\u00e8s", "addr:postcode": "30000", "addr:street": "LOTSS BAB Lghoul dhar Lmahraz A5 FES", "amenity": "pharmacy", "dispensing": "yes", "healthcare": "pharmacy", "name": "Pharmacie Ilyas \u0635\u064a\u062f\u0644\u064a\u0629 \u0625\u0644\u064a\u0627\u0633", "operator": "Ph PYS", "phone": "0613917179"}}, {"type": "node", "id": 4956483023, "lat": 34.0413437, "lon": -4.986712, "tags": {"addr:city": "F\u00e8s", "addr:postcode": "30000", "addr:street": "Avenue Mohamed Ben Arbi Alaoui \u0634\u0627\u0631\u0639 \u0645\u062d\u0645\u062f \u0627\u0644\u0633\u0644\u0627\u0648\u064a", "amenity": "pharmacy", "dispensing": "yes", "healthcare": "pharmacy", "name": "Pharmacie Bab Alghoul \u0635\u064a\u062f\u0644\u064a\u0629 \u0628\u0627\u0628 \u0627\u0644\u063a\u0648\u0644", "operator": "Ph PAGH", "phone": "0535626927"}}, {"type": "node", "id": 4965854542, "lat": 34.0269793, "lon": -4.9880236, "tags": {"addr:city": "F\u00e8s", "addr:postcode": "30006", "addr:street": "HAY NAJAH SIDI BRAHIM RUE 2 N 98", "amenity": "pharmacy", "dispensing": "yes", "healthcare": "pharmacy", "name": "Pharmacie Marhaba \u0635\u064a\u062f\u0644\u064a\u0629 \u0645\u0631\u062d\u0628\u0627", "operator": "GUESSOUS AMAL", "phone": "0535641381"}}, {"type": "node", "id": 4968139622, "lat": 34.0248246, "lon": -4.9854877, "tags": {"addr:city": "F\u00e8s", "addr:housenumber": "66", "addr:postcode": "30000", "addr:street": "Av MIDELT SIDI BRAHIM", "amenity": "pharmacy", "dispensing": "yes", "healthcare": "pharmacy", "name": "Pharmacie Bahia \u0635\u064a\u062f\u0644\u064a\u0629 \u0628\u0627\u0647\u064a\u0629", "operator": "BENHAMOU LAILA", "phone": "0535732870"}}, {"type": "node", "id": 4970125221, "lat": 34.0222771, "lon": -4.9859761, "tags": {"addr:city": "F\u00e8s", "addr:housenumber": "29", "addr:postcode": "30000", "addr:street": "29 Rue Boughafer Narjis A", "amenity": "pharmacy", "dispensing": "yes", "healthcare": "pharmacy", "name": "Pharmacie Boughafer \u0635\u064a\u062f\u0644\u064a\u0629 \u0628\u0648\u063a\u0627\u0641\u0631", "operator": "zentar samira", "phone": "0535732336"}}, {"type": "node", "id": 4970428922, "lat": 34.0369228, "lon": -5.0206543, "tags": {"addr:city": "F\u00e8s \u0641\u0627\u0633", "addr:full": "LOTT HAJOUI DEKARAT", "addr:postcode": "30000", "amenity": "pharmacy", "dispensing": "yes", "healthcare": "pharmacy", "name": "Pharmacie Al Farabi \u0635\u064a\u062f\u0644\u064a\u0629 \u0627\u0644\u0641\u0631\u0627\u0628\u064a", "operator": "GHARBAOUI MOUNIA", "phone": "0535624147"}}, {"type": "node", "id": 4971325222, "lat": 34.0248226, "lon": -5.0180415, "tags": {"addr:city": "F\u00e8s", "addr:postcode": "30000", "addr:street": "Avenue Ibn Al Atir", "amenity": "pharmacy", "dispensing": "yes", "healthcare": "pharmacy", "name": "Pharmacie Zakaria \u0635\u064a\u062f\u0644\u064a\u0629 \u0632\u0643\u0631\u064a\u0627\u0621", "operator": "Maha Mohammed"}}, {"type": "node", "id": 4973828925, "lat": 34.0324461, "lon": -5.0585174, "tags": {"addr:city": "F\u00e8s \u2d3c\u2d30\u2d59 \u0641\u0627\u0633", "addr:postcode": "30000", "amenity": "pharmacy", "dispensing": "yes", "healthcare": "pharmacy", "name": "Pharmacie Chaymae \u0635\u064a\u062f\u0644\u064a\u0629 \u0634\u064a\u0645\u0627\u0621", "operator": "Ph PCH", "phone": "0535721354"}}, {"type": "node", "id": 4974972222, "lat": 34.0211705, "lon": -4.9830509, "tags": {"addr:city": "F\u00e8s", "addr:housenumber": "104", "addr:postcode": "30000", "addr:street": "104 BV KAIRAOUANE NARJISS FES", "amenity": "pharmacy", "dispensing": "yes", "healthcare": "pharmacy", "name": "Pharmacie Ibn Haitam \u0635\u064a\u062f\u0644\u064a\u0629 \u0628\u0646 \u0627\u0644\u0647\u064a\u062b\u0645", "operator": "BENANI HICHAM", "phone": "0535960412"}}, {"type": "node", "id": 4996666434, "lat": 34.0191682, "lon": -5.0126464, "tags": {"addr:city": "F\u00e8s", "addr:postcode": "30002", "addr:street": "Haj Mustapha Lahlou Adarissa 2", "amenity": "pharmacy", "dispensing": "yes", "healthcare": "pharmacy", "name": "Pharmacie El Azhar \u0635\u064a\u062f\u0644\u064a\u0629 \u0627\u0644\u0623\u0632\u0647\u0631", "operator": "Benjelloun Meryam", "phone": "0535609065"}}, {"type": "node", "id": 5007363922, "lat": 34.0605169, "lon": -5.0049131, "tags": {"addr:city": "F\u00e8s \u2d3c\u2d30\u2d59 \u0641\u0627\u0633", "addr:full": "AIN KADDOUS A COTE DU PRISON", "addr:postcode": "30000", "amenity": "pharmacy", "dispensing": "yes", "healthcare": "pharmacy", "name": "Pharmacie Ibn Al Hassan \u0635\u064a\u062f\u0644\u064a\u0629 \u0627\u0628\u0646 \u0627\u0644\u062d\u0633\u0646", "operator": "AMLAL RABIE", "phone": "0535756917"}}, {"type": "node", "id": 5020266326, "lat": 34.0206327, "lon": -5.0025925, "tags": {"addr:city": "F\u00e8s", "addr:full": "AV IBN ALKHATEB RTE AIN CHKEF", "addr:postcode": "30000", "addr:street": "Avenue Lissan-Edine Ibn Al-Khatib \u0634\u0627\u0631\u0639 \u0644\u0633\u0627\u0646 \u0627\u0644\u062f\u064a\u0646 \u0627\u0628\u0646 \u0627\u0644\u062e\u0637\u064a\u0628", "amenity": "pharmacy", "dispensing": "yes", "healthcare": "pharmacy", "name": "Pharmacie Iraqi Karima \u0635\u064a\u062f\u0644\u064a\u0629 \u0639\u0631\u0627\u0642\u064a \u0643\u0631\u064a\u0645\u0629", "operator": "iraki karima", "phone": "0535606767"}}, {"type": "node", "id": 5022123421, "lat": 34.0227833, "lon": -4.9995074, "tags": {"addr:city": "F\u00e8s", "addr:full": "38 bd El khatib derb el ward fes", "addr:housenumber": "38", "addr:postcode": "30050", "addr:street": "Avenue Lissan-Edine Ibn Al-Khatib \u0634\u0627\u0631\u0639 \u0644\u0633\u0627\u0646 \u0627\u0644\u062f\u064a\u0646 \u0627\u0628\u0646 \u0627\u0644\u062e\u0637\u064a\u0628", "amenity": "pharmacy", "dispensing": "yes", "healthcare": "pharmacy", "name": "Pharmacie Al Ambra  \u0635\u064a\u062f\u0644\u064a\u0629 \u0627\u0644\u0639\u0646\u0628\u0631\u0629", "operator": "HAKIMA MOUSSAOUI", "phone": "+212 535605614"}}, {"type": "node", "id": 5025460621, "lat": 34.0175081, "lon": -5.0048856, "tags": {"addr:city": "F\u00e8s", "addr:full": "DERB EL WARD", "addr:postcode": "30000", "addr:street": "Avenue Lissan-Edine Ibn Al-Khatib \u0634\u0627\u0631\u0639 \u0644\u0633\u0627\u0646 \u0627\u0644\u062f\u064a\u0646 \u0627\u0628\u0646 \u0627\u0644\u062e\u0637\u064a\u0628", "amenity": "pharmacy", "dispensing": "yes", "healthcare": "pharmacy", "name": "Pharmacie Al Irfane \u0635\u064a\u062f\u0644\u064a\u0629 \u0627\u0644\u0639\u0631\u0641\u0627\u0646", "operator": "GUENNOUN MOHAMED", "phone": "0535610827"}}, {"type": "node", "id": 5039588521, "lat": 34.0303207, "lon": -5.0546196, "tags": {"addr:city": "F\u00e8s", "addr:full": "113 LOTT CHAMS BENSOUDA FES ZOUAGHA", "addr:postcode": "30000", "amenity": "pharmacy", "dispensing": "yes", "healthcare": "pharmacy", "name": "Pharmacie Amal Achifae \u0635\u064a\u062f\u0644\u064a\u0629 \u0623\u0645\u0644 \u0627\u0644\u0634\u0641\u0627\u0621", "operator": "Ph PACH", "phone": "0601919462"}}, {"type": "node", "id": 5041522724, "lat": 34.0149962, "lon": -4.9968158, "tags": {"addr:city": "F\u00e8s", "addr:postcode": "30000", "addr:street": "Avenue Moulay Abdellah", "amenity": "pharmacy", "dispensing": "yes", "healthcare": "pharmacy", "name": "Pharmacie Mil Roses \u0635\u064a\u062f\u0644\u064a\u0629 \u0623\u0644\u0641 \u0632\u0647\u0631\u0629", "operator": "Ph PMR"}}, {"type": "node", "id": 5043818724, "lat": 34.0215987, "lon": -5.0167602, "tags": {"addr:city": "F\u00e8s", "addr:housenumber": "576AvAbdel Fass", "addr:postcode": "30000", "addr:street": "CIT\u00e9 Adarissa ang route Ain smen", "amenity": "pharmacy", "dispensing": "yes", "healthcare": "pharmacy", "name": "Pharmacie Badr \u0635\u064a\u062f\u0644\u064a\u0629 \u0628\u062f\u0631", "operator": "Tajmoueti Meryam", "phone": "0535609062"}}, {"type": "node", "id": 5043819141, "lat": 34.0202531, "lon": -5.0235395, "tags": {"addr:city": "F\u00e8s", "addr:housenumber": "22 R\u00e9si Ahl Fes", "addr:postcode": "30000", "addr:street": "Mohammed 6 Hay Lala soukaina fes", "amenity": "pharmacy", "dispensing": "yes", "healthcare": "pharmacy", "name": "Pharmacie Azzahrae \u0635\u064a\u062f\u0644\u064a\u0629 \u0627\u0644\u0632\u0647\u0631\u0627\u0621", "operator": "Janati Achraf", "phone": "0535600486"}}, {"type": "node", "id": 5043839331, "lat": 34.0214796, "lon": -5.0205636, "tags": {"addr:city": "F\u00e8s", "addr:housenumber": "154", "addr:postcode": "30000", "addr:street": "Route Ain Smen Hay Badr", "amenity": "pharmacy", "dispensing": "yes", "healthcare": "pharmacy", "name": "Pharmacie Agdal \u0635\u064a\u062f\u0644\u064a\u0629 \u0623\u0643\u062f\u0627\u0644", "operator": "TAOUIL NABILA", "phone": "0535612523"}}, {"type": "node", "id": 5054002331, "lat": 34.0189521, "lon": -5.0152133, "tags": {"addr:city": "F\u00e8s", "addr:housenumber": "15Resi BelleVue", "addr:postcode": "30000", "addr:street": "Omar Ibn Abdeljalil Hay Adarissa", "amenity": "pharmacy", "dispensing": "yes", "healthcare": "pharmacy", "name": "Pharmacie Labaraka \u0635\u064a\u062f\u0644\u064a\u0629 \u0627\u0644\u0628\u0631\u0643\u0629", "operator": "Bennani Mohammed", "phone": "0535748766"}}, {"type": "node", "id": 5054019822, "lat": 34.0233883, "lon": -5.0210753, "tags": {"addr:city": "F\u00e8s", "addr:housenumber": "1 R\u00e9si Badr", "addr:postcode": "30000", "addr:street": "Route Ain Smen Hay Badr", "amenity": "pharmacy", "dispensing": "yes", "healthcare": "pharmacy", "name": "Pharmacie Ennassiri \u0635\u064a\u062f\u0644\u064a\u0629 \u0627\u0644\u0646\u0627\u0635\u0631\u064a", "operator": "INNASIRI HICHAM", "phone": "0535601771"}}, {"type": "node", "id": 5055972121, "lat": 34.0268791, "lon": -5.0063514, "tags": {"addr:city": "F\u00e8s", "addr:postcode": "30000", "addr:street": "HAY SAADA", "amenity": "pharmacy", "dispensing": "yes", "healthcare": "pharmacy", "name": "Pharmacie Omari \u0635\u064a\u062f\u0644\u064a\u0629 \u0639\u0645\u0627\u0631\u064a", "operator": "OMARI LAMIAE", "phone": "0535613029"}}, {"type": "node", "id": 5081200223, "lat": 34.0207935, "lon": -5.0303522, "tags": {"addr:city": "F\u00e8s", "addr:full": "HAY Gryou bloc B_N 27 FES", "addr:postcode": "30000", "addr:street": "9 HAY GRIOU ZOUAGHA", "amenity": "pharmacy", "dispensing": "yes", "healthcare": "pharmacy", "name": "Pharmacie Demnati \u0635\u064a\u062f\u0644\u064a\u0629 \u0627\u0644\u062f\u0645\u0646\u0627\u062a\u064a", "operator": "DEMNATI IYAD", "phone": "0535600784"}}, {"type": "node", "id": 5084491622, "lat": 34.0043523, "lon": -5.00755, "tags": {"addr:city": "F\u00e8s", "addr:postcode": "30000", "amenity": "pharmacy", "dispensing": "yes", "healthcare": "pharmacy", "name": "Pharmacie Platanes \u0635\u064a\u062f\u0644\u064a\u0629 \u0627\u0644\u0633\u064a\u062c\u0627\u0646", "operator": "Ph PPL"}}, {"type": "node", "id": 5085452623, "lat": 34.0318989, "lon": -4.9948294, "tags": {"addr:city": "F\u00e8s", "addr:full": "place de Atlass", "addr:postcode": "30000", "amenity": "pharmacy", "dispensing": "yes", "healthcare": "pharmacy", "name": "Pharmacie de l'Atlas \u0635\u064a\u062f\u0644\u064a\u0629 \u0627\u0644\u0623\u0637\u0644\u0633", "operator": "FASSI FIHRI ALI", "phone": "0535641828"}}, {"type": "node", "id": 5100489621, "lat": 34.0234473, "lon": -5.0091718, "tags": {"addr:city": "F\u00e8s", "addr:postcode": "30000", "addr:street": "HAY SAADA RESIDENCE NOUR", "amenity": "pharmacy", "dispensing": "yes", "healthcare": "pharmacy", "name": "Pharmacie Afifa \u0635\u064a\u062f\u0644\u064a\u0629 \u0639\u0641\u064a\u0641\u0629", "operator": "KAGHAT AFIFA", "phone": "0535608007"}}, {"type": "node", "id": 5107085722, "lat": 34.0144858, "lon": -5.0015964, "tags": {"addr:city": "F\u00e8s", "addr:postcode": "30000", "addr:street": "Lot QODS route Immouzer", "amenity": "pharmacy", "dispensing": "yes", "healthcare": "pharmacy", "name": "Pharmacie Ifrane \u0635\u064a\u062f\u0644\u064a\u0629 \u0625\u0641\u0631\u0627\u0646", "operator": "Amrhar Mohammadi", "phone": "0535604712"}}, {"type": "node", "id": 5117313022, "lat": 34.0191247, "lon": -5.0016602, "tags": {"addr:city": "F\u00e8s", "addr:full": "AV IBN KHALDOUN HAY ALAZHAR", "addr:postcode": "30000", "amenity": "pharmacy", "dispensing": "yes", "healthcare": "pharmacy", "name": "Pharmacie Al Korachi \u0635\u064a\u062f\u0644\u064a\u0629 \u0627\u0644\u0642\u0631\u0634\u064a", "operator": "BENSOUDA SANAE", "phone": "0535748497"}}, {"type": "node", "id": 5119394922, "lat": 34.0158774, "lon": -5.0043792, "tags": {"addr:city": "F\u00e8s", "addr:full": "avenue ibn lkhatteb", "addr:postcode": "30000", "amenity": "pharmacy", "dispensing": "yes", "healthcare": "pharmacy", "name": "Pharmacie Jabri \u0635\u064a\u062f\u0644\u064a\u0629 \u062c\u0627\u0628\u0631\u064a", "operator": "jabri naoufal", "phone": "0535749358"}}, {"type": "node", "id": 5128231924, "lat": 34.0288781, "lon": -4.9951509, "tags": {"addr:city": "F\u00e8s", "addr:postcode": "30000", "addr:street": "LOT 94 MAGAZINE AIT SKATTO", "amenity": "pharmacy", "dispensing": "yes", "healthcare": "pharmacy", "name": "Pharmacie L'Opera \u0635\u064a\u062f\u0644\u064a\u0629 \u0627\u0644\u0623\u0648\u0628\u0631\u0627", "operator": "ABDELLAOUI AMINA", "phone": "0535960503"}}, {"type": "node", "id": 5130402124, "lat": 34.0244919, "lon": -5.0126568, "tags": {"addr:city": "F\u00e8s", "addr:postcode": "30000", "amenity": "pharmacy", "dispensing": "yes", "healthcare": "pharmacy", "name": "Pharmacie Erriad \u0635\u064a\u062f\u0644\u064a\u0629 \u0627\u0644\u0631\u064a\u0627\u0636", "operator": "DAIRI SALIM", "phone": "0535640554"}}, {"type": "node", "id": 5130442846, "lat": 34.0309569, "lon": -4.9981453, "tags": {"addr:city": "F\u00e8s", "addr:housenumber": "4", "addr:postcode": "30000", "addr:street": "Avenue Roi Houssaine Route d ' Immouzzer Resi Riad", "amenity": "pharmacy", "dispensing": "yes", "healthcare": "pharmacy", "name": "Pharmacie Mekouar \u0635\u064a\u062f\u0644\u064a\u0629 \u0645\u0643\u0648\u0627\u0631", "operator": "Mekouar Mohamed Ali", "phone": "0535640172"}}, {"type": "node", "id": 5142826921, "lat": 34.0271122, "lon": -5.009844, "tags": {"addr:city": "F\u00e8s", "addr:postcode": "30000", "addr:street": "HAY SALAM BOURKAYEZ", "amenity": "pharmacy", "dispensing": "yes", "healthcare": "pharmacy", "name": "Pharmacie Pasteur \u0635\u064a\u062f\u0644\u064a\u0629 \u0628\u0627\u0633\u062a\u0648\u0631", "operator": "ROHI RADWAN", "phone": "0535611814"}}, {"type": "node", "id": 5147303621, "lat": 34.0260606, "lon": -4.9976251, "tags": {"addr:city": "F\u00e8s", "addr:postcode": "30000", "addr:street": "Boulevard Moulay Hicham", "amenity": "pharmacy", "dispensing": "yes", "healthcare": "pharmacy", "name": "Pharmacie Arrazi \u0635\u064a\u062f\u0644\u064a\u0629 \u0627\u0644\u0631\u0627\u0632\u064a", "operator": "LQATI MOHAMED", "phone": "0535640784"}}, {"type": "node", "id": 5173841426, "lat": 34.0132483, "lon": -4.9815219, "tags": {"addr:city": "F\u00e8s", "addr:housenumber": "86", "addr:postcode": "30000", "addr:street": "Route de Sefrou Lotis Ouafae 1", "amenity": "pharmacy", "dispensing": "yes", "healthcare": "pharmacy", "name": "Pharmacie Conseil \u0635\u064a\u062f\u0644\u064a\u0629 \u0627\u0644\u0646\u0635\u064a\u062d\u0629", "operator": "Lahlou Abdelilah", "phone": "0535619162"}}, {"type": "node", "id": 5183381724, "lat": 34.0101598, "lon": -4.9792405, "tags": {"addr:city": "F\u00e8s", "addr:full": "6 LOTT ALOUAFAE AVENUE MY RACHID RTE SEFFROU FES", "addr:postcode": "30000", "addr:street": "6 LOTISS EL WAFA BD MY RACHID RTE SEFROU FEZ", "amenity": "pharmacy", "dispensing": "yes", "healthcare": "pharmacy", "name": "Pharmacie Al Ihssane \u0635\u064a\u062f\u0644\u064a\u0629 \u0627\u0644\u0625\u062d\u0633\u0627\u0646", "operator": "EL BARDI ZINE AL ABIDINE", "phone": "0535619400"}}, {"type": "node", "id": 5184257351, "lat": 34.0698093, "lon": -4.9870605, "tags": {"addr:city": "F\u00e9s", "addr:postcode": "30000", "addr:street": "DHAR LKHMISS L'HABITAT", "amenity": "pharmacy", "dispensing": "yes", "healthcare": "pharmacy", "name": "Pharmacie El Karam \u0635\u064a\u062f\u0644\u064a\u0629 \u0627\u0644\u0643\u0631\u0645", "operator": "FAREH KARIM", "phone": "0535703368"}}, {"type": "node", "id": 5185720525, "lat": 33.9992559, "lon": -5.0091302, "tags": {"addr:city": "F\u00e8s", "addr:postcode": "30000", "addr:street": "Ridicule Yasmine rte Ain chqef", "amenity": "pharmacy", "dispensing": "yes", "healthcare": "pharmacy", "name": "Pharmacie Blanco \u0635\u064a\u062f\u0644\u064a\u0629 \u0628\u0644\u0627\u0646\u0643\u0648", "operator": "Ph PBC", "phone": "0535967093"}}, {"type": "node", "id": 5185876621, "lat": 34.0177335, "lon": -4.980803, "tags": {"addr:city": "F\u00e8s", "addr:full": "BVD. KARAOUIN HAY NARJISS", "addr:housenumber": "23", "addr:postcode": "30000", "addr:street": "Avenue Karouyine \u0634\u0627\u0631\u0639 \u0627\u0644\u0642\u0631\u0648\u064a\u064a\u0646", "amenity": "pharmacy", "dispensing": "yes", "healthcare": "pharmacy", "name": "Pharmacie El Majd \u0635\u064a\u062f\u0644\u064a\u0629 \u0627\u0644\u0645\u062c\u062f", "operator": "BOUNOUA ABDEMMAJID", "phone": "0535656447"}}, {"type": "node", "id": 5188283423, "lat": 33.9992501, "lon": -5.004313, "tags": {"addr:city": "F\u00e8s", "addr:postcode": "30000", "addr:street": "254 Lot fadela 3 rte Ain chkef", "amenity": "pharmacy", "dispensing": "yes", "healthcare": "pharmacy", "name": "Pharmacie Al Ahbab \u0635\u064a\u062f\u0644\u064a\u0629 \u0627\u0644\u0623\u062d\u0628\u0627\u0628", "operator": "Frikal bouchra", "phone": "0534870090"}}, {"type": "node", "id": 5190415822, "lat": 34.001416, "lon": -5.0066556, "tags": {"addr:city": "F\u00e8s", "addr:postcode": "30000", "addr:street": "Route Ain Chkef", "amenity": "pharmacy", "dispensing": "yes", "healthcare": "pharmacy", "name": "Pharmacie Taiba \u0635\u064a\u062f\u0644\u064a\u0629 \u0637\u064a\u0628\u0629", "operator": "Alami aicha", "phone": "0535607777"}}, {"type": "node", "id": 5190427838, "lat": 34.0144522, "lon": -4.9717966, "tags": {"addr:city": "F\u00e9s", "addr:full": "narjiss bvd karaouine", "addr:housenumber": "155", "addr:postcode": "30000", "addr:street": "Avenue Karouyine \u0634\u0627\u0631\u0639 \u0627\u0644\u0642\u0631\u0648\u064a\u064a\u0646", "amenity": "pharmacy", "dispensing": "yes", "healthcare": "pharmacy", "name": "Pharmacie Ibn Khaldoun \u0635\u064a\u062f\u0644\u064a\u0629 \u0627\u0628\u0646 \u062e\u0644\u062f\u0648\u0646", "operator": "MARROUN YOUNES", "phone": "0535730123"}}, {"type": "node", "id": 5194917728, "lat": 34.0076473, "lon": -4.9779753, "tags": {"addr:city": "F\u00e8s", "addr:housenumber": "335", "addr:postcode": "30000", "addr:street": "Avenue My Rachid Route de Sefrou Zohor 2 Lotis Laila", "amenity": "pharmacy", "dispensing": "yes", "healthcare": "pharmacy", "name": "Pharmacie C.H.U Hassan II \u0635\u064a\u062f\u0644\u064a\u0629 \u0627\u0644\u062d\u0633\u0646 \u0627\u0644\u062b\u0627\u0646\u064a", "operator": "EL ALAOUI ASMAE", "phone": "0535615899"}}, {"type": "node", "id": 5201978023, "lat": 34.0166064, "lon": -4.9775556, "tags": {"addr:city": "F\u00e8s", "addr:full": "narjiss rte de sefrou", "addr:postcode": "30000", "addr:street": "Avenue Karouyine \u0634\u0627\u0631\u0639 \u0627\u0644\u0642\u0631\u0648\u064a\u064a\u0646", "amenity": "pharmacy", "dispensing": "yes", "healthcare": "pharmacy", "name": "Pharmacie Al Inaya \u0635\u064a\u062f\u0644\u064a\u0629 \u0627\u0644\u0639\u0646\u0627\u064a\u0629", "operator": "BOUCHIKHI ABDELHAK", "phone": "0535644273"}}, {"type": "node", "id": 5203942033, "lat": 34.0069752, "lon": -5.0085257, "tags": {"addr:city": "F\u00e8s", "addr:postcode": "30000", "addr:street": "Route Ain Chkef", "amenity": "pharmacy", "dispensing": "yes", "healthcare": "pharmacy", "name": "Pharmacie Al Ikhwa \u0635\u064a\u062f\u0644\u064a\u0629 \u0627\u0644\u0625\u062e\u0648\u0629", "operator": "benaouda tlimcani nabil", "phone": "0535962095"}}, {"type": "node", "id": 5203986721, "lat": 34.0196338, "lon": -4.9851537, "tags": {"addr:city": "F\u00e8s", "addr:full": "467 A Lotissement NARJIS", "addr:housenumber": "10", "addr:postcode": "30000", "addr:street": "Avenue Karouyine \u0634\u0627\u0631\u0639 \u0627\u0644\u0642\u0631\u0648\u064a\u064a\u0646", "amenity": "pharmacy", "dispensing": "yes", "healthcare": "pharmacy", "name": "Pharmacie Haoudi \u0635\u064a\u062f\u0644\u064a\u0629 \u0647\u0627\u0648\u062f\u064a", "operator": "HAOUDI RACHID", "phone": "0535642005"}}, {"type": "node", "id": 5204002337, "lat": 34.0067506, "lon": -5.0053672, "tags": {"addr:city": "F\u00e8s", "addr:postcode": "30000", "addr:street": "Hay anas rte ain chkef", "amenity": "pharmacy", "dispensing": "yes", "healthcare": "pharmacy", "name": "Pharmacie Najmi \u0635\u064a\u062f\u0644\u064a\u0629 \u0646\u062c\u0645\u064a", "operator": "Najmi khalid", "phone": "0535612241"}}, {"type": "node", "id": 5204049521, "lat": 34.0178887, "lon": -4.9862395, "tags": {"addr:city": "F\u00e8s", "addr:housenumber": "9", "addr:postcode": "30000", "addr:street": "Avenue Abi Horaira Zohor 1", "amenity": "pharmacy", "dispensing": "yes", "healthcare": "pharmacy", "name": "Pharmacie La Victoire \u0635\u064a\u062f\u0644\u064a\u0629 \u0627\u0644\u0646\u0635\u0631", "operator": "Fassi Fihri Omar", "phone": "0535732380"}}, {"type": "node", "id": 5206234024, "lat": 34.0046872, "lon": -5.0014405, "tags": {"addr:city": "F\u00e8s", "addr:postcode": "30000", "addr:street": "2 LOT TOURIA ANAS 3", "amenity": "pharmacy", "dispensing": "yes", "healthcare": "pharmacy", "name": "Pharmacie Fatima Ezzahra \u0635\u064a\u062f\u0644\u064a\u0629 \u0641\u0627\u0637\u0645\u0629 \u0627\u0644\u0632\u0647\u0631\u0627\u0621", "operator": "BENJELLOUN FATIMA EZZAHRA", "phone": "0535604521"}}, {"type": "node", "id": 5207338425, "lat": 34.0171254, "lon": -4.9894159, "tags": {"addr:city": "F\u00e8s", "addr:housenumber": "128", "addr:postcode": "30000", "addr:street": "Avenue Abi Horaira Zohor 1", "amenity": "pharmacy", "dispensing": "yes", "healthcare": "pharmacy", "name": "Pharmacie El Houda \u0635\u064a\u062f\u0644\u064a\u0629 \u0627\u0644\u0647\u062f\u0649", "operator": "Tazi Meryem", "phone": "0535644657"}}, {"type": "node", "id": 5216068021, "lat": 34.0103035, "lon": -5.0057817, "tags": {"addr:city": "F\u00e8s", "addr:postcode": "30000", "addr:street": "Route Ain Chkef", "amenity": "pharmacy", "dispensing": "yes", "healthcare": "pharmacy", "name": "Pharmacie Bakkali \u0635\u064a\u062f\u0644\u064a\u0629 \u0627\u0644\u0628\u0642\u0627\u0644\u064a", "operator": "BEKKALI BOUCHRA", "phone": "0535612184"}}, {"type": "node", "id": 5217881721, "lat": 34.0076467, "lon": -5.0031474, "tags": {"addr:city": "F\u00e8s", "addr:postcode": "30000", "addr:street": "Hay Anass 3", "amenity": "pharmacy", "dispensing": "yes", "healthcare": "pharmacy", "name": "Pharmacie Florida \u0635\u064a\u062f\u0644\u064a\u0629 \u0641\u0644\u0648\u0631\u064a\u062f\u0627", "operator": "Msili Asmae", "phone": "0535604313"}}, {"type": "node", "id": 5217885522, "lat": 34.0152601, "lon": -4.9860772, "tags": {"addr:city": "F\u00e8s", "addr:housenumber": "103", "addr:postcode": "30000", "addr:street": "Avenue Karama Zohour 1", "amenity": "pharmacy", "dispensing": "yes", "healthcare": "pharmacy", "name": "Pharmacie Mont Fleuri \u0635\u064a\u062f\u0644\u064a\u0629 \u0627\u0644\u062c\u0628\u0644", "operator": "Mezzour Said", "phone": "0535644006"}}, {"type": "node", "id": 5219627522, "lat": 34.012366, "lon": -5.0027424, "tags": {"addr:city": "F\u00e8s", "addr:postcode": "30000", "addr:street": "Complexe Salalam rte immouzer", "amenity": "pharmacy", "dispensing": "yes", "healthcare": "pharmacy", "name": "Pharmacie Al Yousr \u0635\u064a\u062f\u0644\u064a\u0629 \u0627\u0644\u064a\u0633\u0631", "operator": "Bouklila Abdeslam", "phone": "0535609293"}}, {"type": "node", "id": 5231444736, "lat": 34.0114188, "lon": -4.988769, "tags": {"addr:city": "F\u00e8s", "addr:housenumber": "317", "addr:postcode": "30000", "addr:street": "Avenue Karama Zohour 1", "amenity": "pharmacy", "dispensing": "yes", "healthcare": "pharmacy", "name": "Pharmacie Al Fadila \u0635\u064a\u062f\u0644\u064a\u0629 \u0627\u0644\u0641\u0636\u064a\u0644\u0629", "operator": "Alami Touria", "phone": "0535644231"}}, {"type": "node", "id": 5239191223, "lat": 34.0265672, "lon": -4.9935021, "tags": {"addr:city": "F\u00e8s", "addr:housenumber": "5", "addr:postcode": "30000", "addr:street": "Avenue Ibn Khatteb acces bouremana", "amenity": "pharmacy", "dispensing": "yes", "healthcare": "pharmacy", "name": "Pharmacie Ryad \u0635\u064a\u062f\u0644\u064a\u0629 \u0627\u0644\u0631\u064a\u0627\u0636", "operator": "DAIRI SALIM", "phone": "0535640554"}}, {"type": "node", "id": 5239191257, "lat": 34.0057403, "lon": -4.9687656, "tags": {"addr:city": "F\u00e9s", "addr:postcode": "30000", "addr:street": "RTE DE SEFROULOTISS OUAFAE N 342 FES", "amenity": "pharmacy", "dispensing": "yes", "healthcare": "pharmacy", "name": "Pharmacie Ghizlane \u0635\u064a\u062f\u0644\u064a\u0629 \u063a\u0632\u0644\u0627\u0646", "operator": "RAHMANI GHIZLANE", "phone": "0535619354"}}, {"type": "node", "id": 5239191525, "lat": 34.0242974, "lon": -4.9897763, "tags": {"addr:city": "F\u00e8s", "addr:postcode": "30000", "addr:street": "160 LOTTI ERAC HAY WIFAK RTE AIN SMEN", "amenity": "pharmacy", "dispensing": "yes", "healthcare": "pharmacy", "name": "Pharmacie l'Entente \u0635\u064a\u062f\u0644\u064a\u0629 \u0627\u0644\u0625\u062a\u0641\u0627\u0642", "operator": "bouslikhaine asmae", "phone": "0535604525"}}, {"type": "node", "id": 5239191530, "lat": 34.0212182, "lon": -4.9879182, "tags": {"addr:city": "F\u00e8s", "addr:postcode": "30000", "addr:street": "Boulevard Moulay Rachid", "amenity": "pharmacy", "dispensing": "yes", "healthcare": "pharmacy", "name": "Pharmacie Route de Sefrou \u0635\u064a\u062f\u0644\u064a\u0629 \u0637\u0631\u064a\u0642 \u0635\u0641\u0631\u0648", "operator": "MOUFDI IMANE", "phone": "0535733306"}}, {"type": "node", "id": 5239335924, "lat": 34.0076423, "lon": -4.9652236, "tags": {"addr:city": "F\u00e8s \u0641\u0627\u0633", "addr:postcode": "30000", "addr:street": "hay elamal rte de sefrou", "amenity": "pharmacy", "dispensing": "yes", "healthcare": "pharmacy", "name": "Pharmacie Facult\u00e9 de M\u00e9decine \u0635\u064a\u062f\u0644\u064a\u0629 \u0643\u0644\u064a\u0629 \u0627\u0644\u0637\u0628", "operator": "Moufdi awatef", "phone": "0535619508"}}, {"type": "node", "id": 5240910822, "lat": 34.0093643, "lon": -4.9616705, "tags": {"addr:city": "F\u00e8s \u0641\u0627\u0633", "addr:postcode": "30000", "addr:street": "Route du parc Fes-Shore", "amenity": "pharmacy", "dispensing": "yes", "healthcare": "pharmacy", "name": "Pharmacie F\u00e8s Shore \u0635\u064a\u062f\u0644\u064a\u0629 \u0641\u0627\u0633 \u0634\u0648\u0631", "operator": "Ph PFSH"}}, {"type": "node", "id": 5241087321, "lat": 34.0129244, "lon": -4.965755, "tags": {"addr:city": "F\u00e8s", "addr:postcode": "30000", "addr:street": "BVD Israe", "amenity": "pharmacy", "dispensing": "yes", "healthcare": "pharmacy", "name": "Pharmacie Nour El Houda \u0635\u064a\u062f\u0644\u064a\u0629 \u0646\u0648\u0631 \u0627\u0644\u0647\u062f\u0649", "operator": "TADLAOUI ABDELHADI", "phone": "0535617152"}}, {"type": "node", "id": 5244010021, "lat": 34.036918, "lon": -5.0152573, "tags": {"addr:city": "F\u00e8s \u0641\u0627\u0633", "addr:postcode": "30000", "addr:street": "champs de Cours", "amenity": "pharmacy", "dispensing": "yes", "healthcare": "pharmacy", "name": "Pharmacie Champs de Courses \u0635\u064a\u062f\u0644\u064a\u0629 \u0645\u0644\u0639\u0628 \u0627\u0644\u062e\u064a\u0644", "operator": "SEFRIOUI MAJDA", "phone": "0535652338"}}, {"type": "node", "id": 5244887442, "lat": 34.0146357, "lon": -4.9897963, "tags": {"addr:city": "F\u00e8s", "addr:housenumber": "47", "addr:postcode": "30000", "addr:street": "Avenue Al Manama Zohour 1", "amenity": "pharmacy", "dispensing": "yes", "healthcare": "pharmacy", "name": "Pharmacie Firdaous \u0635\u064a\u062f\u0644\u064a\u0629 \u0627\u0644\u0641\u0631\u062f\u0648\u0633", "operator": "MDAGHRI FIRDAWS", "phone": "0535640625"}}, {"type": "node", "id": 5250338721, "lat": 34.0106557, "lon": -4.9657329, "tags": {"addr:city": "F\u00e8s \u2d3c\u2d30\u2d59 \u0641\u0627\u0633", "addr:postcode": "30000", "addr:street": "Al Madina Mounawara", "amenity": "pharmacy", "dispensing": "yes", "healthcare": "pharmacy", "name": "Pharmacie de l'H\u00f4pital Universitaire \u0635\u064a\u062f\u0644\u064a\u0629 \u0627\u0644\u0645\u0633\u062a\u0634\u0641\u0649 \u0627\u0644\u062c\u0627\u0645\u0639\u064a", "operator": "KHARROUBI MED", "phone": "0535615683"}}, {"type": "node", "id": 5251848522, "lat": 34.0091231, "lon": -4.9695833, "tags": {"addr:city": "F\u00e8s", "addr:full": "A C0T\u00e9 FAC DE MEDCINE", "addr:postcode": "30000", "amenity": "pharmacy", "dispensing": "yes", "healthcare": "pharmacy", "name": "Pharmacie Ibn Hazm \u0635\u064a\u062f\u0644\u064a\u0629 \u0628\u0646 \u062d\u0632\u0645", "operator": "CHAIK FATIHA", "phone": "0535616235"}}, {"type": "node", "id": 5260991734, "lat": 34.0102284, "lon": -4.9880887, "tags": {"addr:city": "F\u00e8s", "addr:housenumber": "348", "addr:postcode": "30000", "addr:street": "BVD D'oran mont fleuri 2", "amenity": "pharmacy", "dispensing": "yes", "healthcare": "pharmacy", "name": "Pharmacie Yasmine \u0635\u064a\u062f\u0644\u064a\u0629 \u064a\u0627\u0633\u0645\u064a\u0646", "operator": "Berrada Saida", "phone": "0535619643", "shop": "department_store"}}, {"type": "node", "id": 5263513421, "lat": 34.0127576, "lon": -4.9700355, "tags": {"addr:city": "F\u00e9s", "addr:full": "haY AL AMAL RTE DE SEFROU", "addr:postcode": "30000", "amenity": "pharmacy", "dispensing": "yes", "healthcare": "pharmacy", "name": "Pharmacie Ben Cheikh \u0635\u064a\u062f\u0644\u064a\u0629 \u0627\u0628\u0646 \u0627\u0644\u0634\u064a\u062e", "operator": "SEHBI MALIKA", "phone": "0535614806"}}, {"type": "node", "id": 5263754721, "lat": 34.0063267, "lon": -4.9737192, "tags": {"addr:city": "F\u00e8s", "addr:full": "LOTISS EL WAFA RTE DE SEFROU FES", "addr:postcode": "30000", "addr:street": "200 ROUTE DE SEFROU LOTTI WAFAE FEZ", "amenity": "pharmacy", "dispensing": "yes", "healthcare": "pharmacy", "name": "Pharmacie Al Wassila \u0635\u064a\u062f\u0644\u064a\u0629 \u0627\u0644\u0648\u0633\u064a\u0644\u0629", "operator": "MERNISI NARJISSE", "phone": "0535619616"}}, {"type": "node", "id": 5269865621, "lat": 34.0154938, "lon": -4.9630375, "tags": {"addr:city": "F\u00e8s \u2d3c\u2d30\u2d59 \u0641\u0627\u0633", "addr:postcode": "30000", "addr:street": "Av Ocean Pacifique Hay Riad", "amenity": "pharmacy", "dispensing": "yes", "healthcare": "pharmacy", "name": "Pharmacie Al Fajr \u0635\u064a\u062f\u0644\u064a\u0629 \u0627\u0644\u0641\u062c\u0631", "operator": "khaiati brahim", "phone": "0535942303"}}, {"type": "node", "id": 5270743531, "lat": 34.0078871, "lon": -4.984039, "tags": {"addr:city": "F\u00e8s", "addr:housenumber": "139", "addr:postcode": "30000", "addr:street": "139 av bayrout mont fleuri 1", "amenity": "pharmacy", "dispensing": "yes", "healthcare": "pharmacy", "name": "Pharmacie Beyrout \u0635\u064a\u062f\u0644\u064a\u0629 \u0628\u064a\u0631\u0648\u062a", "operator": "bennis Meryem", "phone": "0535619660"}}, {"type": "node", "id": 5270743624, "lat": 34.0044736, "lon": -4.9892319, "tags": {"addr:city": "F\u00e8s", "addr:postcode": "30000", "addr:street": "BV BAYROUT R\u00e9sidence Rawd Azhar Mont fleuri", "amenity": "pharmacy", "dispensing": "yes", "healthcare": "pharmacy", "name": "Pharmacie Lahbabi \u0635\u064a\u062f\u0644\u064a\u0629 \u0644\u062d\u0628\u0627\u0628\u064a", "operator": "LAHBABI MERIEM", "phone": "0535608407"}}, {"type": "node", "id": 5281877223, "lat": 34.018087, "lon": -4.9665089, "tags": {"addr:city": "F\u00e8s \u2d3c\u2d30\u2d59 \u0641\u0627\u0633", "addr:housenumber": "73", "addr:postcode": "30000", "addr:street": "Av Anawal Narjis D", "amenity": "pharmacy", "dispensing": "yes", "healthcare": "pharmacy", "name": "Pharmacie le Docteur \u0635\u064a\u062f\u0644\u064a\u0629 \u0627\u0644\u062f\u0643\u062a\u0648\u0631", "operator": "Ph PDC"}}, {"type": "node", "id": 5283794728, "lat": 34.0133949, "lon": -4.9784725, "tags": {"addr:city": "F\u00e8s", "addr:housenumber": "12", "addr:postcode": "30000", "addr:street": "bvd Attadhia Narjiss", "amenity": "pharmacy", "dispensing": "yes", "healthcare": "pharmacy", "name": "Pharmacie Mourchid \u0635\u064a\u062f\u0644\u064a\u0629 \u0645\u0631\u0634\u062f", "operator": "MORCHID BOUBKER", "phone": "0535733493"}}, {"type": "node", "id": 5291622524, "lat": 34.0171017, "lon": -4.9699202, "tags": {"addr:city": "F\u00e8s \u2d3c\u2d30\u2d59 \u0641\u0627\u0633", "addr:housenumber": "28", "addr:postcode": "30000", "addr:street": "Av Rahma Narjis", "amenity": "pharmacy", "dispensing": "yes", "healthcare": "pharmacy", "name": "Pharmacie Complexe Sportif \u0635\u064a\u062f\u0644\u064a\u0629 \u0627\u0644\u0645\u0631\u0643\u0628 \u0627\u0644\u0631\u064a\u0627\u0636\u064a", "operator": "bennani Mouhcine", "phone": "0535732873"}}, {"type": "node", "id": 5293570222, "lat": 34.0166758, "lon": -4.9745419, "tags": {"addr:city": "F\u00e8s", "addr:full": "BVD AL MAJD NARJISS RTE SEFROU", "addr:housenumber": "119", "addr:postcode": "30000", "addr:street": "Avenue Al Majd", "amenity": "pharmacy", "dispensing": "yes", "healthcare": "pharmacy", "name": "Pharmacie Lina \u0635\u064a\u062f\u0644\u064a\u0629 \u0644\u064a\u0646\u0629", "operator": "amrani lina", "phone": "0535733721"}}, {"type": "node", "id": 5295524721, "lat": 34.0153241, "lon": -4.9795386, "tags": {"addr:city": "F\u00e8s", "addr:full": "47 LOTISS WAHDA NARJISS B", "addr:housenumber": "47", "addr:postcode": "30000", "addr:street": "Avenue Al Wahda", "amenity": "pharmacy", "dispensing": "yes", "healthcare": "pharmacy", "name": "Pharmacie Azzouzi \u0635\u064a\u062f\u0644\u064a\u0629 \u0639\u0632\u0648\u0632\u064a", "operator": "AZOUZI OMAR", "phone": "0535960428"}}, {"type": "node", "id": 5298347522, "lat": 34.0057858, "lon": -4.9834357, "tags": {"addr:city": "F\u00e8s", "addr:housenumber": "174", "addr:postcode": "30000", "addr:street": "LOT LAZRAK MONT FLEURI 2", "amenity": "pharmacy", "dispensing": "yes", "healthcare": "pharmacy", "name": "Pharmacie Yousfi \u0635\u064a\u062f\u0644\u064a\u0629 \u064a\u0648\u0633\u0641\u064a", "operator": "YOUSFI MOHAMED", "phone": "0535618619"}}, {"type": "node", "id": 5303210932, "lat": 34.0201153, "lon": -4.9703139, "tags": {"addr:city": "F\u00e8s", "addr:postcode": "30035", "addr:street": "HAY EL QODS 2 BLOC 13 ERAC SIDI BRAHIM FES", "amenity": "pharmacy", "dispensing": "yes", "healthcare": "pharmacy", "name": "Pharmacie Sidi Brahim \u0635\u064a\u062f\u0644\u064a\u0629 \u0633\u064a\u062f\u064a \u0627\u0628\u0631\u0627\u0647\u064a\u0645", "operator": "BOUSLIKHENE OUAFAE", "phone": "0535640222"}}, {"type": "node", "id": 5303267325, "lat": 34.0200563, "lon": -4.9641712, "tags": {"addr:city": "F\u00e8s \u2d3c\u2d30\u2d59 \u0641\u0627\u0633", "addr:postcode": "30000", "addr:street": "Awint Al Hajaj Bloc A4", "amenity": "pharmacy", "dispensing": "yes", "healthcare": "pharmacy", "name": "Pharmacie Noureddine \u0635\u064a\u062f\u0644\u064a\u0629 \u0646\u0648\u0631 \u0627\u0644\u062f\u064a\u0646", "operator": "BOUNIF NOURDINNE", "phone": "0535731540"}}, {"type": "node", "id": 5304746323, "lat": 34.0222491, "lon": -4.9714568, "tags": {"addr:city": "F\u00e8s \u2d3c\u2d30\u2d59 \u0641\u0627\u0633", "addr:postcode": "30000", "addr:street": "HAY SIDI BRAHIM BLOC 18 N 6 ERAC FES", "amenity": "pharmacy", "dispensing": "yes", "healthcare": "pharmacy", "name": "Pharmacie du Quartier Industriel \u0635\u064a\u062f\u0644\u064a\u0629 \u0627\u0644\u062d\u064a \u0627\u0644\u0635\u0646\u0627\u0639\u064a", "operator": "MIKOU SANAE", "phone": "0535733194"}}, {"type": "node", "id": 5308231623, "lat": 34.0193429, "lon": -4.9765996, "tags": {"addr:city": "F\u00e8s \u2d3c\u2d30\u2d59 \u0641\u0627\u0633", "addr:full": "10 BD ARRAHMA, NARJISS", "addr:housenumber": "10", "addr:postcode": "30000", "addr:street": "Avenue Errahma", "amenity": "pharmacy", "dispensing": "yes", "healthcare": "pharmacy", "name": "Pharmacie Talbi \u0635\u064a\u062f\u0644\u064a\u0629 \u0637\u0627\u0644\u0628\u064a", "operator": "EL MOKADE ABDELAZIZ", "phone": "0535733309"}}, {"type": "node", "id": 5309147427, "lat": 34.0041222, "lon": -4.978387, "tags": {"addr:city": "F\u00e8s", "addr:housenumber": "85", "addr:postcode": "30000", "addr:street": "Avenue Koufa Zohour 2", "amenity": "pharmacy", "dispensing": "yes", "healthcare": "pharmacy", "name": "Pharmacie Al Ikhlasse \u0635\u064a\u062f\u0644\u064a\u0629 \u0627\u0644\u0625\u062e\u0644\u0627\u0635", "operator": "Mallouli Idrissi Btissam", "phone": "0535617056"}}, {"type": "node", "id": 5309148523, "lat": 34.0044491, "lon": -4.9828381, "tags": {"addr:city": "F\u00e8s", "addr:housenumber": "22", "addr:postcode": "30000", "addr:street": "Zohour 2", "amenity": "pharmacy", "dispensing": "yes", "healthcare": "pharmacy", "name": "Pharmacie Zohour \u0635\u064a\u062f\u0644\u064a\u0629 \u0627\u0644\u0632\u0647\u0648\u0631", "operator": "Chemssi Bouchra", "phone": "0535618477"}}, {"type": "node", "id": 5309148722, "lat": 34.0074565, "lon": -4.9804051, "tags": {"addr:city": "F\u00e8s", "addr:housenumber": "3", "addr:postcode": "30000", "addr:street": "Avenue Ismailia Mont fleuri2", "amenity": "pharmacy", "dispensing": "yes", "healthcare": "pharmacy", "name": "Pharmacie Al Akhawayn \u0635\u064a\u062f\u0644\u064a\u0629 \u0627\u0644\u0623\u062e\u0648\u064a\u0646", "operator": "Zakkaoui Rachid", "phone": "0535614755"}}, {"type": "node", "id": 5316237421, "lat": 34.0209771, "lon": -4.9744947, "tags": {"addr:city": "F\u00e8s \u2d3c\u2d30\u2d59 \u0641\u0627\u0633", "addr:postcode": "30000", "addr:street": "HAY EI HASSANI BLOC 4 ERAC SIDI BRAHIM", "amenity": "pharmacy", "dispensing": "yes", "healthcare": "pharmacy", "name": "Pharmacie Hay El Hassani \u0635\u064a\u062f\u0644\u064a\u0629 \u062d\u064a \u0627\u0644\u062d\u0633\u0627\u0646\u064a", "operator": "GHISSASI MED", "phone": "0535644098"}}, {"type": "node", "id": 5316386524, "lat": 34.0206094, "lon": -4.9788651, "tags": {"addr:city": "F\u00e8s", "addr:full": "anCIEN L'ERAC SIDI BRAHIM", "addr:postcode": "30000", "amenity": "pharmacy", "dispensing": "yes", "healthcare": "pharmacy", "name": "Pharmacie Narjiss \u0635\u064a\u062f\u0644\u064a\u0629 \u0627\u0644\u0646\u0631\u062c\u0633", "operator": "BELLAMINE NASSER", "phone": "0535643734"}}, {"type": "node", "id": 5316862623, "lat": 34.0109079, "lon": -4.9831621, "tags": {"addr:city": "F\u00e8s", "addr:housenumber": "144", "addr:postcode": "30000", "addr:street": "Avenue Ismailia Lotis Lahlou Zohour 1", "amenity": "pharmacy", "dispensing": "yes", "healthcare": "pharmacy", "name": "Pharmacie Ismailia \u0635\u064a\u062f\u0644\u064a\u0629 \u0627\u0644\u0625\u0633\u0645\u0627\u0639\u064a\u0644\u064a\u0629", "operator": "Manjra Siham", "phone": "0535731441"}}, {"type": "node", "id": 5320229021, "lat": 34.0227418, "lon": -4.9779877, "tags": {"addr:city": "F\u00e8s", "addr:full": "N 12 L'ERAC SIDI BRAHIM", "addr:postcode": "30000", "amenity": "pharmacy", "dispensing": "yes", "healthcare": "pharmacy", "name": "Pharmacie Cotef \u0635\u064a\u062f\u0644\u064a\u0629 \u0643\u0648\u0637\u064a\u0641", "operator": "MRANI ALAOUI HIND", "phone": "0535730473"}}, {"type": "node", "id": 5320984826, "lat": 34.002518, "lon": -4.9877202, "tags": {"addr:city": "F\u00e8s", "addr:housenumber": "9", "addr:postcode": "30000", "addr:street": "Avenue Benzert", "amenity": "pharmacy", "dispensing": "yes", "healthcare": "pharmacy", "name": "Pharmacie Saoussane \u0635\u064a\u062f\u0644\u064a\u0629 \u0633\u0648\u0633\u0646", "operator": "Guennoune Maha"}}, {"type": "node", "id": 5320984833, "lat": 34.0050682, "lon": -4.9869764, "tags": {"addr:city": "F\u00e8s", "addr:housenumber": "119", "addr:postcode": "30000", "addr:street": "Avenue Chenguit Zohour 2", "amenity": "pharmacy", "dispensing": "yes", "healthcare": "pharmacy", "name": "Pharmacie La Famille \u0635\u064a\u062f\u0644\u064a\u0629 \u0627\u0644\u0639\u0627\u0626\u0644\u0629", "operator": "Iraki Soumia", "phone": "0535610133"}}, {"type": "node", "id": 5333830031, "lat": 34.0086636, "lon": -4.993274, "tags": {"addr:city": "F\u00e8s", "addr:housenumber": "29", "addr:postcode": "30000", "addr:street": "llah Route d ' Imouzzer Rue Bab Mansour", "amenity": "pharmacy", "dispensing": "yes", "healthcare": "pharmacy", "name": "Pharmacie Hameda Benchekroun \u0635\u064a\u062f\u0644\u064a\u0629 \u062d\u0645\u064a\u062f\u0629 \u0628\u0646\u0634\u0642\u0631\u0648\u0646", "operator": "siham benchekroun hmeda", "phone": "0535612050"}}, {"type": "node", "id": 5333830421, "lat": 33.9939304, "lon": -4.9905295, "tags": {"addr:city": "F\u00e8s", "addr:postcode": "30000", "addr:street": "85lotiss Riad Nakhil route Immouzzer Fes", "amenity": "pharmacy", "dispensing": "yes", "healthcare": "pharmacy", "name": "Pharmacie La Suite \u0635\u064a\u062f\u0644\u064a\u0629 \u0644\u0627\u0633\u0648\u064a\u0637", "operator": "hicham Miftah", "phone": "0535603649"}}, {"type": "node", "id": 5356941721, "lat": 34.0201123, "lon": -5.0532944, "tags": {"addr:city": "F\u00e8s", "addr:full": "LAHOUCINE BADR", "addr:postcode": "30000", "addr:street": "3 lotti N 15 cartier bensouda", "amenity": "pharmacy", "dispensing": "yes", "healthcare": "pharmacy", "name": "Pharmacie Makro \u0635\u064a\u062f\u0644\u064a\u0629 \u0645\u0627\u0643\u0631\u0648", "operator": "lahoussine badr", "phone": "0671656691"}}, {"type": "node", "id": 5358636223, "lat": 34.0239277, "lon": -5.0555968, "tags": {"addr:city": "F\u00e8s", "addr:postcode": "30000", "addr:street": "BENSOUDA EN FACE DE ATACADAO", "amenity": "pharmacy", "dispensing": "yes", "healthcare": "pharmacy", "name": "La Grande Pharmacie \u0627\u0644\u0635\u064a\u062f\u0644\u064a\u0629 \u0627\u0644\u0643\u0628\u0631\u0649", "operator": "Ph PPG", "phone": "0535655006"}}, {"type": "node", "id": 5360680621, "lat": 34.0182077, "lon": -5.0574499, "tags": {"addr:city": "F\u00e8s", "addr:full": "lotissement hawae jamil Masjid 1 RTE RAS Lmae Bensouda", "addr:postcode": "30000", "addr:street": "lotti hawae jamil Masjid 1 rte ras l ma", "amenity": "pharmacy", "dispensing": "yes", "healthcare": "pharmacy", "name": "Pharmacie El Boutahri \u0635\u064a\u062f\u0644\u064a \u0627\u0644\u0628\u0648\u0637\u0647\u0631\u064a", "operator": "Ph PBT", "phone": "0535729847"}}, {"type": "node", "id": 5361001722, "lat": 34.0215063, "lon": -5.0490094, "tags": {"addr:city": "F\u00e8s", "addr:postcode": "30000", "addr:street": "N 24 LOT LAALEJ BENSOUDA", "amenity": "pharmacy", "dispensing": "yes", "healthcare": "pharmacy", "name": "Pharmacie Assafwa \u0635\u064a\u062f\u0644\u064a\u0629 \u0627\u0644\u0635\u0641\u0648\u0629", "operator": "LABBAR SAFAE", "phone": "0535729153"}}, {"type": "node", "id": 5361214423, "lat": 34.0202864, "lon": -5.0462911, "tags": {"addr:city": "F\u00e8s", "addr:postcode": "30000", "addr:street": "17 Lotiss Hatim Bensoudza", "amenity": "pharmacy", "dispensing": "yes", "healthcare": "pharmacy", "name": "Pharmacie El Hijazi \u0635\u064a\u062f\u0644\u064a\u0629 \u0627\u0644\u062d\u062c\u0627\u0632\u064a", "operator": "El Hijazi Imane", "phone": "0535729764"}}, {"type": "node", "id": 5370125323, "lat": 34.0242119, "lon": -5.0506962, "tags": {"addr:city": "F\u00e8s", "addr:postcode": "30000", "addr:street": "Lot Mssafer Bensouda", "amenity": "pharmacy", "dispensing": "yes", "healthcare": "pharmacy", "name": "Pharmacie Sandra \u0635\u064a\u062f\u0644\u064a\u0629 \u0633\u0627\u0646\u062f\u0631\u0627", "operator": "Ph PSD", "phone": "0535726003"}}, {"type": "node", "id": 5370323321, "lat": 34.0277814, "lon": -5.0462297, "tags": {"addr:city": "F\u00e8s", "addr:postcode": "30000", "addr:street": "Lot Moulay Driss hay el marja", "amenity": "pharmacy", "dispensing": "yes", "healthcare": "pharmacy", "name": "Pharmacie Zouagha Bas \u0635\u064a\u062f\u0644\u064a\u0629 \u0627\u0644\u0632\u0648\u0627\u063a\u0629 \u0627\u0644\u0633\u0641\u0644\u0649", "operator": "chalkha oussama", "phone": "0535726632"}}, {"type": "node", "id": 5372625428, "lat": 34.0274386, "lon": -5.0413497, "tags": {"addr:city": "F\u00e8s", "addr:postcode": "30000", "addr:street": "HAY LMARJA RTE ZOUAGHA FES", "amenity": "pharmacy", "dispensing": "yes", "healthcare": "pharmacy", "name": "Pharmacie Al Hamd \u0635\u064a\u062f\u0644\u064a\u0629 \u0627\u0644\u062d\u0645\u062f", "operator": "LAHLOU MOUNA", "phone": "0676962190/0535612050"}}, {"type": "node", "id": 5375123532, "lat": 34.0156066, "lon": -5.0510426, "tags": {"addr:city": "F\u00e8s", "addr:full": "RUE CENTRAL N 1BENSOUDA", "addr:postcode": "30000", "amenity": "pharmacy", "dispensing": "yes", "healthcare": "pharmacy", "name": "Pharmacie El Qods \u0635\u064a\u062f\u0644\u064a\u0629 \u0627\u0644\u0642\u062f\u0633", "operator": "ABABOU NAJIBA", "phone": "+212535655068"}}, {"type": "node", "id": 5375153021, "lat": 34.0303541, "lon": -5.0410357, "tags": {"addr:city": "F\u00e8s", "addr:postcode": "30000", "addr:street": "122 LOTTI TAOUFIK AL MARJAT", "amenity": "pharmacy", "dispensing": "yes", "healthcare": "pharmacy", "name": "Pharmacie L'Avenir \u0635\u064a\u062f\u0644\u064a\u0629 \u0627\u0644\u0645\u0633\u062a\u0642\u0628\u0644", "operator": "EL KATI YOUSSEF", "phone": "0535728299"}}, {"type": "node", "id": 5377810721, "lat": 34.0312285, "lon": -5.0446229, "tags": {"addr:city": "F\u00e8s", "addr:postcode": "30000", "addr:street": "Rue 27 Marja", "amenity": "pharmacy", "dispensing": "yes", "healthcare": "pharmacy", "name": "Pharmacie Al Marja \u0635\u064a\u062f\u0644\u064a\u0629 \u0627\u0644\u0645\u0631\u062c\u0629", "operator": "Sefrioui houda", "phone": "0535726999"}}, {"type": "node", "id": 5377973123, "lat": 34.031626, "lon": -5.051411, "tags": {"addr:city": "F\u00e8s", "addr:postcode": "30000", "addr:street": "Lot Star Sakane marja", "amenity": "pharmacy", "dispensing": "yes", "healthcare": "pharmacy", "name": "Pharmacie Attaakhi \u0635\u064a\u062f\u0644\u064a\u0629 \u0627\u0644\u062a\u0622\u062e\u064a", "operator": "Ph PTA"}}, {"type": "node", "id": 5392797622, "lat": 34.0365448, "lon": -5.0494287, "tags": {"addr:city": "F\u00e8s", "addr:postcode": "30000", "addr:street": "ZOUAGHA RTE BENSOUDA", "amenity": "pharmacy", "dispensing": "yes", "healthcare": "pharmacy", "name": "Pharmacie Arreda \u0635\u064a\u062f\u0644\u064a\u0629 \u0627\u0644\u0631\u0636\u0627", "operator": "LAKHSSASSI F ZOUHRA", "phone": "0535729299"}}, {"type": "node", "id": 5393784822, "lat": 34.0088152, "lon": -5.0097849, "tags": {"addr:city": "F\u00e8s", "addr:postcode": "30000", "addr:street": "Route d ' Ain Chkef", "amenity": "pharmacy", "dispensing": "yes", "healthcare": "pharmacy", "name": "Pharmacie Sefrioui \u0635\u064a\u062f\u0644\u064a\u0629 \u0627\u0644\u0635\u0641\u0631\u064a\u0648\u064a", "operator": "SEFRIOUI NADIA", "phone": "0535612639"}}, {"type": "node", "id": 5393785323, "lat": 34.0009245, "lon": -5.0120511, "tags": {"addr:city": "F\u00e8s", "addr:housenumber": "892", "addr:postcode": "30000", "addr:street": "Route d ' Ain Chkef Lotis Karaouiyine", "amenity": "pharmacy", "dispensing": "yes", "healthcare": "pharmacy", "name": "Pharmacie Diamant Vert \u0635\u064a\u062f\u0644\u064a\u0629 \u0627\u0644\u062c\u0648\u0647\u0631\u0629 \u0627\u0644\u062e\u0636\u0631\u0627\u0621", "operator": "OXANA DROBIT KO HASNA", "phone": "0535962273"}}, {"type": "node", "id": 5395575621, "lat": 34.0388197, "lon": -5.0507853, "tags": {"addr:city": "F\u00e8s", "addr:postcode": "30000", "addr:street": "4 RUE 15 BLOC D HAY OUED FEZ MARJA", "amenity": "pharmacy", "dispensing": "yes", "healthcare": "pharmacy", "name": "Pharmacie Ouad El Jawahir \u0635\u064a\u062f\u0644\u064a\u0629 \u0648\u0627\u062f \u0627\u0644\u062c\u0648\u0627\u0647\u0631", "operator": "FAKHRI KAOUTAR", "phone": "0535728076"}}, {"type": "node", "id": 5398354121, "lat": 34.036935, "lon": -5.0441143, "tags": {"addr:city": "F\u00e8s", "addr:postcode": "30000", "addr:street": "Riad Zouhour Marja Ouad", "amenity": "pharmacy", "dispensing": "yes", "healthcare": "pharmacy", "name": "Pharmacie Wafi \u0635\u064a\u062f\u0644\u064a\u0629 \u0627\u0644\u0648\u0627\u0641\u064a", "operator": "wafi sbai", "phone": "0535655324/0626128979"}}, {"type": "node", "id": 5398499522, "lat": 34.0341382, "lon": -5.0436688, "tags": {"addr:city": "F\u00e8s", "addr:postcode": "30000", "addr:street": "235 LOTTI EZZOHOR HAY EL MARJA", "amenity": "pharmacy", "dispensing": "yes", "healthcare": "pharmacy", "name": "Pharmacie Espace Sant\u00e9 \u0635\u064a\u062f\u0644\u064a\u0629 \u0641\u0636\u0627\u0621 \u0627\u0644\u0635\u062d\u0629", "operator": "Ph PES", "phone": "0535728313"}}, {"type": "node", "id": 5398558823, "lat": 34.0351489, "lon": -5.038962, "tags": {"addr:city": "F\u00e8s", "addr:postcode": "30000", "addr:street": "Hay Mikou Marja Ouad", "amenity": "pharmacy", "dispensing": "yes", "healthcare": "pharmacy", "name": "Pharmacie Haj Bensalem \u0635\u064a\u062f\u0644\u064a\u0629 \u0627\u0644\u062d\u0627\u062c \u0628\u0646\u0633\u0627\u0644\u0645", "operator": "HJIEJ HASNAE", "phone": "0535655187"}}, {"type": "node", "id": 5398624423, "lat": 34.0401158, "lon": -5.0349723, "tags": {"addr:city": "F\u00e8s", "addr:postcode": "30000", "addr:street": "Hay Tazi Marja Ouad", "amenity": "pharmacy", "dispensing": "yes", "healthcare": "pharmacy", "name": "Pharmacie Italia \u0635\u064a\u062f\u0644\u064a\u0629 \u0625\u064a\u0637\u0627\u0644\u064a\u0627", "operator": "DAKHCHI DRISS", "phone": "0535729954"}}, {"type": "node", "id": 5400932621, "lat": 34.0375903, "lon": -5.0406043, "tags": {"addr:city": "F\u00e8s", "addr:postcode": "30000", "addr:street": "1 RUE 9 HAY MIKOU MERJA FEZ", "amenity": "pharmacy", "dispensing": "yes", "healthcare": "pharmacy", "name": "Pharmacie Al Najoua \u0635\u064a\u062f\u0644\u064a\u0629 \u0627\u0644\u0646\u062c\u0648\u0649", "operator": "KANDOUSI NAJOUA", "phone": "0535655648"}}, {"type": "node", "id": 5407132238, "lat": 34.0147038, "lon": -5.0486606, "tags": {"addr:city": "F\u00e8s", "addr:full": "RUE 3 BENSOUDA", "addr:postcode": "30000", "amenity": "pharmacy", "dispensing": "yes", "healthcare": "pharmacy", "name": "Pharmacie El Iraki \u0635\u064a\u062f\u0644\u064a\u0629 \u0627\u0644\u0639\u0631\u0627\u0642\u064a", "operator": "EL IRAKI MERIEM", "phone": "+212535729647"}}, {"type": "node", "id": 5407220722, "lat": 34.0233281, "lon": -5.0375648, "tags": {"addr:city": "F\u00e8s", "addr:postcode": "30000", "addr:street": "61B ROUTE BENSOUDA ZOUAGHA", "amenity": "pharmacy", "dispensing": "yes", "healthcare": "pharmacy", "name": "Pharmacie Al Oumma \u0635\u064a\u062f\u0644\u064a\u0629 \u0627\u0644\u0623\u0645\u0629", "operator": "TAZI LAYLA", "phone": "0535600426/0535605990"}}, {"type": "node", "id": 5414211822, "lat": 34.0247648, "lon": -5.0351104, "tags": {"addr:city": "F\u00e8s", "addr:postcode": "30000", "addr:street": "ZOUAGHAT RTE BENSOUDA", "amenity": "pharmacy", "dispensing": "yes", "healthcare": "pharmacy", "name": "Pharmacie Zouagha \u0635\u064a\u062f\u0644\u064a\u0629 \u0627\u0644\u0632\u0648\u0627\u063a\u0629", "operator": "MEZZOUR AMAL", "phone": "0535601475"}}, {"type": "node", "id": 5424399125, "lat": 34.0170139, "lon": -5.0531777, "tags": {"addr:city": "F\u00e8s", "addr:postcode": "30000", "addr:street": "3 hay Msallah fes", "amenity": "pharmacy", "dispensing": "yes", "healthcare": "pharmacy", "name": "Pharmacie Bensouda \u0635\u064a\u062f\u0644\u064a\u0629 \u0628\u0646 \u0633\u0648\u062f\u0629", "operator": "LAABOUDI HASSAN", "phone": "0535726563"}}, {"type": "node", "id": 5424447822, "lat": 34.0263639, "lon": -5.028244, "tags": {"addr:city": "F\u00e8s", "addr:postcode": "30000", "addr:street": "BVD MOHAMMED 6 ZOUAGHAT", "amenity": "pharmacy", "dispensing": "yes", "healthcare": "pharmacy", "name": "Pharmacie Av Med VI \u0635\u064a\u062f\u0644\u064a\u0629 \u0634\u0627\u0631\u0639 \u0645\u062d\u0645\u062f \u0627\u0644\u0633\u0627\u062f\u0633", "operator": "DAOUDI MOUNA", "phone": "0535604135"}}, {"type": "node", "id": 5430059334, "lat": 34.0104753, "lon": -5.0176469, "tags": {"addr:city": "F\u00e8s", "addr:postcode": "30000", "addr:street": "347 LOT QUARAOUIYINE RTE AIN CHEKAF", "amenity": "pharmacy", "dispensing": "yes", "healthcare": "pharmacy", "name": "Pharmacie des Sciences \u0635\u064a\u062f\u0644\u064a\u0629 \u0627\u0644\u0639\u0644\u0648\u0645", "operator": "Alami Harchali Sanae", "phone": "0535727399"}}, {"type": "node", "id": 5437048725, "lat": 34.0125631, "lon": -5.0227221, "tags": {"addr:city": "F\u00e8s", "addr:postcode": "30000", "addr:street": "hay nakhil rte bain smen", "amenity": "pharmacy", "dispensing": "yes", "healthcare": "pharmacy", "name": "Pharmacie Sekkat \u0635\u064a\u062f\u0644\u064a\u0629 \u0627\u0644\u0633\u0642\u0627\u0637", "operator": "sekkat salima", "phone": "0535608112"}}, {"type": "node", "id": 5437151022, "lat": 34.0132168, "lon": -5.0514716, "tags": {"addr:city": "F\u00e8s", "addr:postcode": "30000", "addr:street": "bd Abou houraira mont fleuri 1 FES", "amenity": "pharmacy", "dispensing": "yes", "healthcare": "pharmacy", "name": "Pharmacie Al Wahda \u0635\u064a\u062f\u0644\u064a\u0629 \u0627\u0644\u0648\u062d\u062f\u0629", "operator": "TAZI MERIEM", "phone": "0535644657"}}, {"type": "node", "id": 5439966421, "lat": 34.0037878, "lon": -5.0446424, "tags": {"addr:city": "F\u00e8s", "addr:postcode": "30000", "addr:street": "132 Lotiss farah bensouda fes", "amenity": "pharmacy", "dispensing": "yes", "healthcare": "pharmacy", "name": "Pharmacie Kandoussi \u0635\u064a\u062f\u0644\u064a\u0629 \u0627\u0644\u0642\u0646\u062f\u0648\u0633\u064a", "operator": "Ph PKD", "phone": "0535727195"}}, {"type": "node", "id": 5445400122, "lat": 34.0120186, "lon": -5.0262209, "tags": {"addr:city": "F\u00e8s", "addr:postcode": "30000", "addr:street": "HAY AL WEFAK BLOC N 172 FEZ", "amenity": "pharmacy", "dispensing": "yes", "healthcare": "pharmacy", "name": "Pharmacie Ain Smen \u0635\u064a\u062f\u0644\u064a\u0629 \u0639\u064a\u0646 \u0627\u0644\u0633\u0645\u0646", "operator": "BENZAKOUR REDA", "phone": "0535602419"}}, {"type": "node", "id": 5446674221, "lat": 34.015282, "lon": -5.0136845, "tags": {"addr:city": "F\u00e8s", "addr:postcode": "30000", "addr:street": "LOT ARRACHIDIA RTE AIN CHEKEF", "amenity": "pharmacy", "dispensing": "yes", "healthcare": "pharmacy", "name": "Pharmacie Errachidia \u0635\u064a\u062f\u0644\u064a\u0629 \u0627\u0644\u0631\u0627\u0634\u062f\u064a\u0629", "operator": "BENMOUSSA FAIZA", "phone": "0535602239"}}, {"type": "node", "id": 5472824321, "lat": 33.9952412, "lon": -5.0560575, "tags": {"addr:city": "F\u00e8s \u2d3c\u2d30\u2d59 \u0641\u0627\u0633", "addr:postcode": "30000", "addr:street": "PROJET WIAM RESIDENCE ZAHRAE HAY NASSIM FES", "amenity": "pharmacy", "dispensing": "yes", "healthcare": "pharmacy", "name": "Pharmacie Al Wissal \u0635\u064a\u062f\u0644\u064a\u0629 \u0627\u0644\u0648\u0635\u0627\u0644", "operator": "TAHIRI HAFIDA", "phone": "0535655906"}}, {"type": "node", "id": 5472942725, "lat": 34.0136031, "lon": -5.0293645, "tags": {"addr:city": "F\u00e8s", "addr:postcode": "30000", "addr:street": "210 BLOC A HAY WIFAK RTE AIN SMEN", "amenity": "pharmacy", "dispensing": "yes", "healthcare": "pharmacy", "name": "Pharmacie Al Kaoutar \u0635\u064a\u062f\u0644\u064a\u0629 \u0627\u0644\u0643\u0648\u062b\u0631", "operator": "CHELAT MAJDA", "phone": "+212 535612499"}}, {"type": "node", "id": 5477775421, "lat": 33.9966238, "lon": -5.0607799, "tags": {"addr:city": "Fs", "addr:postcode": "30000", "amenity": "pharmacy", "dispensing": "yes", "healthcare": "pharmacy", "name": "Pharmacie Nassim \u0635\u064a\u062f\u0644\u064a\u0629 \u0627\u0644\u0646\u0633\u064a\u0645", "operator": "Ph PNS"}}, {"type": "node", "id": 5480087722, "lat": 33.9944371, "lon": -5.0625071, "tags": {"addr:city": "F\u00e8s \u2d3c\u2d30\u2d59 \u0641\u0627\u0633", "addr:postcode": "30000", "amenity": "pharmacy", "dispensing": "yes", "healthcare": "pharmacy", "name": "Pharmacie Al Abaouayne \u0635\u064a\u062f\u0644\u064a\u0629 \u0627\u0644\u0623\u0628\u0648\u064a\u0646", "operator": "Ph PAB"}}, {"type": "node", "id": 5490795223, "lat": 34.0170581, "lon": -5.0296466, "tags": {"addr:city": "F\u00e8s", "addr:postcode": "30000", "addr:street": "Hay Griyou Zouagha Haute", "amenity": "pharmacy", "dispensing": "yes", "healthcare": "pharmacy", "name": "Pharmacie Fahmi \u0635\u064a\u062f\u0644\u064a\u0629 \u0641\u0647\u0645\u064a", "operator": "Ph PFM"}}, {"type": "node", "id": 5490862523, "lat": 34.0153361, "lon": -5.031363, "tags": {"addr:city": "F\u00e8s", "addr:postcode": "30000", "addr:street": "Hay Griyou Zouagha Haute", "amenity": "pharmacy", "dispensing": "yes", "healthcare": "pharmacy", "name": "Pharmacie Ayoub \u0635\u064a\u062f\u0644\u064a\u0629 \u0623\u064a\u0648\u0628 \u0633\u064a\u062f \u0627\u0644\u0647\u0627\u062f\u064a", "operator": "Ph PAY"}}, {"type": "node", "id": 5495984921, "lat": 34.0173431, "lon": -5.0331285, "tags": {"addr:street": "Hay Jadid Zouagha Haute", "amenity": "pharmacy", "name": "Pharmacie Basma"}}, {"type": "node", "id": 5496103023, "lat": 33.9986675, "lon": -5.0577644, "tags": {"addr:city": "F\u00e8s", "addr:postcode": "30000", "amenity": "pharmacy", "dispensing": "yes", "healthcare": "pharmacy", "name": "Pharmacie Annamae \u0635\u064a\u062f\u0644\u064a\u0629 \u0627\u0644\u0646\u0645\u0627\u0621", "operator": "Ph PNM"}}, {"type": "node", "id": 5496517321, "lat": 33.999834, "lon": -5.0540763, "tags": {"addr:city": "F\u00e8s", "addr:postcode": "30000", "amenity": "pharmacy", "dispensing": "yes", "healthcare": "pharmacy", "name": "Pharmacie la Ferraille \u0635\u064a\u062f\u0644\u064a\u0629 \u0644\u0627\u0641\u064a\u0631\u0627\u064a", "operator": "Ph PFR"}}, {"type": "node", "id": 5505183922, "lat": 34.012893, "lon": -5.0331652, "tags": {"addr:city": "F\u00e8s", "addr:postcode": "30000", "addr:street": "Hay Jdid Zouagha Haute", "amenity": "pharmacy", "dispensing": "yes", "healthcare": "pharmacy", "name": "Pharmacie le Coin \u0635\u064a\u062f\u0644\u064a\u0629 \u0627\u0644\u0631\u0643\u0646", "operator": "Ph PCN"}}, {"type": "node", "id": 5507936522, "lat": 34.021261, "lon": -5.03528, "tags": {"addr:city": "F\u00e8s", "addr:postcode": "30000", "addr:street": "BVD Sanabil Zouagha Haute", "amenity": "pharmacy", "dispensing": "yes", "healthcare": "pharmacy", "name": "Pharmacie Sanabil \u0635\u064a\u062f\u0644\u064a\u0629 \u0627\u0644\u0633\u0646\u0627\u0628\u0644", "operator": "Ph PSB"}}, {"type": "node", "id": 5522399521, "lat": 34.0232632, "lon": -5.0287799, "tags": {"addr:city": "F\u00e8s", "addr:postcode": "30000", "addr:street": "Lot Mhamdia Zouagha Haute", "amenity": "pharmacy", "dispensing": "yes", "healthcare": "pharmacy", "name": "Pharmacie Dar Es-Salam \u0635\u064a\u062f\u0644\u064a\u0629 \u062f\u0627\u0631 \u0627\u0644\u0633\u0644\u0627\u0645", "operator": "Ph PDS"}}, {"type": "node", "id": 5524915624, "lat": 34.0237733, "lon": -5.0322943, "tags": {"addr:city": "F\u00e8s \u0641\u0627\u0633", "addr:postcode": "30000", "addr:street": "Bloc B Zouagha Haute", "amenity": "pharmacy", "dispensing": "yes", "healthcare": "pharmacy", "name": "Pharmacie Addoha \u0635\u064a\u062f\u0644\u064a\u0629 \u0627\u0644\u0636\u062d\u0649", "operator": "Ph PDH"}}, {"type": "node", "id": 5525093277, "lat": 34.0184753, "lon": -5.0364946, "tags": {"addr:city": "F\u00e8s", "addr:postcode": "30000", "addr:street": "Hay Jdid Zouagha Haute", "amenity": "pharmacy", "dispensing": "yes", "healthcare": "pharmacy", "name": "Pharmacie Oum El Koura \u0635\u064a\u062f\u0644\u064a\u0629 \u0623\u0645 \u0627\u0644\u0642\u0631\u0649", "operator": "Ph POK"}}, {"type": "node", "id": 5527473421, "lat": 34.0203423, "lon": -5.0385293, "tags": {"addr:city": "F\u00e8s", "addr:postcode": "30000", "addr:street": "Hay Sidi Lhadi Zouagha Haute", "amenity": "pharmacy", "dispensing": "yes", "healthcare": "pharmacy", "name": "Pharmacie Al Farouk \u0635\u064a\u062f\u0644\u064a\u0629 \u0627\u0644\u0641\u0627\u0631\u0648\u0642", "operator": "Ph PFK"}}, {"type": "node", "id": 5527619921, "lat": 34.0183742, "lon": -5.0407606, "tags": {"addr:city": "F\u00e8s", "addr:postcode": "30000", "addr:street": "Hay Sidi El Hadi", "amenity": "pharmacy", "dispensing": "yes", "healthcare": "pharmacy", "name": "Pharmacie Sidi El Hadi \u0635\u064a\u062f\u0644\u064a\u0629 \u0633\u064a\u062f\u064a \u0627\u0644\u0647\u0627\u062f\u064a", "operator": "Ph PSH"}}, {"type": "node", "id": 5527682122, "lat": 34.0139363, "lon": -5.0434335, "tags": {"addr:city": "F\u00e8s", "addr:postcode": "30000", "addr:street": "Lot Adouha Zouagha Haute", "amenity": "pharmacy", "dispensing": "yes", "healthcare": "pharmacy", "name": "Pharmacie Al Khattabi \u0635\u064a\u062f\u0644\u064a\u0629 \u0627\u0644\u062e\u0637\u0627\u0628\u064a", "operator": "Ph PKT"}}, {"type": "node", "id": 5528634825, "lat": 33.9948567, "lon": -5.0078415, "tags": {"addr:city": "F\u00e8s", "addr:postcode": "30000", "amenity": "pharmacy", "dispensing": "yes", "healthcare": "pharmacy", "name": "Pharmacie des Roches \u0635\u064a\u062f\u0644\u064a\u0629 \u0627\u0644\u0635\u062e\u0648\u0631", "operator": "Ph PRCH"}}, {"type": "node", "id": 5552817821, "lat": 34.066239, "lon": -4.9748059, "tags": {"addr:city": "F\u00e8s", "addr:postcode": "30000", "amenity": "pharmacy", "dispensing": "yes", "healthcare": "pharmacy", "name": "Pharmacie Sagha \u0635\u064a\u062f\u0644\u064a\u0629 \u0627\u0644\u0635\u0627\u063a\u0629", "operator": "Ph PSG"}}, {"type": "node", "id": 5718733521, "lat": 34.0516802, "lon": -5.0433317, "tags": {"addr:city": "F\u00e8s", "addr:postcode": "30000", "amenity": "pharmacy", "dispensing": "yes", "healthcare": "pharmacy", "name": "Pharmacie Chifae Arrahmane \u0635\u064a\u062f\u0644\u064a\u0629 \u0634\u0641\u0627\u0621 \u0627\u0644\u0631\u062d\u0645\u0627\u0646", "operator": "Ph PCR"}}, {"type": "node", "id": 5727962822, "lat": 34.0595306, "lon": -5.0238346, "tags": {"addr:city": "F\u00e8s", "addr:postcode": "30000", "addr:street": "Avenue Moussa Ben Noussair", "amenity": "pharmacy", "dispensing": "yes", "healthcare": "pharmacy", "name": "Pharmacie Jardin de Tghath \u0635\u064a\u062f\u0644\u064a\u0629 \u062d\u062f\u064a\u0642\u0629 \u062a\u063a\u0627\u062b", "operator": "Ph PJT"}}, {"type": "node", "id": 5735067971, "lat": 34.0704938, "lon": -4.9996766, "tags": {"addr:city": "F\u00e8s \u2d3c\u2d30\u2d59 \u0641\u0627\u0633", "addr:postcode": "30000", "amenity": "pharmacy", "dispensing": "yes", "healthcare": "pharmacy", "name": "Pharmacie Errachid \u0635\u064a\u062f\u0644\u064a\u0629 \u0627\u0644\u0631\u0634\u064a\u062f", "operator": "Ph PRD"}}, {"type": "node", "id": 5735223007, "lat": 34.0670337, "lon": -5.0108801, "tags": {"addr:city": "F\u00e8s \u2d3c\u2d30\u2d59 \u0641\u0627\u0633", "addr:postcode": "30000", "amenity": "pharmacy", "dispensing": "yes", "healthcare": "pharmacy", "name": "Pharmacie Al Imam Mouslim \u0635\u064a\u062f\u0644\u064a\u0629 \u0627\u0644\u0625\u0645\u0627\u0645 \u0645\u0633\u0644\u0645", "operator": "Ph PIM"}}, {"type": "node", "id": 5740981221, "lat": 34.0650353, "lon": -4.9574981, "tags": {"addr:city": "F\u00e8s \u2d3c\u2d30\u2d59 \u0641\u0627\u0633", "addr:postcode": "30000", "addr:street": "Bab Khoukha", "amenity": "pharmacy", "dispensing": "yes", "healthcare": "pharmacy", "name": "Pharmacie Dar Dmana \u0635\u064a\u062f\u0644\u064a\u0629 \u062f\u0627\u0631 \u0627\u0644\u0636\u0645\u0627\u0646\u0629", "operator": "Ph PDD"}}, {"type": "node", "id": 5744062346, "lat": 34.0092557, "lon": -5.0413397, "tags": {"addr:city": "F\u00e8s", "addr:postcode": "30000", "amenity": "pharmacy", "dispensing": "yes", "healthcare": "pharmacy", "name": "Pharmacie Al Youmne \u0635\u064a\u062f\u0644\u064a\u0629 \u0627\u0644\u064a\u0645\u0646", "operator": "Ph PYM"}}, {"type": "node", "id": 5749776079, "lat": 34.0347847, "lon": -5.0003661, "tags": {"addr:city": "F\u00e8s", "addr:housenumber": "70", "addr:postcode": "30000", "addr:street": "Rue Abi Tayeb Al Motanabbi", "amenity": "pharmacy", "dispensing": "yes", "healthcare": "pharmacy", "name": "Pharmacie Volubilis \u0635\u064a\u062f\u0644\u064a\u0629 \u0648\u0644\u064a\u0644\u064a", "operator": "Ph PVB"}}, {"type": "node", "id": 7725405985, "lat": 34.0164626, "lon": -4.9599062, "tags": {"addr:city": "F\u00e8s", "addr:housenumber": "50 lotissements", "addr:postcode": "30000", "addr:street": "Avenue Naoual", "amenity": "pharmacy", "dispensing": "yes", "healthcare": "pharmacy", "name": "Pharmacie Riad Chafi \u0635\u064a\u062f\u0644\u064a\u0629 \u0631\u064a\u0627\u0636 \u0627\u0644\u0634\u0627\u0641\u064a", "operator": "Ph PRCH"}}, {"type": "node", "id": 8972515927, "lat": 34.0136448, "lon": -4.9752165, "tags": {"addr:city": "F\u00e8s", "addr:postcode": "30000", "addr:street": "Avenue Rachad", "amenity": "pharmacy", "dispensing": "yes", "healthcare": "pharmacy", "name": "Pharmacie Asmae \u0635\u064a\u062f\u0644\u064a\u0629 \u0623\u0633\u0645\u0627\u0621", "operator": "MRANI ALAOUI ASMAE", "phone": "0535732193"}}, {"type": "node", "id": 8972595649, "lat": 34.0331265, "lon": -4.9904057, "tags": {"addr:city": "F\u00e8s", "addr:postcode": "30000", "addr:street": "Route des Champs \u0634\u0627\u0631\u0639 \u0627\u0644\u062c\u0648\u0644\u0627\u0646", "amenity": "pharmacy", "dispensing": "yes", "healthcare": "pharmacy", "name": "Pharmacie du Lido \u0635\u064a\u062f\u0644\u064a\u0629 \u0627\u0644\u0644\u064a\u062f\u0648", "operator": "Ph PLD"}}, {"type": "node", "id": 8984249652, "lat": 34.0256245, "lon": -5.0048828, "tags": {"addr:city": "F\u00e8s", "addr:housenumber": "52", "addr:postcode": "30000", "addr:street": "HAY SAADA RTE AIN CHQEF", "amenity": "pharmacy", "dispensing": "yes", "healthcare": "pharmacy", "name": "Pharmacie Saada \u0635\u064a\u062f\u0644\u064a\u0629 \u0627\u0644\u0633\u0639\u0627\u062f\u0629", "operator": "GHRISSI MED FOUAD", "phone": "0535609156"}}, {"type": "node", "id": 8993802951, "lat": 34.0357569, "lon": -5.0287686, "tags": {"addr:city": "F\u00e8s", "addr:postcode": "30000", "amenity": "pharmacy", "dispensing": "yes", "healthcare": "pharmacy", "name": "Pharmacie Gharnata \u0635\u064a\u062f\u0644\u064a\u0629 \u063a\u0631\u0646\u0627\u0637\u0629", "operator": "AJBAR LAMIA", "phone": "0535622006"}}, {"type": "node", "id": 9010895004, "lat": 34.0591521, "lon": -5.0138627, "tags": {"addr:city": "F\u00e8s", "addr:postcode": "30000", "addr:suburb": "L'HABITAT DE LA GARE", "amenity": "pharmacy", "dispensing": "yes", "healthcare": "pharmacy", "name": "Pharmacie Berrada \u0635\u064a\u062f\u0644\u064a\u0629 \u0628\u0631\u0627\u062f\u0629", "operator": "BERRADA DRISS", "phone": "0535622890"}}, {"type": "node", "id": 9010900716, "lat": 34.0433492, "lon": -5.0091946, "tags": {"addr:city": "F\u00e8s", "addr:postcode": "30000", "addr:street": "Ibn Hajar", "amenity": "pharmacy", "dispensing": "yes", "healthcare": "pharmacy", "name": "Pharmacie Averro\u00e8s \u0635\u064a\u062f\u0644\u064a\u0629 \u0627\u0628\u0646 \u0631\u0634\u062f", "operator": "Ph PAV"}}, {"type": "node", "id": 9032660795, "lat": 34.0695594, "lon": -4.9955712, "tags": {"addr:city": "F\u00e8s \u2d3c\u2d30\u2d59 \u0641\u0627\u0633", "addr:postcode": "30000", "amenity": "pharmacy", "dispensing": "yes", "healthcare": "pharmacy", "name": "Pharmacie Attouraya \u0635\u064a\u062f\u0644\u064a\u0629 \u0627\u0644\u062b\u0631\u064a\u0627", "operator": "Ph PTR"}}, {"type": "node", "id": 9032668703, "lat": 34.0686025, "lon": -5.001806, "tags": {"addr:city": "F\u00e8s", "addr:postcode": "30000", "amenity": "pharmacy", "dispensing": "yes", "healthcare": "pharmacy", "name": "Pharmacie Hay Belkhayat \u0635\u064a\u062f\u0644\u064a\u0629 \u062d\u064a \u0628\u0644\u062e\u064a\u0627\u0637", "operator": "Ph PHB"}}, {"type": "node", "id": 9032672710, "lat": 34.0658698, "lon": -4.9968004, "tags": {"addr:city": "F\u00e8s", "addr:postcode": "30000", "amenity": "pharmacy", "dispensing": "yes", "healthcare": "pharmacy", "name": "Pharmacie Al Mamalik \u0635\u064a\u062f\u0644\u064a\u0629 \u0627\u0644\u0645\u0645\u0627\u0644\u0643", "operator": "Ph PMK"}}, {"type": "node", "id": 9032747370, "lat": 34.0588845, "lon": -5.0111457, "tags": {"addr:city": "F\u00e8s \u2d3c\u2d30\u2d59 \u0641\u0627\u0633", "addr:postcode": "30000", "amenity": "pharmacy", "dispensing": "yes", "healthcare": "pharmacy", "name": "Pharmacie le Rem\u00e8de \u0635\u064a\u062f\u0644\u064a\u0629 \u0627\u0644\u062f\u0648\u0627\u0621", "operator": "Ph PRD"}}, {"type": "node", "id": 9032748170, "lat": 34.0598898, "lon": -5.008256, "tags": {"addr:city": "F\u00e8s", "addr:postcode": "30000", "amenity": "pharmacy", "dispensing": "yes", "healthcare": "pharmacy", "name": "Pharmacie Ain Kadouss \u0635\u064a\u062f\u0644\u064a\u0629 \u0639\u064a\u0646 \u0642\u0627\u062f\u0648\u0633", "operator": "Ph PAK"}}, {"type": "node", "id": 9032830871, "lat": 34.0596226, "lon": -5.0169477, "tags": {"addr:city": "F\u00e8s", "addr:postcode": "30000", "amenity": "pharmacy", "dispensing": "yes", "healthcare": "pharmacy", "name": "Pharmacie Benkirane \u0635\u064a\u062f\u0644\u064a\u0629 \u0628\u0646\u0643\u064a\u0631\u0627\u0646", "operator": "Ph PBK"}}, {"type": "node", "id": 9032834575, "lat": 34.0567516, "lon": -5.0152941, "tags": {"addr:city": "F\u00e8s", "addr:postcode": "30000", "amenity": "pharmacy", "dispensing": "yes", "healthcare": "pharmacy", "name": "Pharmacie El Ghazi \u0635\u064a\u062f\u0644\u064a\u0629 \u0627\u0644\u063a\u0627\u0632\u064a", "operator": "Ph PGZ"}}, {"type": "node", "id": 9035353158, "lat": 34.0577633, "lon": -5.0212595, "tags": {"addr:city": "F\u00e8s", "addr:postcode": "30000", "amenity": "pharmacy", "dispensing": "yes", "healthcare": "pharmacy", "name": "Pharmacie Jbel Tghat \u0635\u064a\u062f\u0644\u064a\u0629 \u062c\u0628\u0644 \u062b\u063a\u0627\u062a", "operator": "Ph PJT"}}, {"type": "node", "id": 9035364493, "lat": 34.0566911, "lon": -5.0303904, "tags": {"addr:city": "F\u00e8s \u0641\u0627\u0633", "addr:postcode": "30000", "amenity": "pharmacy", "dispensing": "yes", "healthcare": "pharmacy", "name": "Pharmacie Faiza \u0635\u064a\u062f\u0644\u064a\u0629 \u0641\u0627\u064a\u0632\u0629", "operator": "Ph PFZ"}}, {"type": "node", "id": 9035500323, "lat": 34.0554449, "lon": -5.0256744, "tags": {"addr:city": "F\u00e8s", "addr:postcode": "30000", "amenity": "pharmacy", "dispensing": "yes", "healthcare": "pharmacy", "name": "Pharmacie Salah \u0635\u064a\u062f\u0644\u064a\u0629 \u0635\u0644\u0627\u062d", "operator": "Ph PSH"}}, {"type": "node", "id": 9035505122, "lat": 34.0571553, "lon": -5.0267418, "tags": {"addr:city": "F\u00e8s", "addr:postcode": "30000", "amenity": "pharmacy", "dispensing": "yes", "healthcare": "pharmacy", "name": "Pharmacie Reda \u0635\u064a\u062f\u0644\u064a\u0629 \u0631\u0636\u0627", "operator": "Ph PRD"}}, {"type": "node", "id": 9035534360, "lat": 34.0523514, "lon": -5.0344778, "tags": {"addr:city": "F\u00e8s", "addr:postcode": "30000", "amenity": "pharmacy", "dispensing": "yes", "healthcare": "pharmacy", "name": "Pharmacie Al Imane \u0635\u064a\u062f\u0644\u064a\u0629 \u0627\u0644\u0625\u064a\u0645\u0627\u0646", "operator": "Ph PMN"}}, {"type": "node", "id": 9035544128, "lat": 34.0550044, "lon": -5.0287002, "tags": {"addr:city": "F\u00e8s \u0641\u0627\u0633", "addr:postcode": "30000", "amenity": "pharmacy", "dispensing": "yes", "healthcare": "pharmacy", "name": "Pharmacie Al Falah \u0635\u064a\u062f\u0644\u064a\u0629 \u0627\u0644\u0641\u0644\u0627\u062d", "operator": "Ph PFH"}}, {"type": "node", "id": 9035591817, "lat": 34.066531, "lon": -5.0073181, "tags": {"addr:city": "F\u00e8s", "addr:postcode": "30000", "amenity": "pharmacy", "dispensing": "yes", "healthcare": "pharmacy", "name": "Pharmacie Ain Haroun \u0635\u064a\u062f\u0644\u064a\u0629 \u0639\u064a\u0646 \u0647\u0627\u0631\u0648\u0646", "operator": "Ph PAH"}}, {"type": "node", "id": 9035612159, "lat": 34.0665259, "lon": -5.0035026, "tags": {"addr:city": "F\u00e8s", "addr:postcode": "30000", "amenity": "pharmacy", "dispensing": "yes", "healthcare": "pharmacy", "name": "Pharmacie Ibn Al Khatib \u0635\u064a\u062f\u0644\u064a\u0629 \u0628\u0646 \u0627\u0644\u062e\u0637\u064a\u0628", "operator": "Ph PKT"}}, {"type": "node", "id": 9035630210, "lat": 34.063744, "lon": -5.009789, "tags": {"addr:city": "F\u00e8s", "addr:postcode": "30000", "amenity": "pharmacy", "dispensing": "yes", "healthcare": "pharmacy", "name": "Pharmacie Agadir \u0635\u064a\u062f\u0644\u064a\u0629 \u0623\u0643\u0627\u062f\u064a\u0631", "operator": "Ph PGR"}}, {"type": "node", "id": 9035717748, "lat": 34.0651564, "lon": -5.0162463, "tags": {"addr:city": "F\u00e8s", "addr:postcode": "30000", "amenity": "pharmacy", "dispensing": "yes", "healthcare": "pharmacy", "name": "Pharmacie Saida \u0635\u064a\u062f\u0644\u064a\u0629 \u0633\u0639\u064a\u062f\u0629", "operator": "Ph PSD"}}, {"type": "node", "id": 9035797630, "lat": 34.0610614, "lon": -5.0123122, "tags": {"addr:city": "F\u00e8s", "addr:postcode": "30000", "addr:street": "Avenue Oqba Ben Nafia", "amenity": "pharmacy", "dispensing": "yes", "healthcare": "pharmacy", "name": "Pharmacie Es-Salam \u0635\u064a\u062f\u0644\u064a\u0629 \u0627\u0644\u0633\u0644\u0627\u0645", "operator": "Ph PSM"}}, {"type": "node", "id": 9038248382, "lat": 34.0634415, "lon": -5.0054342, "tags": {"addr:city": "F\u00e8s", "addr:postcode": "30000", "amenity": "pharmacy", "dispensing": "yes", "healthcare": "pharmacy", "name": "Pharmacie Ibn Sina \u0635\u064a\u062f\u0644\u064a\u0629 \u0627\u0628\u0646 \u0633\u064a\u0646\u0627", "operator": "Ph PBS"}}, {"type": "node", "id": 9038251500, "lat": 34.0627967, "lon": -5.0181666, "tags": {"addr:city": "F\u00e8s", "addr:postcode": "30000", "amenity": "pharmacy", "dispensing": "yes", "healthcare": "pharmacy", "name": "Pharmacie Dayaa \u0635\u064a\u062f\u0644\u064a\u0629 \u0627\u0644\u0636\u064a\u0639\u0629", "operator": "Ph PDY"}}, {"type": "node", "id": 9038273758, "lat": 34.0651138, "lon": -5.0121204, "tags": {"addr:city": "F\u00e8s", "addr:postcode": "30000", "amenity": "pharmacy", "dispensing": "yes", "healthcare": "pharmacy", "name": "Pharmacie Hay Laalou \u0635\u064a\u062f\u0644\u064a\u0629 \u062d\u064a \u0644\u0639\u0644\u0648", "operator": "Ph PHL"}}, {"type": "node", "id": 9038321797, "lat": 34.0622255, "lon": -5.0215687, "tags": {"addr:city": "F\u00e8s", "addr:postcode": "30000", "amenity": "pharmacy", "dispensing": "yes", "healthcare": "pharmacy", "name": "Pharmacie Al Imam Malik \u0635\u064a\u062f\u0644\u064a\u0629 \u0627\u0644\u0625\u0645\u0627\u0645 \u0645\u0627\u0644\u0643", "operator": "Ph PIM"}}, {"type": "node", "id": 9038337026, "lat": 34.0602017, "lon": -5.0285858, "tags": {"addr:city": "F\u00e8s", "addr:postcode": "30000", "amenity": "pharmacy", "dispensing": "yes", "healthcare": "pharmacy", "name": "Pharmacie Al Marwa \u0635\u064a\u062f\u0644\u064a\u0629 \u0627\u0644\u0645\u0631\u0648\u0649", "operator": "Ph PMW"}}, {"type": "node", "id": 9040946630, "lat": 34.0611772, "lon": -5.0330511, "tags": {"addr:city": "F\u00e8s \u2d3c\u2d30\u2d59 \u0641\u0627\u0633", "addr:postcode": "30000", "amenity": "pharmacy", "dispensing": "yes", "healthcare": "pharmacy", "name": "Pharmacie Al Hilal \u0635\u064a\u062f\u0644\u064a\u0629 \u0627\u0644\u0647\u0644\u0627\u0644", "operator": "Ph PHL"}}, {"type": "node", "id": 9041087322, "lat": 34.0593037, "lon": -5.0364883, "tags": {"addr:city": "F\u00e8s", "addr:postcode": "30000", "amenity": "pharmacy", "dispensing": "yes", "healthcare": "pharmacy", "name": "Pharmacie Soundous \u0635\u064a\u062f\u0644\u064a\u0629 \u0627\u0644\u0633\u0646\u062f\u0633", "operator": "Ph PSD"}}, {"type": "node", "id": 9041103033, "lat": 34.0567425, "lon": -5.0352601, "tags": {"addr:city": "F\u00e8s", "addr:postcode": "30000", "amenity": "pharmacy", "dispensing": "yes", "healthcare": "pharmacy", "name": "Pharmacie El Boukhari \u0635\u064a\u062f\u0644\u064a\u0629 \u0627\u0644\u0628\u062e\u0627\u0631\u064a", "operator": "Ph PBR"}}, {"type": "node", "id": 9041125608, "lat": 34.058589, "lon": -5.0397344, "tags": {"addr:city": "F\u00e8s \u2d3c\u2d30\u2d59 \u0641\u0627\u0633", "addr:postcode": "30000", "amenity": "pharmacy", "dispensing": "yes", "healthcare": "pharmacy", "name": "Pharmacie Mounia \u0635\u064a\u062f\u0644\u064a\u0629 \u0645\u0648\u0646\u064a\u0629", "operator": "Ph PMN"}}, {"type": "node", "id": 9041137082, "lat": 34.0549853, "lon": -5.0415456, "tags": {"addr:city": "F\u00e8s", "addr:postcode": "30000", "amenity": "pharmacy", "dispensing": "yes", "healthcare": "pharmacy", "name": "Pharmacie Youssef Ben Tachafine \u0635\u064a\u062f\u0644\u064a\u0629 \u064a\u0648\u0633\u0641 \u062a\u0627\u0634\u0641\u064a\u0646", "operator": "Ph PYBT"}}, {"type": "node", "id": 9041162334, "lat": 34.0511596, "lon": -5.0393854, "tags": {"addr:city": "F\u00e8s", "addr:postcode": "30000", "amenity": "pharmacy", "dispensing": "yes", "healthcare": "pharmacy", "name": "Pharmacie Lhoumadi \u0635\u064a\u062f\u0644\u064a\u0629 \u0644\u062d\u0648\u0645\u0627\u062f\u064a", "operator": "Ph PHM"}}, {"type": "node", "id": 9041164672, "lat": 34.0531852, "lon": -5.0380269, "tags": {"addr:city": "F\u00e8s \u2d3c\u2d30\u2d59 \u0641\u0627\u0633", "addr:postcode": "30000", "amenity": "pharmacy", "dispensing": "yes", "healthcare": "pharmacy", "name": "Pharmacie Maalal \u0635\u064a\u062f\u0644\u064a\u0629 \u0645\u0639\u0644\u0627\u0644", "operator": "Ph PML"}}, {"type": "node", "id": 9041205020, "lat": 34.0587131, "lon": -5.0454574, "tags": {"addr:city": "F\u00e8s \u2d3c\u2d30\u2d59 \u0641\u0627\u0633", "addr:postcode": "30000", "amenity": "pharmacy", "dispensing": "yes", "healthcare": "pharmacy", "name": "Pharmacie Hasnaoui \u0635\u064a\u062f\u0644\u064a\u0629 \u0627\u0644\u062d\u0633\u0646\u0627\u0648\u064a", "operator": "Ph PHS"}}, {"type": "node", "id": 9041206899, "lat": 34.05283, "lon": -5.048599, "tags": {"addr:city": "F\u00e8s \u2d3c\u2d30\u2d59 \u0641\u0627\u0633", "addr:postcode": "30000", "amenity": "pharmacy", "dispensing": "yes", "healthcare": "pharmacy", "name": "Pharmacie Dr Obtel \u0635\u064a\u062f\u0644\u064a\u0629 \u062f.\u0623\u0648\u0628\u062a\u064a\u0644", "operator": "Ph POB"}}, {"type": "node", "id": 9041211850, "lat": 34.0558711, "lon": -5.0446871, "tags": {"addr:city": "F\u00e8s", "addr:postcode": "30000", "amenity": "pharmacy", "dispensing": "yes", "healthcare": "pharmacy", "name": "Pharmacie El Mountazah \u0635\u064a\u062f\u0644\u064a\u0629 \u0627\u0644\u0645\u0646\u062a\u0632\u0647", "operator": "Ph PMZ"}}, {"type": "node", "id": 9041249677, "lat": 34.0453606, "lon": -4.9541227, "tags": {"addr:city": "F\u00e8s \u2d3c\u2d30\u2d59 \u0641\u0627\u0633", "addr:postcode": "30000", "amenity": "pharmacy", "dispensing": "yes", "healthcare": "pharmacy", "name": "Pharmacie Nasma \u0635\u064a\u062f\u0644\u064a\u0629 \u0646\u0633\u0645\u0629", "operator": "Ph PNS"}}, {"type": "node", "id": 9041266437, "lat": 34.0488103, "lon": -4.9606574, "tags": {"addr:city": "F\u00e8s", "addr:postcode": "30000", "amenity": "pharmacy", "dispensing": "yes", "healthcare": "pharmacy", "name": "Pharmacie Al Hanae \u0635\u064a\u062f\u0644\u064a\u0629 \u0627\u0644\u0647\u0646\u0627\u0621", "operator": "Ph PHN"}}, {"type": "node", "id": 9041318009, "lat": 34.0474135, "lon": -4.9562404, "tags": {"addr:city": "F\u00e8s", "addr:postcode": "30000", "amenity": "pharmacy", "dispensing": "yes", "healthcare": "pharmacy", "name": "Pharmacie Bled Tahiriyine \u0635\u064a\u062f\u0644\u064a\u0629 \u0628\u0644\u0627\u062f \u0627\u0644\u0637\u0627\u0647\u0631\u064a\u064a\u0646", "operator": "Ph PBT"}}, {"type": "node", "id": 9041369092, "lat": 34.0507379, "lon": -4.9572886, "tags": {"addr:city": "F\u00e8s", "addr:postcode": "30000", "amenity": "pharmacy", "dispensing": "yes", "healthcare": "pharmacy", "name": "Pharmacie Al Makkiya \u0635\u064a\u062f\u0644\u064a\u0629 \u0627\u0644\u0645\u0643\u064a\u0629", "operator": "Ph PMK"}}, {"type": "node", "id": 9043787624, "lat": 34.0501087, "lon": -4.9644643, "tags": {"addr:city": "F\u00e8s", "addr:postcode": "30000", "amenity": "pharmacy", "dispensing": "yes", "healthcare": "pharmacy", "name": "Pharmacie Driss \u0635\u064a\u062f\u0644\u064a\u0629 \u0625\u062f\u0631\u064a\u0633", "operator": "Ph PDS"}}, {"type": "node", "id": 9043830738, "lat": 34.0581225, "lon": -4.9520117, "tags": {"addr:city": "F\u00e8s", "addr:postcode": "30000", "amenity": "pharmacy", "dispensing": "yes", "healthcare": "pharmacy", "name": "Pharmacie Wisslane \u0635\u064a\u062f\u0644\u064a\u0629 \u0648\u064a\u0633\u0644\u0627\u0646", "operator": "Ph PWS"}}, {"type": "node", "id": 9043830995, "lat": 34.0593227, "lon": -4.9564327, "tags": {"addr:city": "F\u00e8s", "addr:postcode": "30025", "amenity": "pharmacy", "dispensing": "yes", "healthcare": "pharmacy", "name": "Pharmacie El Louizatt \u0635\u064a\u062f\u0644\u064a\u0629 \u0627\u0644\u0644\u0648\u064a\u0632\u0627\u062a", "operator": "Ph PLZ"}}, {"type": "node", "id": 9043883647, "lat": 34.0524925, "lon": -4.9608524, "tags": {"addr:city": "F\u00e8s", "addr:postcode": "30000", "amenity": "pharmacy", "dispensing": "yes", "healthcare": "pharmacy", "name": "Pharmacie M'sella \u0635\u064a\u062f\u0644\u064a\u0629 \u0627\u0644\u0645\u0635\u0644\u0649", "operator": "Ph PMS"}}, {"type": "node", "id": 9043883650, "lat": 34.0142987, "lon": -4.9681185, "tags": {"addr:city": "F\u00e8s", "addr:postcode": "30000", "amenity": "pharmacy", "dispensing": "yes", "healthcare": "pharmacy", "name": "Pharmacie la M\u00e9nara \u0635\u064a\u062f\u0644\u064a\u0629 \u0627\u0644\u0645\u0646\u0627\u0631\u0629", "operator": "Ph PMR"}}, {"type": "node", "id": 9043888667, "lat": 34.0571051, "lon": -4.9544992, "tags": {"addr:city": "F\u00e8s", "addr:postcode": "30000", "amenity": "pharmacy", "dispensing": "yes", "healthcare": "pharmacy", "name": "Pharmacie Kamal \u0635\u064a\u062f\u0644\u064a\u0629 \u0643\u0645\u0627\u0644", "operator": "Ph PKL"}}, {"type": "node", "id": 9043936390, "lat": 34.0182531, "lon": -4.9723992, "tags": {"addr:city": "F\u00e8s", "addr:postcode": "30000", "amenity": "pharmacy", "dispensing": "yes", "healthcare": "pharmacy", "name": "Pharmacie Saguia Lhamra \u0635\u064a\u062f\u0644\u064a\u0629 \u0627\u0644\u0633\u0627\u0642\u064a\u0629 \u0627\u0644\u062d\u0645\u0631\u0627\u0621", "operator": "Ph PSH"}}, {"type": "node", "id": 9043956382, "lat": 34.0200745, "lon": -4.967283, "tags": {"addr:city": "F\u00e8s \u2d3c\u2d30\u2d59 \u0641\u0627\u0633", "addr:postcode": "30000", "amenity": "pharmacy", "dispensing": "yes", "healthcare": "pharmacy", "name": "Pharmacie Aouinat El Hajjaj \u0635\u064a\u062f\u0644\u064a\u0629 \u0639\u0648\u064a\u0646\u0627\u062a \u0627\u0644\u062d\u062c\u0627\u062c", "operator": "Ph PAH"}}, {"type": "node", "id": 9043968723, "lat": 34.0199568, "lon": -4.9679916, "tags": {"addr:city": "F\u00e8s \u2d3c\u2d30\u2d59 \u0641\u0627\u0633", "addr:postcode": "30000", "amenity": "pharmacy", "dispensing": "yes", "healthcare": "pharmacy", "name": "Pharmacie El Alj \u0635\u064a\u062f\u0644\u064a\u0629 \u0627\u0644\u0639\u0644\u062c", "operator": "Ph PAJ"}}, {"type": "node", "id": 9043970857, "lat": 34.0178391, "lon": -4.9630909, "tags": {"addr:city": "F\u00e8s \u2d3c\u2d30\u2d59 \u0641\u0627\u0633", "addr:postcode": "30000", "amenity": "pharmacy", "dispensing": "yes", "healthcare": "pharmacy", "name": "Pharmacie Alae Arrahman \u0635\u064a\u062f\u0644\u064a\u0629 \u0627\u0644\u0631\u062d\u0645\u0627\u0646", "operator": "Ph PAR"}}, {"type": "node", "id": 9044125530, "lat": 34.0571831, "lon": -4.9933334, "tags": {"addr:city": "F\u00e8s \u2d3c\u2d30\u2d59 \u0641\u0627\u0633", "addr:postcode": "30000", "addr:street": "Avenue Derb Moulay Abdellah", "amenity": "pharmacy", "dispensing": "yes", "healthcare": "pharmacy", "name": "Pharmacie Moulay Abdellah \u0635\u064a\u062f\u0644\u064a\u0629 \u0645\u0648\u0644\u0627\u064a \u0639\u0628\u062f \u0627\u0644\u0644\u0647", "operator": "Ph PMA"}}, {"type": "node", "id": 9045350223, "lat": 34.0611947, "lon": -4.9418139, "tags": {"addr:city": "F\u00e8s \u2d3c\u2d30\u2d59 \u0641\u0627\u0633", "addr:postcode": "30000", "amenity": "pharmacy", "dispensing": "yes", "healthcare": "pharmacy", "name": "Pharmacie Bab F\u00e8s \u0635\u064a\u062f\u0644\u064a\u0629 \u0628\u0627\u0628 \u0641\u0627\u0633", "operator": "Ph PBF"}}, {"type": "node", "id": 9045364285, "lat": 34.0639385, "lon": -4.9543363, "tags": {"addr:city": "F\u00e8s", "addr:postcode": "30000", "amenity": "pharmacy", "dispensing": "yes", "healthcare": "pharmacy", "name": "Pharmacie Moulay M'Barek \u0635\u064a\u062f\u0644\u064a\u0629 \u0645\u0648\u0644\u0627\u064a \u0645\u0628\u0627\u0631\u0643", "operator": "Ph PMB"}}, {"type": "node", "id": 9045374425, "lat": 34.0617846, "lon": -4.9526825, "tags": {"addr:city": "F\u00e8s", "addr:postcode": "30000", "amenity": "pharmacy", "dispensing": "yes", "healthcare": "pharmacy", "name": "Pharmacie Ain Nokbi \u0635\u064a\u062f\u0644\u064a\u0629 \u0639\u064a\u0646 \u0627\u0644\u0646\u0642\u0628\u064a", "operator": "Ph PAN"}}, {"type": "node", "id": 9045400740, "lat": 34.0644193, "lon": -4.9527481, "tags": {"addr:city": "F\u00e8s", "addr:postcode": "30000", "amenity": "pharmacy", "dispensing": "yes", "healthcare": "pharmacy", "name": "Pharmacie El Kobba \u0635\u064a\u062f\u0644\u064a\u0629 \u0627\u0644\u0642\u0628\u0629", "operator": "Ph PKB"}}, {"type": "node", "id": 9045416087, "lat": 34.067096, "lon": -4.955399, "tags": {"addr:city": "F\u00e8s \u2d3c\u2d30\u2d59 \u0641\u0627\u0633", "addr:postcode": "30000", "amenity": "pharmacy", "dispensing": "yes", "healthcare": "pharmacy", "name": "Pharmacie Jnane Kadiri \u0635\u064a\u062f\u0644\u064a\u0629 \u062c\u0646\u0627\u0646 \u0627\u0644\u0642\u0627\u062f\u0631\u064a", "operator": "Ph PJK"}}, {"type": "node", "id": 9045445097, "lat": 34.0704308, "lon": -4.966285, "tags": {"addr:city": "F\u00e8s \u2d3c\u2d30\u2d59 \u0641\u0627\u0633", "addr:postcode": "30000", "addr:street": "Boulevard des Merinides", "amenity": "pharmacy", "dispensing": "yes", "healthcare": "pharmacy", "name": "Pharmacie Al Andalous \u0635\u064a\u062f\u0644\u064a\u0629 \u0627\u0644\u0623\u0646\u062f\u0644\u0633", "operator": "Ph PDS"}}, {"type": "node", "id": 9045451994, "lat": 34.0718486, "lon": -4.96295, "tags": {"addr:city": "F\u00e8s \u2d3c\u2d30\u2d59 \u0641\u0627\u0633", "addr:postcode": "30000", "amenity": "pharmacy", "dispensing": "yes", "healthcare": "pharmacy", "name": "Pharmacie Jnan Mekouar \u0635\u064a\u062f\u0644\u064a\u0629 \u062c\u0646\u0627\u0646 \u0645\u0643\u0648\u0627\u0631", "operator": "Ph PJM"}}, {"type": "node", "id": 9048910905, "lat": 34.0560754, "lon": -4.9741905, "tags": {"addr:city": "F\u00e8s", "addr:postcode": "30000", "amenity": "pharmacy", "dispensing": "yes", "healthcare": "pharmacy", "name": "Pharmacie Fatima Al Fihriya \u0635\u064a\u062f\u0644\u064a\u0629 \u0641\u0627\u0637\u0645\u0629 \u0627\u0644\u0641\u0647\u0631\u064a\u0629", "operator": "Ph PFF"}}, {"type": "node", "id": 9048942320, "lat": 34.0633697, "lon": -4.9777072, "tags": {"addr:city": "F\u00e8s", "addr:postcode": "30000", "amenity": "pharmacy", "dispensing": "yes", "healthcare": "pharmacy", "name": "Pharmacie Zkak Lahjar \u0635\u064a\u062f\u0644\u064a\u0629 \u0632\u0642\u0627\u0642 \u0627\u0644\u062d\u062c\u0631", "operator": "Ph PZL"}}, {"type": "node", "id": 9049003728, "lat": 34.068623, "lon": -4.9757032, "tags": {"addr:city": "F\u00e8s", "addr:postcode": "30000", "amenity": "pharmacy", "dispensing": "yes", "healthcare": "pharmacy", "name": "Pharmacie Bab El Guissa \u0635\u064a\u062f\u0644\u064a\u0629 \u0628\u0627\u0628 \u0639\u062c\u064a\u0633\u0629", "operator": "Ph PBA"}}, {"type": "node", "id": 9049003729, "lat": 34.0685381, "lon": -4.9706313, "tags": {"addr:city": "F\u00e8s \u2d3c\u2d30\u2d59 \u0641\u0627\u0633", "addr:postcode": "30000", "amenity": "pharmacy", "dispensing": "yes", "healthcare": "pharmacy", "name": "Pharmacie Oued Zhoun \u0635\u064a\u062f\u0644\u064a\u0629 \u0648\u0627\u062f \u0627\u0644\u0632\u062d\u0648\u0646", "operator": "Ph POZ"}}, {"type": "node", "id": 9051315874, "lat": 34.0707225, "lon": -4.9689367, "tags": {"addr:city": "F\u00e8s \u2d3c\u2d30\u2d59 \u0641\u0627\u0633", "addr:postcode": "30000", "amenity": "pharmacy", "dispensing": "yes", "healthcare": "pharmacy", "name": "Pharmacie Zarouk \u0635\u064a\u062f\u0644\u064a\u0629 \u0632\u0631\u0648\u0642", "operator": "Ph PZK"}}, {"type": "node", "id": 9051360164, "lat": 34.0667619, "lon": -4.9635254, "tags": {"addr:city": "F\u00e8s \u2d3c\u2d30\u2d59 \u0641\u0627\u0633", "addr:postcode": "30000", "amenity": "pharmacy", "dispensing": "yes", "healthcare": "pharmacy", "name": "Pharmacie Hanane \u0635\u064a\u062f\u0644\u064a\u0629 \u062d\u0646\u0627\u0646", "operator": "Ph PHN"}}, {"type": "node", "id": 9051362482, "lat": 34.0673755, "lon": -4.9698138, "tags": {"addr:city": "F\u00e8s \u2d3c\u2d30\u2d59 \u0641\u0627\u0633", "addr:postcode": "30000", "amenity": "pharmacy", "dispensing": "yes", "healthcare": "pharmacy", "name": "Pharmacie Jnan Drader \u0635\u064a\u062f\u0644\u064a\u0629 \u062c\u0646\u0627\u0646 \u0627\u0644\u062f\u0631\u0627\u062f\u0631", "operator": "Ph PJD"}}, {"type": "node", "id": 9051373294, "lat": 34.0667762, "lon": -4.9669479, "tags": {"addr:city": "F\u00e8s \u2d3c\u2d30\u2d59 \u0641\u0627\u0633", "addr:postcode": "30000", "amenity": "pharmacy", "dispensing": "yes", "healthcare": "pharmacy", "name": "Pharmacie Sidi Boujida \u0635\u064a\u062f\u0644\u064a\u0629 \u0633\u064a\u062f\u064a \u0628\u0648\u062c\u064a\u062f\u0629", "operator": "Ph PSB"}}, {"type": "node", "id": 9051405111, "lat": 34.0656218, "lon": -4.9624823, "tags": {"addr:city": "F\u00e8s \u2d3c\u2d30\u2d59 \u0641\u0627\u0633", "addr:postcode": "30000", "amenity": "pharmacy", "dispensing": "yes", "healthcare": "pharmacy", "name": "Pharmacie Ibn Battouta \u0635\u064a\u062f\u0644\u064a\u0629 \u0628\u0646 \u0628\u0637\u0648\u0637\u0629", "operator": "Ph PBT"}}, {"type": "node", "id": 9051555679, "lat": 34.0637703, "lon": -4.9664302, "tags": {"addr:city": "F\u00e8s \u2d3c\u2d30\u2d59 \u0641\u0627\u0633", "addr:postcode": "30000", "amenity": "pharmacy", "dispensing": "yes", "healthcare": "pharmacy", "name": "Pharmacie Al Anouar \u0635\u064a\u062f\u0644\u064a\u0629 \u0627\u0644\u0623\u0646\u0648\u0627\u0631", "operator": "Ph PAN"}}, {"type": "node", "id": 9051567252, "lat": 34.0605946, "lon": -4.9688505, "tags": {"addr:city": "F\u00e8s", "addr:postcode": "30000", "amenity": "pharmacy", "dispensing": "yes", "healthcare": "pharmacy", "name": "Pharmacie Bab El Hamraa \u0635\u064a\u062f\u0644\u064a\u0629 \u0628\u0627\u0628 \u0627\u0644\u062d\u0645\u0631\u0627\u0621", "operator": "Ph PBH"}}, {"type": "node", "id": 9051585120, "lat": 34.0620445, "lon": -4.9716214, "tags": {"addr:city": "F\u00e8s", "addr:postcode": "30000", "amenity": "pharmacy", "dispensing": "yes", "healthcare": "pharmacy", "name": "Pharmacie Lagzira \u0635\u064a\u062f\u0644\u064a\u0629 \u0627\u0644\u062c\u0632\u064a\u0631\u0629", "operator": "Ph PGZ"}}, {"type": "node", "id": 9056633676, "lat": 34.0541841, "lon": -5.0183917, "tags": {"addr:city": "F\u00e8s", "addr:postcode": "30000", "amenity": "pharmacy", "dispensing": "yes", "healthcare": "pharmacy", "name": "Pharmacie Tadlaoui \u0635\u064a\u062f\u0644\u064a\u0629 \u0627\u0644\u062a\u062f\u0644\u0627\u0648\u064a", "operator": "Ph PTD"}}, {"type": "node", "id": 9060425474, "lat": 34.0225701, "lon": -4.9940671, "tags": {"addr:city": "F\u00e8s", "addr:postcode": "30000", "addr:street": "Rue Khalid Ibn Walid", "amenity": "pharmacy", "dispensing": "yes", "healthcare": "pharmacy", "name": "Pharmacie Bouramana \u0635\u064a\u062f\u0644\u064a\u0629 \u0628\u0648\u0631\u0645\u0627\u0646\u0629", "operator": "Ph PBM"}}, {"type": "node", "id": 9060655331, "lat": 34.0103805, "lon": -4.9858207, "tags": {"addr:city": "F\u00e8s", "addr:postcode": "30000", "amenity": "pharmacy", "dispensing": "yes", "healthcare": "pharmacy", "name": "Pharmacie de Paris \u0635\u064a\u062f\u0644\u064a\u0629 \u0628\u0627\u0631\u064a\u0633", "operator": "Ph PPR"}}, {"type": "node", "id": 9060727343, "lat": 33.9902509, "lon": -4.9908913, "tags": {"addr:city": "F\u00e8s \u2d3c\u2d30\u2d59 \u0641\u0627\u0633", "addr:postcode": "30000", "addr:street": "Rocade Sud", "amenity": "pharmacy", "dispensing": "yes", "healthcare": "pharmacy", "name": "Pharmacie Ibn Taymiya \u0635\u064a\u062f\u0644\u064a\u0629 \u0628\u0646 \u062a\u064a\u0645\u064a\u0629", "operator": "Ph PBT"}}, {"type": "node", "id": 9060749381, "lat": 33.9979001, "lon": -4.9846357, "tags": {"addr:city": "F\u00e8s", "addr:postcode": "30000", "amenity": "pharmacy", "dispensing": "yes", "healthcare": "pharmacy", "name": "Pharmacie Slaoui \u0635\u064a\u062f\u0644\u064a\u0629 \u0627\u0644\u0633\u0644\u0627\u0648\u064a", "operator": "Ph PSL"}}, {"type": "node", "id": 9062914094, "lat": 33.9871216, "lon": -4.986228, "tags": {"addr:city": "F\u00e8s \u2d3c\u2d30\u2d59 \u0641\u0627\u0633", "addr:postcode": "30000", "amenity": "pharmacy", "dispensing": "yes", "healthcare": "pharmacy", "name": "Pharmacie Meliani \u0635\u064a\u062f\u0644\u064a\u0629 \u0645\u0644\u064a\u0627\u0646\u064a", "operator": "Ph PML"}}, {"type": "node", "id": 9062945305, "lat": 33.9921687, "lon": -4.9878437, "tags": {"addr:city": "F\u00e8s \u2d3c\u2d30\u2d59 \u0641\u0627\u0633", "addr:postcode": "30000", "amenity": "pharmacy", "dispensing": "yes", "healthcare": "pharmacy", "name": "Pharmacie El Kadiri \u0635\u064a\u062f\u0644\u064a\u0629 \u0627\u0644\u0642\u0627\u062f\u0631\u064a", "operator": "Ph PKD"}}, {"type": "node", "id": 9062947497, "lat": 33.9945831, "lon": -4.970386, "tags": {"addr:city": "F\u00e8s", "addr:postcode": "30000", "amenity": "pharmacy", "dispensing": "yes", "healthcare": "pharmacy", "name": "Pharmacie Arrayhane \u0635\u064a\u062f\u0644\u064a\u0629 \u0627\u0644\u0631\u064a\u062d\u0627\u0646", "operator": "Ph PRH"}}, {"type": "node", "id": 9062954266, "lat": 33.9905847, "lon": -4.977379, "tags": {"addr:city": "F\u00e8s \u2d3c\u2d30\u2d59 \u0641\u0627\u0633", "addr:postcode": "30000", "amenity": "pharmacy", "dispensing": "yes", "healthcare": "pharmacy", "name": "Pharmacie Almaz \u0635\u064a\u062f\u0644\u064a\u0629 \u0623\u0644\u0645\u0627\u0632", "operator": "Ph PMZ"}}, {"type": "node", "id": 9062971624, "lat": 33.9984657, "lon": -4.9750457, "tags": {"addr:city": "F\u00e8s", "addr:postcode": "30000", "amenity": "pharmacy", "dispensing": "yes", "healthcare": "pharmacy", "name": "Pharmacie Facult\u00e9 Echariaa \u0635\u064a\u062f\u0644\u064a\u0629 \u0643\u0644\u064a\u0629 \u0627\u0644\u0634\u0631\u064a\u0639\u0629", "operator": "Ph PFCH"}}, {"type": "node", "id": 9063042255, "lat": 33.9943582, "lon": -4.9666565, "tags": {"addr:city": "F\u00e8s \u2d3c\u2d30\u2d59 \u0641\u0627\u0633", "addr:postcode": "30000", "amenity": "pharmacy", "dispensing": "yes", "healthcare": "pharmacy", "name": "Pharmacie Diamant de F\u00e8s \u0635\u064a\u062f\u0644\u064a\u0629 \u062c\u0648\u0647\u0631\u0629 \u0641\u0627\u0633", "operator": "Ph PDF"}}, {"type": "node", "id": 9063046705, "lat": 34.010757, "lon": -4.9558975, "tags": {"addr:city": "F\u00e8s \u2d3c\u2d30\u2d59 \u0641\u0627\u0633", "addr:postcode": "30000", "amenity": "pharmacy", "dispensing": "yes", "healthcare": "pharmacy", "name": "Pharmacie Route Sidi Hrazem \u0635\u064a\u062f\u0644\u064a\u0629 \u0637\u0631\u064a\u0642 \u0633\u064a\u062f\u064a \u062d\u0631\u0627\u0632\u0645", "operator": "Ph PSH"}}, {"type": "node", "id": 9063050284, "lat": 34.0075084, "lon": -4.9541278, "tags": {"addr:city": "F\u00e8s \u2d3c\u2d30\u2d59 \u0641\u0627\u0633", "addr:postcode": "30000", "amenity": "pharmacy", "dispensing": "yes", "healthcare": "pharmacy", "name": "Pharmacie Menzeh Sa\u00efss \u0635\u064a\u062f\u0644\u064a\u0629 \u0645\u0646\u0632\u0647 \u0633\u0627\u064a\u0633", "operator": "Ph PMS"}}, {"type": "node", "id": 9064150951, "lat": 34.0112352, "lon": -4.9739285, "tags": {"addr:city": "F\u00e8s \u2d3c\u2d30\u2d59 \u0641\u0627\u0633", "addr:postcode": "30000", "amenity": "pharmacy", "dispensing": "yes", "healthcare": "pharmacy", "name": "Pharmacie Guard \u0635\u064a\u062f\u0644\u064a\u0629 \u0643\u0627\u0631\u062f", "operator": "Ph PGD"}}, {"type": "node", "id": 9064151371, "lat": 34.0117766, "lon": -4.9722125, "tags": {"addr:city": "F\u00e8s \u2d3c\u2d30\u2d59 \u0641\u0627\u0633", "addr:postcode": "30000", "addr:street": "Rue Taiwan", "amenity": "pharmacy", "dispensing": "yes", "healthcare": "pharmacy", "name": "Pharmacie Ibno Tachefine \u0635\u064a\u062f\u0644\u064a\u0629 \u0627\u0628\u0646 \u062a\u0627\u0634\u0641\u064a\u0646", "operator": "Ph PBT"}}, {"type": "node", "id": 9064248041, "lat": 34.0098741, "lon": -4.9609846, "tags": {"addr:city": "F\u00e8s \u0641\u0627\u0633", "addr:postcode": "30000", "amenity": "pharmacy", "dispensing": "yes", "healthcare": "pharmacy", "name": "Pharmacie Essania \u0635\u064a\u062f\u0644\u064a\u0629 \u0627\u0644\u0633\u0627\u0646\u064a\u0629", "operator": "Ph PSN"}}, {"type": "node", "id": 9064274028, "lat": 34.0126429, "lon": -4.9607711, "tags": {"addr:city": "F\u00e8s \u2d3c\u2d30\u2d59 \u0641\u0627\u0633", "addr:postcode": "30000", "amenity": "pharmacy", "dispensing": "yes", "healthcare": "pharmacy", "name": "Pharmacie Bel Air \u0635\u064a\u062f\u0644\u064a\u0629 \u0628\u0644\u064a\u0631", "operator": "Ph PBA"}}, {"type": "node", "id": 9067076233, "lat": 34.0145582, "lon": -4.9616357, "tags": {"addr:city": "F\u00e8s \u2d3c\u2d30\u2d59 \u0641\u0627\u0633", "addr:postcode": "30000", "amenity": "pharmacy", "dispensing": "yes", "healthcare": "pharmacy", "name": "Pharmacie Ryad Saiss \u0635\u064a\u062f\u0644\u064a\u0629 \u0631\u064a\u0627\u0636 \u0633\u0627\u064a\u0633", "operator": "Ph PRS"}}, {"type": "node", "id": 9067097844, "lat": 34.0192846, "lon": -4.9605092, "tags": {"addr:city": "F\u00e8s \u2d3c\u2d30\u2d59 \u0641\u0627\u0633", "addr:postcode": "30000", "amenity": "pharmacy", "dispensing": "yes", "healthcare": "pharmacy", "name": "Pharmacie Hay Riyad \u0635\u064a\u062f\u0644\u064a\u0629 \u062d\u064a \u0627\u0644\u0631\u064a\u0627\u0636", "operator": "Ph PHR"}}, {"type": "node", "id": 9067122685, "lat": 34.0229583, "lon": -4.9649338, "tags": {"addr:city": "F\u00e8s \u2d3c\u2d30\u2d59 \u0641\u0627\u0633", "addr:postcode": "30000", "amenity": "pharmacy", "dispensing": "yes", "healthcare": "pharmacy", "name": "Pharmacie El Otmani \u0635\u064a\u062f\u0644\u064a\u0629 \u0627\u0644\u0639\u062b\u0645\u0627\u0646\u064a", "operator": "Ph POT"}}, {"type": "node", "id": 9067461578, "lat": 34.033483, "lon": -4.9859151, "tags": {"addr:city": "F\u00e8s", "addr:postcode": "30000", "addr:street": "Avenue Ibn Khatib \u0632\u0646\u0642\u0629 \u0634\u0641\u0634\u0627\u0648\u0646", "amenity": "pharmacy", "dispensing": "yes", "healthcare": "pharmacy", "name": "Pharmacie de l'Universit\u00e9 \u0635\u064a\u062f\u0644\u064a\u0629 \u0627\u0644\u062c\u0627\u0645\u0639\u0629", "operator": "Ph PUN"}}, {"type": "node", "id": 9074295920, "lat": 34.0139018, "lon": -5.0059757, "tags": {"addr:city": "F\u00e8s", "addr:postcode": "30000", "addr:street": "Boulevard Abu Houriya", "amenity": "pharmacy", "dispensing": "yes", "healthcare": "pharmacy", "name": "Pharmacie Al Alia \u0635\u064a\u062f\u0644\u064a\u0629 \u0627\u0644\u0639\u0627\u0644\u064a\u0629", "operator": "Ph PAL"}}, {"type": "node", "id": 9077198847, "lat": 34.002482, "lon": -4.9982576, "tags": {"addr:city": "F\u00e8s", "addr:postcode": "30000", "amenity": "pharmacy", "dispensing": "yes", "healthcare": "pharmacy", "name": "Pharmacie Masjid Arreda \u0635\u064a\u062f\u0644\u064a\u0629 \u0645\u0633\u062c\u062f \u0627\u0644\u0631\u0636\u0649", "operator": "Ph PMR"}}, {"type": "node", "id": 9077218586, "lat": 33.9967109, "lon": -4.9940193, "tags": {"addr:city": "F\u00e8s", "addr:postcode": "30000", "amenity": "pharmacy", "dispensing": "yes", "healthcare": "pharmacy", "name": "Pharmacie des 3 Sources \u0635\u064a\u062f\u0644\u064a\u0629 \u0627\u0644\u0645\u0646\u0627\u0628\u0639 \u0627\u0644\u062b\u0644\u0627\u062b", "operator": "Ph P3S"}}, {"type": "node", "id": 9077240390, "lat": 33.9952552, "lon": -5.003872, "tags": {"addr:city": "F\u00e8s", "addr:postcode": "30000", "amenity": "pharmacy", "dispensing": "yes", "healthcare": "pharmacy", "name": "Pharmacie Jamai \u0635\u064a\u062f\u0644\u064a\u0629 \u0627\u0644\u062c\u0627\u0645\u0639\u064a", "operator": "Ph PJM"}}, {"type": "node", "id": 9077291355, "lat": 34.0123275, "lon": -5.0141604, "tags": {"addr:city": "F\u00e8s", "addr:postcode": "30000", "amenity": "pharmacy", "dispensing": "yes", "healthcare": "pharmacy", "name": "Pharmacie Rachidia 3 \u0635\u064a\u062f\u0644\u064a\u0629 \u0627\u0644\u0631\u0627\u0634\u062f\u064a\u0629", "operator": "Ph PRD"}}, {"type": "node", "id": 9077313479, "lat": 33.9918236, "lon": -5.0052984, "tags": {"addr:city": "F\u00e8s \u2d3c\u2d30\u2d59 \u0641\u0627\u0633", "addr:postcode": "30000", "amenity": "pharmacy", "dispensing": "yes", "healthcare": "pharmacy", "name": "Pharmacie Al Alaoui \u0635\u064a\u062f\u0644\u064a\u0629 \u0627\u0644\u0639\u0644\u0648\u064a", "operator": "Ph PAL"}}, {"type": "node", "id": 9077395032, "lat": 33.9947174, "lon": -5.0112751, "tags": {"addr:city": "F\u00e8s", "addr:postcode": "30000", "amenity": "pharmacy", "dispensing": "yes", "healthcare": "pharmacy", "name": "Pharmacie Riad El Yassamine \u0635\u064a\u062f\u0644\u064a\u0629 \u0631\u064a\u0627\u0636 \u0627\u0644\u064a\u0627\u0633\u0645\u064a\u0646", "operator": "Ph PRY"}}, {"type": "node", "id": 9080092417, "lat": 34.0258203, "lon": -5.0095409, "tags": {"addr:city": "\u0641\u0627\u0633", "addr:city:ar": "\u0641\u0627\u0633", "addr:city:es": "Fez", "addr:postcode": "30000", "amenity": "pharmacy", "dispensing": "yes", "healthcare": "pharmacy", "name": "Pharmacie Steven \u0635\u064a\u062f\u0644\u064a\u0629 \u0633\u062a\u064a\u0641\u0646", "name:ar": "\u0635\u064a\u062f\u0644\u064a\u0629 \u0633\u062a\u064a\u0641\u0646", "name:es": "Farmacia Steven", "name:fr": "Pharmacie Steven", "operator": "Ph PSV"}}, {"type": "node", "id": 9080252241, "lat": 34.0077585, "lon": -5.0138875, "tags": {"addr:city": "F\u00e8s", "addr:postcode": "30000", "amenity": "pharmacy", "dispensing": "yes", "healthcare": "pharmacy", "name": "Pharmacie Technologie \u0635\u064a\u062f\u0644\u064a\u0629 \u0627\u0644\u062a\u0643\u0646\u0648\u0644\u0648\u062c\u064a\u0627", "operator": "Ph PTCH"}}, {"type": "node", "id": 9080367514, "lat": 34.0039944, "lon": -5.0171304, "tags": {"addr:city": "F\u00e8s", "addr:postcode": "30000", "amenity": "pharmacy", "dispensing": "yes", "healthcare": "pharmacy", "name": "Pharmacie Socrate \u0635\u064a\u062f\u0644\u064a\u0629 \u0633\u0642\u0631\u0627\u0637", "operator": "Ph PSC"}}, {"type": "node", "id": 9080513814, "lat": 34.001512, "lon": -5.0153503, "tags": {"addr:city": "F\u00e8s", "addr:postcode": "30000", "amenity": "pharmacy", "dispensing": "yes", "healthcare": "pharmacy", "name": "Pharmacie Zahraoui \u0635\u064a\u062f\u0644\u064a\u0629 \u0627\u0644\u0632\u0647\u0631\u0627\u0648\u064a", "operator": "Ph PZR"}}, {"type": "node", "id": 9082210309, "lat": 34.0032877, "lon": -5.0111208, "tags": {"addr:city": "F\u00e8s", "addr:postcode": "30000", "amenity": "pharmacy", "dispensing": "yes", "healthcare": "pharmacy", "name": "Pharmacie Al Madina \u0635\u064a\u062f\u0644\u064a\u0629 \u0627\u0644\u0645\u062f\u064a\u0646\u0629", "operator": "Ph PMD"}}, {"type": "node", "id": 9082226035, "lat": 33.99852, "lon": -5.0160907, "tags": {"addr:city": "F\u00e8s", "addr:postcode": "30000", "amenity": "pharmacy", "dispensing": "yes", "healthcare": "pharmacy", "name": "Pharmacie Borj Ennakhil \u0635\u064a\u062f\u0644\u064a\u0629 \u0628\u0631\u062c \u0627\u0644\u0646\u062e\u064a\u0644", "operator": "Ph PBN"}}, {"type": "node", "id": 9082234019, "lat": 33.9948475, "lon": -5.0175189, "tags": {"addr:city": "F\u00e8s", "addr:postcode": "30000", "amenity": "pharmacy", "dispensing": "yes", "healthcare": "pharmacy", "name": "Pharmacie Zineb \u0635\u064a\u062f\u0644\u064a\u0629 \u0632\u064a\u0646\u0628", "operator": "Ph PZN"}}, {"type": "node", "id": 9082250910, "lat": 33.9877828, "lon": -5.0407775, "tags": {"addr:city": "F\u00e8s \u2d3c\u2d30\u2d59 \u0641\u0627\u0633", "addr:postcode": "30000", "amenity": "pharmacy", "dispensing": "yes", "healthcare": "pharmacy", "name": "Pharmacie Ahel F\u00e8s \u0635\u064a\u062f\u0644\u064a\u0629 \u0623\u0647\u0644 \u0641\u0627\u0633", "operator": "Ph PAF"}}, {"type": "node", "id": 9082252419, "lat": 33.9925945, "lon": -5.0205935, "tags": {"addr:city": "F\u00e8s \u2d3c\u2d30\u2d59 \u0641\u0627\u0633", "addr:postcode": "30000", "amenity": "pharmacy", "dispensing": "yes", "healthcare": "pharmacy", "name": "Pharmacie California \u0635\u064a\u062f\u0644\u064a\u0629 \u0643\u0627\u0644\u064a\u0641\u0648\u0631\u0646\u064a\u0627", "operator": "Ph PCF"}}, {"type": "node", "id": 9082305309, "lat": 33.9938707, "lon": -5.0313473, "tags": {"addr:city": "F\u00e8s \u2d3c\u2d30\u2d59 \u0641\u0627\u0633", "addr:postcode": "30000", "amenity": "pharmacy", "dispensing": "yes", "healthcare": "pharmacy", "name": "Pharmacie El Aziza \u0635\u064a\u062f\u0644\u064a\u0629 \u0627\u0644\u0639\u0632\u064a\u0632\u0629", "operator": "Ph PAZ"}}, {"type": "node", "id": 9088108976, "lat": 34.0360636, "lon": -5.0051466, "tags": {"addr:city": "F\u00e8s", "addr:postcode": "30000", "amenity": "pharmacy", "dispensing": "yes", "healthcare": "pharmacy", "name": "Pharmacie Rihab \u0635\u064a\u062f\u0644\u064a\u0629 \u0631\u062d\u0627\u0628", "operator": "Ph PRB"}}, {"type": "node", "id": 9088262543, "lat": 34.0233152, "lon": -5.0237243, "tags": {"addr:city": "F\u00e8s", "addr:postcode": "30000", "amenity": "pharmacy", "dispensing": "yes", "healthcare": "pharmacy", "name": "Pharmacie Bennouna \u0635\u064a\u062f\u0644\u064a\u0629 \u0628\u0646\u0648\u0646\u0629", "operator": "Ph PBN"}}, {"type": "node", "id": 9088494169, "lat": 34.0390484, "lon": -5.0183225, "tags": {"addr:city": "F\u00e8s", "addr:postcode": "30000", "amenity": "pharmacy", "dispensing": "yes", "healthcare": "pharmacy", "name": "Pharmacie Aida \u0635\u064a\u062f\u0644\u064a\u0629 \u0639\u0627\u064a\u062f\u0629", "operator": "Ph PAD"}}, {"type": "node", "id": 9091504397, "lat": 34.0161109, "lon": -5.0713247, "tags": {"addr:city": "F\u00e8s", "addr:postcode": "30000", "amenity": "pharmacy", "dispensing": "yes", "healthcare": "pharmacy", "name": "Pharmacie Ghrissi \u0635\u064a\u062f\u0644\u064a\u0629 \u063a\u0631\u064a\u0633\u064a", "operator": "Ph PGH"}}, {"type": "node", "id": 9091558885, "lat": 34.0342938, "lon": -5.0613538, "tags": {"addr:city": "F\u00e8s \u2d3c\u2d30\u2d59 \u0641\u0627\u0633", "addr:postcode": "30000", "amenity": "pharmacy", "dispensing": "yes", "healthcare": "pharmacy", "name": "Pharmacie Al Jawaher \u0635\u064a\u062f\u0644\u064a\u0629 \u0627\u0644\u062c\u0648\u0627\u0647\u0631", "operator": "Ph PJH"}}, {"type": "node", "id": 9091566947, "lat": 34.0128948, "lon": -5.069146, "tags": {"addr:city": "F\u00e8s \u2d3c\u2d30\u2d59 \u0641\u0627\u0633", "addr:postcode": "30000", "amenity": "pharmacy", "dispensing": "yes", "healthcare": "pharmacy", "name": "Pharmacie Route Ras Lma \u0635\u064a\u062f\u0644\u064a\u0629 \u0637\u0631\u064a\u0642 \u0631\u0627\u0633 \u0627\u0644\u0645\u0627", "operator": "Ph PRR"}}, {"type": "node", "id": 9091590534, "lat": 34.021658, "lon": -5.0579744, "tags": {"addr:city": "F\u00e8s \u2d3c\u2d30\u2d59 \u0641\u0627\u0633", "addr:postcode": "30000", "amenity": "pharmacy", "dispensing": "yes", "healthcare": "pharmacy", "name": "Pharmacie Zahir \u0635\u064a\u062f\u0644\u064a\u0629 \u0632\u0627\u0647\u0631", "operator": "Ph PZH"}}, {"type": "node", "id": 9091645325, "lat": 34.0111367, "lon": -5.0650531, "tags": {"addr:city": "F\u00e8s", "addr:postcode": "30000", "amenity": "pharmacy", "dispensing": "yes", "healthcare": "pharmacy", "name": "Pharmacie Aicha \u0635\u064a\u062f\u0644\u064a\u0629 \u0639\u0627\u0626\u0634\u0629", "operator": "Ph PAC"}}, {"type": "node", "id": 9091663749, "lat": 34.0120727, "lon": -5.0617496, "tags": {"addr:city": "F\u00e8s", "addr:postcode": "30000", "amenity": "pharmacy", "dispensing": "yes", "healthcare": "pharmacy", "name": "Pharmacie Ghita \u0635\u064a\u062f\u0644\u064a\u0629 \u063a\u064a\u062b\u0629", "operator": "Ph PGH"}}, {"type": "node", "id": 9091665186, "lat": 34.0146727, "lon": -5.0618088, "tags": {"addr:city": "F\u00e8s \u2d3c\u2d30\u2d59 \u0641\u0627\u0633", "addr:postcode": "30000", "amenity": "pharmacy", "dispensing": "yes", "healthcare": "pharmacy", "name": "Pharmacie Khawarizmi \u0635\u064a\u062f\u0644\u064a\u0629 \u0627\u0644\u062e\u0648\u0627\u0631\u0632\u0645\u064a", "operator": "Ph PKH"}}, {"type": "node", "id": 9091778819, "lat": 33.9918935, "lon": -5.0656429, "tags": {"addr:city": "F\u00e8s \u2d3c\u2d30\u2d59 \u0641\u0627\u0633", "addr:postcode": "30000", "amenity": "pharmacy", "dispensing": "yes", "healthcare": "pharmacy", "name": "Pharmacie Assafae \u0635\u064a\u062f\u0644\u064a\u0629 \u0627\u0644\u0635\u0641\u0627\u0621", "operator": "Ph PSF"}}, {"type": "node", "id": 9091796679, "lat": 33.9932207, "lon": -5.0520318, "tags": {"addr:city": "F\u00e8s \u2d3c\u2d30\u2d59 \u0641\u0627\u0633", "addr:postcode": "30000", "amenity": "pharmacy", "dispensing": "yes", "healthcare": "pharmacy", "name": "Pharmacie Dalia \u0635\u064a\u062f\u0644\u064a\u0629 \u0627\u0644\u062f\u0627\u0644\u064a\u0629", "operator": "Ph PDL"}}, {"type": "node", "id": 9094719849, "lat": 34.0168098, "lon": -5.0494146, "tags": {"addr:city": "F\u00e8s", "addr:postcode": "30000", "amenity": "pharmacy", "dispensing": "yes", "healthcare": "pharmacy", "name": "Pharmacie Wisslane \u0635\u064a\u062f\u0644\u064a\u0629 \u0648\u064a\u0633\u0644\u0627\u0646", "operator": "Ph PWS"}}, {"type": "node", "id": 9094725558, "lat": 34.0361253, "lon": -5.0345556, "tags": {"addr:city": "F\u00e8s", "addr:postcode": "30000", "amenity": "pharmacy", "dispensing": "yes", "healthcare": "pharmacy", "name": "Pharmacie des Champs \u0635\u064a\u062f\u0644\u064a\u0629 \u0627\u0644\u062d\u0642\u0648\u0644", "operator": "Ph PCH"}}, {"type": "node", "id": 9094730495, "lat": 34.0414705, "lon": -5.048577, "tags": {"addr:city": "F\u00e8s", "addr:postcode": "30000", "amenity": "pharmacy", "dispensing": "yes", "healthcare": "pharmacy", "name": "Pharmacie Moussaoui \u0635\u064a\u062f\u0644\u064a\u0629 \u0645\u0648\u0633\u0627\u0648\u064a", "operator": "Ph PMS"}}, {"type": "node", "id": 9094860849, "lat": 34.0272369, "lon": -5.0520034, "tags": {"addr:city": "F\u00e8s", "addr:postcode": "30000", "amenity": "pharmacy", "dispensing": "yes", "healthcare": "pharmacy", "name": "Pharmacie Al Omnia \u0635\u064a\u062f\u0644\u064a\u0629 \u0627\u0644\u0623\u0645\u0646\u064a\u0629", "operator": "Ph POM"}}, {"type": "node", "id": 9094866098, "lat": 34.0226454, "lon": -5.0489759, "tags": {"addr:city": "F\u00e8s", "addr:postcode": "30000", "amenity": "pharmacy", "dispensing": "yes", "healthcare": "pharmacy", "name": "Pharmacie Paraconfiance \u0635\u064a\u062f\u0644\u064a\u0629 \u0628\u0627\u0631\u0627\u0643\u0648\u0646\u0641\u064a\u0648\u0646\u0633", "operator": "Ph PCF"}}, {"type": "node", "id": 9098553534, "lat": 34.0144488, "lon": -5.0362829, "tags": {"addr:city": "F\u00e8s", "addr:postcode": "30000", "amenity": "pharmacy", "dispensing": "yes", "healthcare": "pharmacy", "name": "Pharmacie Nellia \u0635\u064a\u062f\u0644\u064a\u0629 \u0646\u064a\u0644\u064a\u0627", "operator": "Ph PNL"}}, {"type": "node", "id": 9098697829, "lat": 34.0523606, "lon": -4.9924017, "tags": {"addr:city": "F\u00e8s \u2d3c\u2d30\u2d59 \u0641\u0627\u0633", "addr:postcode": "30000", "amenity": "pharmacy", "dispensing": "yes", "healthcare": "pharmacy", "name": "Pharmacie Belmhani \u0635\u064a\u062f\u0644\u064a\u0629 \u0628\u0644\u0645\u0647\u0627\u0646\u064a", "operator": "Ph PBH"}}, {"type": "node", "id": 9105637082, "lat": 34.0117048, "lon": -5.0070681, "tags": {"addr:city": "F\u00e8s", "addr:postcode": "30000", "amenity": "pharmacy", "dispensing": "yes", "healthcare": "pharmacy", "name": "Pharmacie Tajmouati \u0635\u064a\u062f\u0644\u064a\u0629 \u062a\u062c\u0645\u0648\u0639\u062a\u064a", "operator": "Ph PTJ"}}, {"type": "node", "id": 9105659218, "lat": 34.0686958, "lon": -4.9857424, "tags": {"addr:city": "F\u00e9s", "addr:postcode": "30000", "amenity": "pharmacy", "dispensing": "yes", "healthcare": "pharmacy", "name": "Pharmacie El Borj \u0635\u064a\u062f\u0644\u064a\u0629 \u0627\u0644\u0628\u0631\u062c", "operator": "Ph PBJ"}}, {"type": "node", "id": 9105667807, "lat": 34.0696287, "lon": -4.9864241, "tags": {"addr:city": "F\u00e8s", "addr:postcode": "30000", "amenity": "pharmacy", "dispensing": "yes", "healthcare": "pharmacy", "name": "Pharmacie Hay Benslimane \u0635\u064a\u062f\u0644\u064a\u0629 \u062d\u064a \u0628\u0646\u0633\u0644\u064a\u0645\u0627\u0646", "operator": "Ph PHB"}}, {"type": "node", "id": 9105714468, "lat": 34.06438, "lon": -5.0110997, "tags": {"addr:city": "F\u00e8s", "addr:postcode": "30000", "amenity": "pharmacy", "dispensing": "yes", "healthcare": "pharmacy", "name": "Pharmacie de F\u00e8s \u0635\u064a\u062f\u0644\u064a\u0629 \u0641\u0627\u0633", "operator": "Ph PFS"}}, {"type": "node", "id": 9107961171, "lat": 34.0572905, "lon": -5.0314442, "tags": {"addr:city": "F\u00e8s \u0641\u0627\u0633", "addr:housenumber": "106", "addr:postcode": "30000", "addr:street": "Avenue Youssef Ben Tachefine", "amenity": "pharmacy", "dispensing": "yes", "healthcare": "pharmacy", "name": "Pharmacie Ouandou \u0635\u064a\u062f\u0644\u064a\u0629 \u0648\u0627\u0646\u062f\u0648", "operator": "Ph POD"}}, {"type": "node", "id": 9107998723, "lat": 34.0585728, "lon": -4.9791927, "tags": {"addr:city": "F\u00e8s", "addr:postcode": "30000", "amenity": "pharmacy", "dispensing": "yes", "healthcare": "pharmacy", "name": "Pharmacie Ziat \u0635\u064a\u062f\u0644\u064a\u0629 \u0627\u0644\u0632\u064a\u0627\u062a", "operator": "Ph PZT"}}, {"type": "node", "id": 9651845874, "lat": 34.0626035, "lon": -4.9795049, "tags": {"amenity": "pharmacy", "healthcare": "pharmacy", "name": "Pharmacie Nationale", "wheelchair": "no"}}, {"type": "node", "id": 11309227132, "lat": 34.0529333, "lon": -4.9921724, "tags": {"amenity": "pharmacy", "healthcare": "pharmacy", "name": "Pharmacie Nour"}}]}