{"version": 0.6, "generator": "Overpass API 0.7.62.1 084b4234", "osm3s": {"timestamp_osm_base": "2024-05-29T15:35:23Z", "copyright": "The data included in this document is from www.openstreetmap.org. The data is made available under ODbL."}, "elements": [{"type": "node", "id": 2328748923, "lat": 34.0402143, "lon": -5.0055872, "tags": {"amenity": "bank", "atm": "yes", "name": "Attijariwafa bank \u0627\u0644\u062a\u062c\u0627\u0631\u064a \u0648\u0641\u0627 \u0628\u0646\u0643", "name:ar": "\u0627\u0644\u062a\u062c\u0627\u0631\u064a \u0648\u0641\u0627 \u0628\u0646\u0643", "name:fr": "Attijariwafa bank"}}, {"type": "node", "id": 2952665652, "lat": 34.0424079, "lon": -5.0012741, "tags": {"addr:postcode": "30000", "addr:street": "Av. Lala Meryem", "alt_name": "\u0627\u0644\u0634\u0631\u0643\u0629 \u0627\u0644\u0639\u0627\u0645\u0629", "alt_name:ar": "\u0627\u0644\u0634\u0631\u0643\u0629 \u0627\u0644\u0639\u0627\u0645\u0629", "amenity": "bank", "atm": "yes", "brand": "\u0633\u0648\u0633\u064a\u062a\u064a\u0647 \u062c\u0646\u0631\u0627\u0644", "brand:es": "Soci\u00e9t\u00e9 G\u00e9n\u00e9rale", "brand:wikidata": "Q270363", "brand:wikipedia": "ar:\u0633\u0648\u0633\u064a\u062a\u064a\u0647 \u062c\u0646\u0631\u0627\u0644", "brand:wikipedia:es": "Soci\u00e9t\u00e9 G\u00e9n\u00e9rale", "name": "Soci\u00e9t\u00e9 G\u00e9n\u00e9rale \u0633\u0648\u0633\u064a\u062a\u064a\u0647 \u062c\u0646\u0631\u0627\u0644", "name:ar": "\u0633\u0648\u0633\u064a\u062a\u064a\u0647 \u062c\u0646\u0631\u0627\u0644", "name:de": "Soci\u00e9t\u00e9 G\u00e9n\u00e9rale", "name:en": "Soci\u00e9t\u00e9 G\u00e9n\u00e9rale", "name:es": "Soci\u00e9t\u00e9 G\u00e9n\u00e9rale", "name:fr": "Soci\u00e9t\u00e9 G\u00e9n\u00e9rale", "operator": "\u0633\u0648\u0633\u064a\u062a\u064a\u0647 \u062c\u0646\u0631\u0627\u0644", "operator:es": "Soci\u00e9t\u00e9 G\u00e9n\u00e9rale", "operator:wikidata": "Q270363", "operator:wikipedia": "ar:\u0633\u0648\u0633\u064a\u062a\u064a\u0647 \u062c\u0646\u0631\u0627\u0644", "operator:wikipedia:es": "Soci\u00e9t\u00e9 G\u00e9n\u00e9rale"}}, {"type": "node", "id": 2952665653, "lat": 34.041579, "lon": -5.0002629, "tags": {"addr:housename": "Banque du Maroc", "addr:postcode": "30000", "addr:street": "Av. lala Meryem", "amenity": "bank", "atm": "no", "name": "Banque du Maroc"}}, {"type": "node", "id": 2952729211, "lat": 34.037866, "lon": -4.9981949, "tags": {"addr:housename": "BMCE", "addr:postcode": "30000", "addr:street": "Bd Mohammed V", "amenity": "bank", "atm": "yes", "name": "BMCE"}}, {"type": "node", "id": 2970264995, "lat": 34.0154152, "lon": -4.9744031, "tags": {"amenity": "bank", "atm": "yes", "name": "Banque populaire"}}, {"type": "node", "id": 3217045875, "lat": 34.0661456, "lon": -4.9743761, "tags": {"amenity": "bank"}}, {"type": "node", "id": 3296537973, "lat": 34.0289531, "lon": -4.9946565, "tags": {"addr:street": "Rue Taounat", "alt_name:ar": "\u0627\u0644\u0628\u0646\u0643 \u0627\u0644\u0634\u0639\u0628\u064a \u0627\u0644\u0645\u0631\u0643\u0632\u064a", "amenity": "bank", "brand": "\u0627\u0644\u0628\u0646\u0643 \u0627\u0644\u0634\u0639\u0628\u064a", "brand:ar": "\u0627\u0644\u0628\u0646\u0643 \u0627\u0644\u0634\u0639\u0628\u064a", "brand:website": "https://www.groupebcp.com/AR", "brand:wikidata": "Q2883441", "brand:wikipedia": "ar:\u0627\u0644\u0628\u0646\u0643 \u0627\u0644\u0634\u0639\u0628\u064a (\u0627\u0644\u0645\u063a\u0631\u0628)", "brand:wikipedia:ar": "\u0627\u0644\u0628\u0646\u0643 \u0627\u0644\u0634\u0639\u0628\u064a (\u0627\u0644\u0645\u063a\u0631\u0628)", "name": "Banque Populaire \u0627\u0644\u0628\u0646\u0643 \u0627\u0644\u0634\u0639\u0628\u064a", "name:ar": "\u0627\u0644\u0628\u0646\u0643 \u0627\u0644\u0634\u0639\u0628\u064a", "name:en": "Banque Populaire", "name:fr": "Banque Populaire", "operator": "\u0627\u0644\u0628\u0646\u0643 \u0627\u0644\u0634\u0639\u0628\u064a", "operator:ar": "\u0627\u0644\u0628\u0646\u0643 \u0627\u0644\u0634\u0639\u0628\u064a", "operator:website": "https://www.groupebcp.com/AR", "operator:wikidata": "Q2883441", "operator:wikipedia": "ar:\u0627\u0644\u0628\u0646\u0643 \u0627\u0644\u0634\u0639\u0628\u064a (\u0627\u0644\u0645\u063a\u0631\u0628)", "operator:wikipedia:ar": "\u0627\u0644\u0628\u0646\u0643 \u0627\u0644\u0634\u0639\u0628\u064a (\u0627\u0644\u0645\u063a\u0631\u0628)"}}, {"type": "node", "id": 3373184449, "lat": 34.0319898, "lon": -4.9941306, "tags": {"addr:city": "\u0641\u0627\u0633", "amenity": "bank", "name": "BMCE \u0627\u0644\u0628\u0646\u0643 \u0627\u0644\u0645\u063a\u0631\u0628\u064a \u0644\u0644\u062a\u062c\u0627\u0631\u0629 \u0627\u0644\u062e\u0627\u0631\u062c\u064a\u0629", "name:ar": "\u0627\u0644\u0628\u0646\u0643 \u0627\u0644\u0645\u063a\u0631\u0628\u064a \u0644\u0644\u062a\u062c\u0627\u0631\u0629 \u0627\u0644\u062e\u0627\u0631\u062c\u064a\u0629", "name:fr": "BMCE", "operator": "\u0627\u0644\u0628\u0646\u0643 \u0627\u0644\u0645\u063a\u0631\u0628\u064a \u0644\u0644\u062a\u062c\u0627\u0631\u0629 \u0627\u0644\u062e\u0627\u0631\u062c\u064a\u0629"}}, {"type": "node", "id": 3373199291, "lat": 34.0082646, "lon": -4.9785235, "tags": {"amenity": "bank", "atm": "yes", "name": "CIH"}}, {"type": "node", "id": 3375188959, "lat": 34.0059896, "lon": -4.9776391, "tags": {"amenity": "bank", "name": "BMCE"}}, {"type": "node", "id": 4483691698, "lat": 34.0425505, "lon": -4.9991642, "tags": {"addr:city": "F\u00e8s", "addr:housenumber": "2", "addr:street": "Avenue Hassan II", "amenity": "bank", "atm": "yes", "name": "Attirajiwafabank"}}, {"type": "node", "id": 4552228224, "lat": 34.0030621, "lon": -5.0106409, "tags": {"amenity": "bank", "name": "Banque marocaine du commerce ext\u00e9rieur \u0627\u0644\u0628\u0646\u0643 \u0627\u0644\u0645\u063a\u0631\u0628\u064a \u0644\u0644\u062a\u062c\u0627\u0631\u0629 \u0627\u0644\u062e\u0627\u0631\u062c\u064a\u0629", "name:ar": "\u0627\u0644\u0628\u0646\u0643 \u0627\u0644\u0645\u063a\u0631\u0628\u064a \u0644\u0644\u062a\u062c\u0627\u0631\u0629 \u0627\u0644\u062e\u0627\u0631\u062c\u064a\u0629", "name:fr": "Banque marocaine du commerce ext\u00e9rieur", "short_name:fr": "BMCE"}}, {"type": "node", "id": 4713135608, "lat": 34.0402752, "lon": -5.0009306, "tags": {"addr:street": "Avenue Hassan II", "amenity": "bank", "atm": "yes", "name": "Cr\u00e9dit du Maroc"}}, {"type": "node", "id": 4713138192, "lat": 34.0434709, "lon": -4.998363, "tags": {"addr:street": "Avenue Hassan II", "amenity": "bank", "atm": "yes", "drive_through": "no", "name": "Banque populaire \u0627\u0644\u0628\u0646\u0643 \u0627\u0644\u0634\u0639\u0628\u064a", "name:ar": "\u0627\u0644\u0628\u0646\u0643 \u0627\u0644\u0634\u0639\u0628\u064a", "name:fr": "Banque populaire", "opening_hours": "08:30-16:30", "operator": "Banque populaire"}}, {"type": "node", "id": 4720000992, "lat": 34.0288805, "lon": -4.9987034, "tags": {"amenity": "bank", "branch": "centre d affaires quaraouyine", "name": "Cr\u00e9dit du maroc"}}, {"type": "node", "id": 4720192895, "lat": 34.0335795, "lon": -5.0052126, "tags": {"addr:housenumber": "5", "addr:street": "Avenue Allal Ben Abdallah", "amenity": "bank", "name": "BMCE"}}, {"type": "node", "id": 4720198690, "lat": 34.0431862, "lon": -4.997587, "tags": {"addr:street": "Avenue Hassan II", "amenity": "bank", "name": "RMA Wtanya"}}, {"type": "node", "id": 4721911490, "lat": 34.0322543, "lon": -5.0063245, "tags": {"addr:city": "F\u00e8s", "addr:city:ar": "\u0641\u0627\u0633", "addr:city:es": "Fez", "addr:city:fr": "F\u00e8s", "addr:district": "F\u00e8s", "addr:district:ar": "\u0641\u0627\u0633", "addr:district:es": "Fez", "addr:district:fr": "F\u00e8s", "addr:housenumber": "21", "addr:street": "Avenue Allal Ben Abdallah", "amenity": "bank", "name": "BANQUE POPULAIRE"}}, {"type": "node", "id": 4721911491, "lat": 34.0321651, "lon": -5.0063881, "tags": {"addr:city": "F\u00e8s", "addr:city:ar": "\u0641\u0627\u0633", "addr:city:es": "Fez", "addr:city:fr": "F\u00e8s", "addr:district": "F\u00e8s", "addr:district:ar": "\u0641\u0627\u0633", "addr:district:es": "Fez", "addr:district:fr": "F\u00e8s", "addr:housenumber": "21", "addr:street": "Avenue Allal Ben Abdallah", "amenity": "bank", "name": "ATTIRAIWAFABANK"}}, {"type": "node", "id": 4721916289, "lat": 34.0329239, "lon": -5.0056823, "tags": {"addr:city": "F\u00e8s", "addr:city:ar": "\u0641\u0627\u0633", "addr:city:es": "Fez", "addr:city:fr": "F\u00e8s", "addr:district": "F\u00e8s", "addr:district:ar": "\u0641\u0627\u0633", "addr:district:es": "Fez", "addr:district:fr": "F\u00e8s", "addr:housenumber": "11", "addr:street": "Avenue Allal Ben Abdallah", "amenity": "bank", "brand": "\u0627\u0644\u0628\u0646\u0643 \u0627\u0644\u0645\u063a\u0631\u0628\u064a \u0644\u0644\u062a\u062c\u0627\u0631\u0629 \u0648\u0627\u0644\u0635\u0646\u0627\u0639\u0629", "brand:ar": "\u0627\u0644\u0628\u0646\u0643 \u0627\u0644\u0645\u063a\u0631\u0628\u064a \u0644\u0644\u062a\u062c\u0627\u0631\u0629 \u0648\u0627\u0644\u0635\u0646\u0627\u0639\u0629", "brand:wikidata": "Q2883409", "brand:wikipedia": "ar:\u0627\u0644\u0628\u0646\u0643 \u0627\u0644\u0645\u063a\u0631\u0628\u064a \u0644\u0644\u062a\u062c\u0627\u0631\u0629 \u0648\u0627\u0644\u0635\u0646\u0627\u0639\u0629", "brand:wikipedia:ar": "\u0627\u0644\u0628\u0646\u0643 \u0627\u0644\u0645\u063a\u0631\u0628\u064a \u0644\u0644\u062a\u062c\u0627\u0631\u0629 \u0648\u0627\u0644\u0635\u0646\u0627\u0639\u0629", "name": "BMCI \u0627\u0644\u0628\u0646\u0643 \u0627\u0644\u0645\u063a\u0631\u0628\u064a \u0644\u0644\u062a\u062c\u0627\u0631\u0629 \u0648\u0627\u0644\u0635\u0646\u0627\u0639\u0629", "name:ar": "\u0627\u0644\u0628\u0646\u0643 \u0627\u0644\u0645\u063a\u0631\u0628\u064a \u0644\u0644\u062a\u062c\u0627\u0631\u0629 \u0648\u0627\u0644\u0635\u0646\u0627\u0639\u0629", "name:fr": "BMCI", "operator": "\u0627\u0644\u0628\u0646\u0643 \u0627\u0644\u0645\u063a\u0631\u0628\u064a \u0644\u0644\u062a\u062c\u0627\u0631\u0629 \u0648\u0627\u0644\u0635\u0646\u0627\u0639\u0629", "operator:ar": "\u0627\u0644\u0628\u0646\u0643 \u0627\u0644\u0645\u063a\u0631\u0628\u064a \u0644\u0644\u062a\u062c\u0627\u0631\u0629 \u0648\u0627\u0644\u0635\u0646\u0627\u0639\u0629", "operator:wikidata": "Q499707", "operator:wikipedia": "ar:\u0627\u0644\u0628\u0646\u0643 \u0627\u0644\u0645\u063a\u0631\u0628\u064a \u0644\u0644\u062a\u062c\u0627\u0631\u0629 \u0648\u0627\u0644\u0635\u0646\u0627\u0639\u0629", "operator:wikipedia:ar": "\u0627\u0644\u0628\u0646\u0643 \u0627\u0644\u0645\u063a\u0631\u0628\u064a \u0644\u0644\u062a\u062c\u0627\u0631\u0629 \u0648\u0627\u0644\u0635\u0646\u0627\u0639\u0629"}}, {"type": "node", "id": 4723770697, "lat": 34.0317359, "lon": -5.0083661, "tags": {"addr:city": "F\u00e8s", "addr:city:ar": "\u0641\u0627\u0633", "addr:city:es": "Fez", "addr:city:fr": "F\u00e8s", "addr:district": "F\u00e8s", "addr:district:ar": "\u0641\u0627\u0633", "addr:district:es": "Fez", "addr:district:fr": "F\u00e8s", "addr:street": "Avenue Allal Ben Abdallah", "amenity": "bank", "name": "Cr\u00e9dit du Maroc"}}, {"type": "node", "id": 4723784489, "lat": 34.0315034, "lon": -5.0073718, "tags": {"addr:housenumber": "17", "addr:street": "Avenue Allal Ben Abdallah", "amenity": "bank"}}, {"type": "node", "id": 4723840789, "lat": 34.0432554, "lon": -4.9974954, "tags": {"addr:street": "laghdar ghilan", "amenity": "bank", "name": "Wafa Salaf"}}, {"type": "node", "id": 4733699327, "lat": 34.0450445, "lon": -4.996333, "tags": {"amenity": "bank"}}, {"type": "node", "id": 4733722024, "lat": 34.0400192, "lon": -4.9991062, "tags": {"alt_name": "\u0627\u0644\u0634\u0631\u0643\u0629 \u0627\u0644\u0639\u0627\u0645\u0629", "alt_name:ar": "\u0627\u0644\u0634\u0631\u0643\u0629 \u0627\u0644\u0639\u0627\u0645\u0629", "amenity": "bank", "brand": "\u0633\u0648\u0633\u064a\u062a\u064a\u0647 \u062c\u0646\u0631\u0627\u0644", "brand:es": "Soci\u00e9t\u00e9 G\u00e9n\u00e9rale", "brand:wikidata": "Q270363", "brand:wikipedia": "ar:\u0633\u0648\u0633\u064a\u062a\u064a\u0647 \u062c\u0646\u0631\u0627\u0644", "brand:wikipedia:es": "Soci\u00e9t\u00e9 G\u00e9n\u00e9rale", "name": "Soci\u00e9t\u00e9 G\u00e9n\u00e9rale \u0633\u0648\u0633\u064a\u062a\u064a\u0647 \u062c\u0646\u0631\u0627\u0644", "name:ar": "\u0633\u0648\u0633\u064a\u062a\u064a\u0647 \u062c\u0646\u0631\u0627\u0644", "name:de": "Soci\u00e9t\u00e9 G\u00e9n\u00e9rale", "name:en": "Soci\u00e9t\u00e9 G\u00e9n\u00e9rale", "name:es": "Soci\u00e9t\u00e9 G\u00e9n\u00e9rale", "name:fr": "Soci\u00e9t\u00e9 G\u00e9n\u00e9rale", "operator": "\u0633\u0648\u0633\u064a\u062a\u064a\u0647 \u062c\u0646\u0631\u0627\u0644", "operator:es": "Soci\u00e9t\u00e9 G\u00e9n\u00e9rale", "operator:wikidata": "Q270363", "operator:wikipedia": "ar:\u0633\u0648\u0633\u064a\u062a\u064a\u0647 \u062c\u0646\u0631\u0627\u0644", "operator:wikipedia:es": "Soci\u00e9t\u00e9 G\u00e9n\u00e9rale", "shop": "copyshop"}}, {"type": "node", "id": 4733797721, "lat": 34.0395015, "lon": -4.9999998, "tags": {"alt_name": "\u0627\u0644\u0634\u0631\u0643\u0629 \u0627\u0644\u0639\u0627\u0645\u0629", "alt_name:ar": "\u0627\u0644\u0634\u0631\u0643\u0629 \u0627\u0644\u0639\u0627\u0645\u0629", "amenity": "bank", "brand": "\u0633\u0648\u0633\u064a\u062a\u064a\u0647 \u062c\u0646\u0631\u0627\u0644", "brand:es": "Soci\u00e9t\u00e9 G\u00e9n\u00e9rale", "brand:wikidata": "Q270363", "brand:wikipedia": "ar:\u0633\u0648\u0633\u064a\u062a\u064a\u0647 \u062c\u0646\u0631\u0627\u0644", "brand:wikipedia:es": "Soci\u00e9t\u00e9 G\u00e9n\u00e9rale", "name": "Soci\u00e9t\u00e9 G\u00e9n\u00e9rale \u0633\u0648\u0633\u064a\u062a\u064a\u0647 \u062c\u0646\u0631\u0627\u0644", "name:ar": "\u0633\u0648\u0633\u064a\u062a\u064a\u0647 \u062c\u0646\u0631\u0627\u0644", "name:de": "Soci\u00e9t\u00e9 G\u00e9n\u00e9rale", "name:en": "Soci\u00e9t\u00e9 G\u00e9n\u00e9rale", "name:es": "Soci\u00e9t\u00e9 G\u00e9n\u00e9rale", "name:fr": "Soci\u00e9t\u00e9 G\u00e9n\u00e9rale", "operator": "\u0633\u0648\u0633\u064a\u062a\u064a\u0647 \u062c\u0646\u0631\u0627\u0644", "operator:es": "Soci\u00e9t\u00e9 G\u00e9n\u00e9rale", "operator:wikidata": "Q270363", "operator:wikipedia": "ar:\u0633\u0648\u0633\u064a\u062a\u064a\u0647 \u062c\u0646\u0631\u0627\u0644", "operator:wikipedia:es": "Soci\u00e9t\u00e9 G\u00e9n\u00e9rale"}}, {"type": "node", "id": 4733915522, "lat": 34.0421049, "lon": -4.9967512, "tags": {"addr:street": "Avenue Abdallah Chefchaouni", "amenity": "bank", "name": "BMCE"}}, {"type": "node", "id": 4733978321, "lat": 34.0404563, "lon": -4.9976171, "tags": {"addr:street": "Rue Hassan Zegriti", "amenity": "bank", "name": "Vivalis"}}, {"type": "node", "id": 4736028822, "lat": 34.0425691, "lon": -5.0002149, "tags": {"amenity": "bank", "brand": "\u0627\u0644\u0628\u0646\u0643 \u0627\u0644\u0645\u063a\u0631\u0628\u064a \u0644\u0644\u062a\u062c\u0627\u0631\u0629 \u0648\u0627\u0644\u0635\u0646\u0627\u0639\u0629", "brand:ar": "\u0627\u0644\u0628\u0646\u0643 \u0627\u0644\u0645\u063a\u0631\u0628\u064a \u0644\u0644\u062a\u062c\u0627\u0631\u0629 \u0648\u0627\u0644\u0635\u0646\u0627\u0639\u0629", "brand:wikidata": "Q2883409", "brand:wikipedia": "ar:\u0627\u0644\u0628\u0646\u0643 \u0627\u0644\u0645\u063a\u0631\u0628\u064a \u0644\u0644\u062a\u062c\u0627\u0631\u0629 \u0648\u0627\u0644\u0635\u0646\u0627\u0639\u0629", "brand:wikipedia:ar": "\u0627\u0644\u0628\u0646\u0643 \u0627\u0644\u0645\u063a\u0631\u0628\u064a \u0644\u0644\u062a\u062c\u0627\u0631\u0629 \u0648\u0627\u0644\u0635\u0646\u0627\u0639\u0629", "name": "BMCI \u0627\u0644\u0628\u0646\u0643 \u0627\u0644\u0645\u063a\u0631\u0628\u064a \u0644\u0644\u062a\u062c\u0627\u0631\u0629 \u0648\u0627\u0644\u0635\u0646\u0627\u0639\u0629", "name:ar": "\u0627\u0644\u0628\u0646\u0643 \u0627\u0644\u0645\u063a\u0631\u0628\u064a \u0644\u0644\u062a\u062c\u0627\u0631\u0629 \u0648\u0627\u0644\u0635\u0646\u0627\u0639\u0629", "name:fr": "BMCI", "operator": "\u0627\u0644\u0628\u0646\u0643 \u0627\u0644\u0645\u063a\u0631\u0628\u064a \u0644\u0644\u062a\u062c\u0627\u0631\u0629 \u0648\u0627\u0644\u0635\u0646\u0627\u0639\u0629", "operator:ar": "\u0627\u0644\u0628\u0646\u0643 \u0627\u0644\u0645\u063a\u0631\u0628\u064a \u0644\u0644\u062a\u062c\u0627\u0631\u0629 \u0648\u0627\u0644\u0635\u0646\u0627\u0639\u0629", "operator:wikidata": "Q499707", "operator:wikipedia": "ar:\u0627\u0644\u0628\u0646\u0643 \u0627\u0644\u0645\u063a\u0631\u0628\u064a \u0644\u0644\u062a\u062c\u0627\u0631\u0629 \u0648\u0627\u0644\u0635\u0646\u0627\u0639\u0629", "operator:wikipedia:ar": "\u0627\u0644\u0628\u0646\u0643 \u0627\u0644\u0645\u063a\u0631\u0628\u064a \u0644\u0644\u062a\u062c\u0627\u0631\u0629 \u0648\u0627\u0644\u0635\u0646\u0627\u0639\u0629"}}, {"type": "node", "id": 4736033923, "lat": 34.042491, "lon": -5.0002823, "tags": {"amenity": "bank", "name": "BMCE"}}, {"type": "node", "id": 4737821727, "lat": 34.0421018, "lon": -5.000594, "tags": {"amenity": "bank", "name": "Manda M.G.M.A"}}, {"type": "node", "id": 4737843522, "lat": 34.0421154, "lon": -5.0006999, "tags": {"amenity": "bank", "name": "Cr\u00e9dit Agricole"}}, {"type": "node", "id": 4738806922, "lat": 34.0562708, "lon": -5.0258284, "tags": {"amenity": "bank", "name": "Banque populaire", "name:fr": "Banque populaire"}}, {"type": "node", "id": 4739600027, "lat": 34.0424852, "lon": -5.003707, "tags": {"amenity": "bank", "name": "C I H", "name:fr": "C I H"}}, {"type": "node", "id": 4739600028, "lat": 34.0454592, "lon": -5.0022248, "tags": {"addr:city": "F\u00e8s", "alt_name:ar": "\u0627\u0644\u0628\u0646\u0643 \u0627\u0644\u0634\u0639\u0628\u064a \u0627\u0644\u0645\u0631\u0643\u0632\u064a", "amenity": "bank", "brand": "\u0627\u0644\u0628\u0646\u0643 \u0627\u0644\u0634\u0639\u0628\u064a", "brand:ar": "\u0627\u0644\u0628\u0646\u0643 \u0627\u0644\u0634\u0639\u0628\u064a", "brand:website": "https://www.groupebcp.com/AR", "brand:wikidata": "Q2883441", "brand:wikipedia": "ar:\u0627\u0644\u0628\u0646\u0643 \u0627\u0644\u0634\u0639\u0628\u064a (\u0627\u0644\u0645\u063a\u0631\u0628)", "brand:wikipedia:ar": "\u0627\u0644\u0628\u0646\u0643 \u0627\u0644\u0634\u0639\u0628\u064a (\u0627\u0644\u0645\u063a\u0631\u0628)", "name": "Banque Populaire \u0627\u0644\u0628\u0646\u0643 \u0627\u0644\u0634\u0639\u0628\u064a", "name:ar": "\u0627\u0644\u0628\u0646\u0643 \u0627\u0644\u0634\u0639\u0628\u064a", "name:en": "Banque Populaire", "name:fr": "Banque Populaire", "operator": "\u0627\u0644\u0628\u0646\u0643 \u0627\u0644\u0634\u0639\u0628\u064a", "operator:ar": "\u0627\u0644\u0628\u0646\u0643 \u0627\u0644\u0634\u0639\u0628\u064a", "operator:website": "https://www.groupebcp.com/AR", "operator:wikidata": "Q2883441", "operator:wikipedia": "ar:\u0627\u0644\u0628\u0646\u0643 \u0627\u0644\u0634\u0639\u0628\u064a (\u0627\u0644\u0645\u063a\u0631\u0628)", "operator:wikipedia:ar": "\u0627\u0644\u0628\u0646\u0643 \u0627\u0644\u0634\u0639\u0628\u064a (\u0627\u0644\u0645\u063a\u0631\u0628)"}}, {"type": "node", "id": 4739610824, "lat": 34.0457546, "lon": -5.0018172, "tags": {"addr:city": "F\u00e8s", "amenity": "bank", "name": "Cr\u00e9dit du maroc"}}, {"type": "node", "id": 4744915322, "lat": 34.0417797, "lon": -4.9964906, "tags": {"addr:street": "Avenue Abdallah Chefchaouni", "alt_name:ar": "\u0627\u0644\u0628\u0646\u0643 \u0627\u0644\u0634\u0639\u0628\u064a \u0627\u0644\u0645\u0631\u0643\u0632\u064a", "amenity": "bank", "brand": "\u0627\u0644\u0628\u0646\u0643 \u0627\u0644\u0634\u0639\u0628\u064a", "brand:ar": "\u0627\u0644\u0628\u0646\u0643 \u0627\u0644\u0634\u0639\u0628\u064a", "brand:website": "https://www.groupebcp.com/AR", "brand:wikidata": "Q2883441", "brand:wikipedia": "ar:\u0627\u0644\u0628\u0646\u0643 \u0627\u0644\u0634\u0639\u0628\u064a (\u0627\u0644\u0645\u063a\u0631\u0628)", "brand:wikipedia:ar": "\u0627\u0644\u0628\u0646\u0643 \u0627\u0644\u0634\u0639\u0628\u064a (\u0627\u0644\u0645\u063a\u0631\u0628)", "name": "Banque Populaire \u0627\u0644\u0628\u0646\u0643 \u0627\u0644\u0634\u0639\u0628\u064a", "name:ar": "\u0627\u0644\u0628\u0646\u0643 \u0627\u0644\u0634\u0639\u0628\u064a", "name:en": "Banque Populaire", "name:fr": "Banque Populaire", "operator": "\u0627\u0644\u0628\u0646\u0643 \u0627\u0644\u0634\u0639\u0628\u064a", "operator:ar": "\u0627\u0644\u0628\u0646\u0643 \u0627\u0644\u0634\u0639\u0628\u064a", "operator:website": "https://www.groupebcp.com/AR", "operator:wikidata": "Q2883441", "operator:wikipedia": "ar:\u0627\u0644\u0628\u0646\u0643 \u0627\u0644\u0634\u0639\u0628\u064a (\u0627\u0644\u0645\u063a\u0631\u0628)", "operator:wikipedia:ar": "\u0627\u0644\u0628\u0646\u0643 \u0627\u0644\u0634\u0639\u0628\u064a (\u0627\u0644\u0645\u063a\u0631\u0628)"}}, {"type": "node", "id": 4744915721, "lat": 34.0415719, "lon": -4.9964912, "tags": {"addr:street": "Avenue Abdallah Chefchaouni", "alt_name:ar": "\u0627\u0644\u0628\u0646\u0643 \u0627\u0644\u0634\u0639\u0628\u064a \u0627\u0644\u0645\u0631\u0643\u0632\u064a", "amenity": "bank", "brand": "\u0627\u0644\u0628\u0646\u0643 \u0627\u0644\u0634\u0639\u0628\u064a", "brand:ar": "\u0627\u0644\u0628\u0646\u0643 \u0627\u0644\u0634\u0639\u0628\u064a", "brand:website": "https://www.groupebcp.com/AR", "brand:wikidata": "Q2883441", "brand:wikipedia": "ar:\u0627\u0644\u0628\u0646\u0643 \u0627\u0644\u0634\u0639\u0628\u064a (\u0627\u0644\u0645\u063a\u0631\u0628)", "brand:wikipedia:ar": "\u0627\u0644\u0628\u0646\u0643 \u0627\u0644\u0634\u0639\u0628\u064a (\u0627\u0644\u0645\u063a\u0631\u0628)", "name": "Banque Populaire \u0627\u0644\u0628\u0646\u0643 \u0627\u0644\u0634\u0639\u0628\u064a", "name:ar": "\u0627\u0644\u0628\u0646\u0643 \u0627\u0644\u0634\u0639\u0628\u064a", "name:en": "Banque Populaire", "name:fr": "Banque Populaire", "operator": "\u0627\u0644\u0628\u0646\u0643 \u0627\u0644\u0634\u0639\u0628\u064a", "operator:ar": "\u0627\u0644\u0628\u0646\u0643 \u0627\u0644\u0634\u0639\u0628\u064a", "operator:website": "https://www.groupebcp.com/AR", "operator:wikidata": "Q2883441", "operator:wikipedia": "ar:\u0627\u0644\u0628\u0646\u0643 \u0627\u0644\u0634\u0639\u0628\u064a (\u0627\u0644\u0645\u063a\u0631\u0628)", "operator:wikipedia:ar": "\u0627\u0644\u0628\u0646\u0643 \u0627\u0644\u0634\u0639\u0628\u064a (\u0627\u0644\u0645\u063a\u0631\u0628)"}}, {"type": "node", "id": 4744927349, "lat": 34.0370833, "lon": -5.0080773, "tags": {"addr:housenumber": "16", "addr:street": "Avenue du Prince Heritier", "amenity": "bank", "name": "Banque populaire"}}, {"type": "node", "id": 4746807421, "lat": 34.0459479, "lon": -5.0015215, "tags": {"addr:street": "Avenue Egypte", "amenity": "bank", "name": "Cr\u00e9dit Agricole du Maroc"}}, {"type": "node", "id": 4746824324, "lat": 34.0457554, "lon": -5.001628, "tags": {"addr:city": "F\u00e8s", "addr:street": "Avenue Egypte", "amenity": "bank", "name": "BMCE"}}, {"type": "node", "id": 4748547423, "lat": 34.0452429, "lon": -5.0023287, "tags": {"addr:housenumber": "17", "addr:street": "Avenue Egypte", "amenity": "bank", "name": "Cr\u00e9dit Agricole de Maroc"}}, {"type": "node", "id": 4748584922, "lat": 34.0345019, "lon": -5.0053618, "tags": {"addr:housenumber": "10", "addr:street": "Avenue Allal Ben Abdallah", "amenity": "bank", "name": "SGMB Banque"}}, {"type": "node", "id": 4757704522, "lat": 34.0407248, "lon": -4.997996, "tags": {"addr:street": "Avenue Abdelali Benchekroun", "amenity": "bank", "name": "Banque populaire"}}, {"type": "node", "id": 4757712640, "lat": 34.0301737, "lon": -5.0046939, "tags": {"addr:housenumber": "34", "addr:street": "Rue Ahmed Chaouki", "amenity": "bank", "name": "CFG"}}, {"type": "node", "id": 4757730739, "lat": 34.0181834, "lon": -4.9915387, "tags": {"addr:city": "fez", "addr:street": "Rue 20", "amenity": "bank", "name": "Association micro credit"}}, {"type": "node", "id": 4757988421, "lat": 34.042323, "lon": -5.0036017, "tags": {"alt_name:ar": "\u0627\u0644\u0628\u0646\u0643 \u0627\u0644\u0639\u0642\u0627\u0631\u064a \u0648\u0627\u0644\u0633\u064a\u0627\u062d\u064a", "amenity": "bank", "brand": "\u0627\u0644\u0642\u0631\u0636 \u0627\u0644\u0639\u0642\u0627\u0631\u064a \u0648\u0627\u0644\u0633\u064a\u0627\u062d\u064a", "brand:ar": "\u0627\u0644\u0642\u0631\u0636 \u0627\u0644\u0639\u0642\u0627\u0631\u064a \u0648\u0627\u0644\u0633\u064a\u0627\u062d\u064a", "brand:website": "https://www.cihbank.ma/ar/", "brand:wikidata": "Q3006220", "brand:wikipedia": "ar:\u0627\u0644\u0642\u0631\u0636 \u0627\u0644\u0639\u0642\u0627\u0631\u064a \u0648\u0627\u0644\u0633\u064a\u0627\u062d\u064a", "brand:wikipedia:ar": "\u0627\u0644\u0642\u0631\u0636 \u0627\u0644\u0639\u0642\u0627\u0631\u064a \u0648\u0627\u0644\u0633\u064a\u0627\u062d\u064a", "name": "CIH Bank \u0627\u0644\u0642\u0631\u0636 \u0627\u0644\u0639\u0642\u0627\u0631\u064a \u0648\u0627\u0644\u0633\u064a\u0627\u062d\u064a", "name:ar": "\u0627\u0644\u0642\u0631\u0636 \u0627\u0644\u0639\u0642\u0627\u0631\u064a \u0648\u0627\u0644\u0633\u064a\u0627\u062d\u064a", "name:en": "CIH Bank", "name:fr": "CIH Bank", "operator": "\u0627\u0644\u0642\u0631\u0636 \u0627\u0644\u0639\u0642\u0627\u0631\u064a \u0648\u0627\u0644\u0633\u064a\u0627\u062d\u064a", "operator:ar": "\u0627\u0644\u0642\u0631\u0636 \u0627\u0644\u0639\u0642\u0627\u0631\u064a \u0648\u0627\u0644\u0633\u064a\u0627\u062d\u064a", "operator:website": "https://www.cihbank.ma/ar/", "operator:wikidata": "Q3006220", "operator:wikipedia": "ar:\u0627\u0644\u0642\u0631\u0636 \u0627\u0644\u0639\u0642\u0627\u0631\u064a \u0648\u0627\u0644\u0633\u064a\u0627\u062d\u064a", "operator:wikipedia:ar": "\u0627\u0644\u0642\u0631\u0636 \u0627\u0644\u0639\u0642\u0627\u0631\u064a \u0648\u0627\u0644\u0633\u064a\u0627\u062d\u064a"}}, {"type": "node", "id": 4759451529, "lat": 34.0380026, "lon": -4.9998935, "tags": {"addr:street": "Avenue Abdelkrim El Khattabi", "amenity": "bank", "atm": "yes", "name": "CIIH bank"}}, {"type": "node", "id": 4761666222, "lat": 34.0384065, "lon": -4.9987283, "tags": {"amenity": "bank", "name": "Attijariwafabank"}}, {"type": "node", "id": 4771127824, "lat": 34.0400439, "lon": -5.0086006, "tags": {"addr:street": "Avenue des Forces Arm\u00e9es Royales", "amenity": "bank", "brand": "\u0627\u0644\u062a\u062c\u0627\u0631\u064a \u0648\u0641\u0627 \u0628\u0646\u0643", "brand:ar": "\u0627\u0644\u062a\u062c\u0627\u0631\u064a \u0648\u0641\u0627 \u0628\u0646\u0643", "brand:website": "https://www.attijariwafabank.com/ar", "brand:wikidata": "Q758052", "brand:wikipedia": "ar:\u0627\u0644\u062a\u062c\u0627\u0631\u064a \u0648\u0641\u0627 \u0628\u0646\u0643", "brand:wikipedia:ar": "\u0627\u0644\u062a\u062c\u0627\u0631\u064a \u0648\u0641\u0627 \u0628\u0646\u0643", "name": "Attijariwafa Bank \u0627\u0644\u062a\u062c\u0627\u0631\u064a \u0648\u0641\u0627 \u0628\u0646\u0643", "name:ar": "\u0627\u0644\u062a\u062c\u0627\u0631\u064a \u0648\u0641\u0627 \u0628\u0646\u0643", "name:en": "Attijariwafa Bank", "name:fr": "Attijariwafa Bank", "operator": "\u0627\u0644\u062a\u062c\u0627\u0631\u064a \u0648\u0641\u0627 \u0628\u0646\u0643", "operator:ar": "\u0627\u0644\u062a\u062c\u0627\u0631\u064a \u0648\u0641\u0627 \u0628\u0646\u0643", "operator:website": "https://www.attijariwafabank.com/ar", "operator:wikidata": "Q758052", "operator:wikipedia": "ar:\u0627\u0644\u062a\u062c\u0627\u0631\u064a \u0648\u0641\u0627 \u0628\u0646\u0643", "operator:wikipedia:ar": "\u0627\u0644\u062a\u062c\u0627\u0631\u064a \u0648\u0641\u0627 \u0628\u0646\u0643"}}, {"type": "node", "id": 4772587621, "lat": 34.0458017, "lon": -5.0035165, "tags": {"addr:housenumber": "2", "addr:street": "Avenue Lalla Hasnae", "amenity": "bank", "atm": "yes", "name": "Attijariwafa bank", "operator": "Attijariwafa bank"}}, {"type": "node", "id": 4774444841, "lat": 34.0422058, "lon": -5.0043862, "tags": {"addr:street": "Obaida Bnou El Jarrah", "amenity": "bank", "name": "Cr\u00e9dit du Maroc"}}, {"type": "node", "id": 4774513823, "lat": 34.0416449, "lon": -5.0048371, "tags": {"addr:street": "Obaida Bnou El Jarrah", "alt_name:ar": "\u0627\u0644\u0628\u0646\u0643 \u0627\u0644\u0634\u0639\u0628\u064a \u0627\u0644\u0645\u0631\u0643\u0632\u064a", "amenity": "bank", "brand": "\u0627\u0644\u0628\u0646\u0643 \u0627\u0644\u0634\u0639\u0628\u064a", "brand:ar": "\u0627\u0644\u0628\u0646\u0643 \u0627\u0644\u0634\u0639\u0628\u064a", "brand:website": "https://www.groupebcp.com/AR", "brand:wikidata": "Q2883441", "brand:wikipedia": "ar:\u0627\u0644\u0628\u0646\u0643 \u0627\u0644\u0634\u0639\u0628\u064a (\u0627\u0644\u0645\u063a\u0631\u0628)", "brand:wikipedia:ar": "\u0627\u0644\u0628\u0646\u0643 \u0627\u0644\u0634\u0639\u0628\u064a (\u0627\u0644\u0645\u063a\u0631\u0628)", "name": "Banque Populaire \u0627\u0644\u0628\u0646\u0643 \u0627\u0644\u0634\u0639\u0628\u064a", "name:ar": "\u0627\u0644\u0628\u0646\u0643 \u0627\u0644\u0634\u0639\u0628\u064a", "name:en": "Banque Populaire", "name:fr": "Banque Populaire", "operator": "\u0627\u0644\u0628\u0646\u0643 \u0627\u0644\u0634\u0639\u0628\u064a", "operator:ar": "\u0627\u0644\u0628\u0646\u0643 \u0627\u0644\u0634\u0639\u0628\u064a", "operator:website": "https://www.groupebcp.com/AR", "operator:wikidata": "Q2883441", "operator:wikipedia": "ar:\u0627\u0644\u0628\u0646\u0643 \u0627\u0644\u0634\u0639\u0628\u064a (\u0627\u0644\u0645\u063a\u0631\u0628)", "operator:wikipedia:ar": "\u0627\u0644\u0628\u0646\u0643 \u0627\u0644\u0634\u0639\u0628\u064a (\u0627\u0644\u0645\u063a\u0631\u0628)"}}, {"type": "node", "id": 4776607521, "lat": 34.0398743, "lon": -4.9990288, "tags": {"amenity": "bank", "name": "Attijariwafabank"}}, {"type": "node", "id": 4776659921, "lat": 34.041214, "lon": -4.9950705, "tags": {"addr:street": "Rue Mohammed Diouri", "amenity": "bank", "name": "Check Auto Express"}}, {"type": "node", "id": 4776800721, "lat": 34.0396386, "lon": -5.0061285, "tags": {"addr:street": "Obaida Bnou El Jarrah", "amenity": "bank", "name": "BMCI Bank"}}, {"type": "node", "id": 4789684222, "lat": 34.0292319, "lon": -5.0236329, "tags": {"addr:street": "tarik 1 Rte Ben Souda", "amenity": "bank", "name": "Banque populaire"}}, {"type": "node", "id": 4791375123, "lat": 34.0280035, "lon": -5.0258529, "tags": {"addr:city": "\u0641\u0627\u0633", "addr:street": "\u0637\u0631\u064a\u0642 \u0628\u0646\u0633\u0648\u062f\u0629", "amenity": "bank", "name": "BMCE \u0627\u0644\u0628\u0646\u0643 \u0627\u0644\u0645\u063a\u0631\u0628\u064a \u0644\u0644\u062a\u062c\u0627\u0631\u0629 \u0627\u0644\u062e\u0627\u0631\u062c\u064a\u0629", "name:ar": "\u0627\u0644\u0628\u0646\u0643 \u0627\u0644\u0645\u063a\u0631\u0628\u064a \u0644\u0644\u062a\u062c\u0627\u0631\u0629 \u0627\u0644\u062e\u0627\u0631\u062c\u064a\u0629", "name:fr": "BMCE", "operator": "\u0627\u0644\u0628\u0646\u0643 \u0627\u0644\u0645\u063a\u0631\u0628\u064a \u0644\u0644\u062a\u062c\u0627\u0631\u0629 \u0627\u0644\u062e\u0627\u0631\u062c\u064a\u0629"}}, {"type": "node", "id": 4798508621, "lat": 34.0291375, "lon": -5.0235667, "tags": {"addr:street": "Tarik 2 ROUTE BENSOUDA", "amenity": "bank", "name": "Soci\u00e9t\u00e9 G\u00e9n\u00e9rale Marocaine des Banques"}}, {"type": "node", "id": 4801091526, "lat": 34.0389182, "lon": -4.998382, "tags": {"addr:street": "Boulevard Mohammed V", "amenity": "bank", "atm": "yes", "name": "Cr\u00e9dit du Maroc"}}, {"type": "node", "id": 4803022633, "lat": 34.0435988, "lon": -5.0052166, "tags": {"addr:housenumber": "21", "addr:street": "Avenue Abi Na\u00efm", "amenity": "bank", "branch": "Tamwil El Fellah", "name": "Cr\u00e9dit Agricole"}}, {"type": "node", "id": 4807118721, "lat": 34.0236683, "lon": -5.0162204, "tags": {"alt_name:ar": "\u0627\u0644\u0628\u0646\u0643 \u0627\u0644\u0634\u0639\u0628\u064a \u0627\u0644\u0645\u0631\u0643\u0632\u064a", "amenity": "bank", "branch": "Agence Anas", "brand": "\u0627\u0644\u0628\u0646\u0643 \u0627\u0644\u0634\u0639\u0628\u064a", "brand:ar": "\u0627\u0644\u0628\u0646\u0643 \u0627\u0644\u0634\u0639\u0628\u064a", "brand:website": "https://www.groupebcp.com/AR", "brand:wikidata": "Q2883441", "brand:wikipedia": "ar:\u0627\u0644\u0628\u0646\u0643 \u0627\u0644\u0634\u0639\u0628\u064a (\u0627\u0644\u0645\u063a\u0631\u0628)", "brand:wikipedia:ar": "\u0627\u0644\u0628\u0646\u0643 \u0627\u0644\u0634\u0639\u0628\u064a (\u0627\u0644\u0645\u063a\u0631\u0628)", "name": "Banque Populaire \u0627\u0644\u0628\u0646\u0643 \u0627\u0644\u0634\u0639\u0628\u064a", "name:ar": "\u0627\u0644\u0628\u0646\u0643 \u0627\u0644\u0634\u0639\u0628\u064a", "name:en": "Banque Populaire", "name:fr": "Banque Populaire", "operator": "\u0627\u0644\u0628\u0646\u0643 \u0627\u0644\u0634\u0639\u0628\u064a", "operator:ar": "\u0627\u0644\u0628\u0646\u0643 \u0627\u0644\u0634\u0639\u0628\u064a", "operator:website": "https://www.groupebcp.com/AR", "operator:wikidata": "Q2883441", "operator:wikipedia": "ar:\u0627\u0644\u0628\u0646\u0643 \u0627\u0644\u0634\u0639\u0628\u064a (\u0627\u0644\u0645\u063a\u0631\u0628)", "operator:wikipedia:ar": "\u0627\u0644\u0628\u0646\u0643 \u0627\u0644\u0634\u0639\u0628\u064a (\u0627\u0644\u0645\u063a\u0631\u0628)"}}, {"type": "node", "id": 4813208622, "lat": 34.0376711, "lon": -4.9976971, "tags": {"addr:street": "Avenue Mohamed es Saoui", "amenity": "bank", "name": "Barid cash"}}, {"type": "node", "id": 4813297523, "lat": 34.0377862, "lon": -4.996901, "tags": {"addr:street": "Avenue Mohamed es Saoui", "amenity": "bank", "name": "Wafa cash"}}, {"type": "node", "id": 4813383621, "lat": 34.0354085, "lon": -4.9975123, "tags": {"amenity": "bank", "name": "Wafasalaf"}}, {"type": "node", "id": 4816827532, "lat": 34.0401423, "lon": -5.0054355, "tags": {"addr:housenumber": "17", "addr:street": "Avenue Iman Ali", "amenity": "bank", "name": "EQDOM Agence de Cr\u00e9dit 17"}}, {"type": "node", "id": 4831676624, "lat": 34.0420378, "lon": -5.0087916, "tags": {"addr:housenumber": "7", "addr:street": "Avenue Iman Ali", "amenity": "bank", "name": "AXA Cr\u00e9dit", "shop": "butcher"}}, {"type": "node", "id": 4831676823, "lat": 34.0417734, "lon": -5.0083065, "tags": {"addr:housenumber": "7", "addr:street": "Avenue Iman Ali", "alt_name:ar": "\u0627\u0644\u0628\u0646\u0643 \u0627\u0644\u0634\u0639\u0628\u064a \u0627\u0644\u0645\u0631\u0643\u0632\u064a", "amenity": "bank", "brand": "\u0627\u0644\u0628\u0646\u0643 \u0627\u0644\u0634\u0639\u0628\u064a", "brand:ar": "\u0627\u0644\u0628\u0646\u0643 \u0627\u0644\u0634\u0639\u0628\u064a", "brand:website": "https://www.groupebcp.com/AR", "brand:wikidata": "Q2883441", "brand:wikipedia": "ar:\u0627\u0644\u0628\u0646\u0643 \u0627\u0644\u0634\u0639\u0628\u064a (\u0627\u0644\u0645\u063a\u0631\u0628)", "brand:wikipedia:ar": "\u0627\u0644\u0628\u0646\u0643 \u0627\u0644\u0634\u0639\u0628\u064a (\u0627\u0644\u0645\u063a\u0631\u0628)", "name": "Banque Populaire \u0627\u0644\u0628\u0646\u0643 \u0627\u0644\u0634\u0639\u0628\u064a", "name:ar": "\u0627\u0644\u0628\u0646\u0643 \u0627\u0644\u0634\u0639\u0628\u064a", "name:en": "Banque Populaire", "name:fr": "Banque Populaire", "operator": "\u0627\u0644\u0628\u0646\u0643 \u0627\u0644\u0634\u0639\u0628\u064a", "operator:ar": "\u0627\u0644\u0628\u0646\u0643 \u0627\u0644\u0634\u0639\u0628\u064a", "operator:website": "https://www.groupebcp.com/AR", "operator:wikidata": "Q2883441", "operator:wikipedia": "ar:\u0627\u0644\u0628\u0646\u0643 \u0627\u0644\u0634\u0639\u0628\u064a (\u0627\u0644\u0645\u063a\u0631\u0628)", "operator:wikipedia:ar": "\u0627\u0644\u0628\u0646\u0643 \u0627\u0644\u0634\u0639\u0628\u064a (\u0627\u0644\u0645\u063a\u0631\u0628)"}}, {"type": "node", "id": 4833316822, "lat": 34.0410717, "lon": -5.013514, "tags": {"alt_name:ar": "\u0627\u0644\u0628\u0646\u0643 \u0627\u0644\u0634\u0639\u0628\u064a \u0627\u0644\u0645\u0631\u0643\u0632\u064a", "amenity": "bank", "brand": "\u0627\u0644\u0628\u0646\u0643 \u0627\u0644\u0634\u0639\u0628\u064a", "brand:ar": "\u0627\u0644\u0628\u0646\u0643 \u0627\u0644\u0634\u0639\u0628\u064a", "brand:website": "https://www.groupebcp.com/AR", "brand:wikidata": "Q2883441", "brand:wikipedia": "ar:\u0627\u0644\u0628\u0646\u0643 \u0627\u0644\u0634\u0639\u0628\u064a (\u0627\u0644\u0645\u063a\u0631\u0628)", "brand:wikipedia:ar": "\u0627\u0644\u0628\u0646\u0643 \u0627\u0644\u0634\u0639\u0628\u064a (\u0627\u0644\u0645\u063a\u0631\u0628)", "name": "Banque Populaire \u0627\u0644\u0628\u0646\u0643 \u0627\u0644\u0634\u0639\u0628\u064a", "name:ar": "\u0627\u0644\u0628\u0646\u0643 \u0627\u0644\u0634\u0639\u0628\u064a", "name:en": "Banque Populaire", "name:fr": "Banque Populaire", "operator": "\u0627\u0644\u0628\u0646\u0643 \u0627\u0644\u0634\u0639\u0628\u064a", "operator:ar": "\u0627\u0644\u0628\u0646\u0643 \u0627\u0644\u0634\u0639\u0628\u064a", "operator:website": "https://www.groupebcp.com/AR", "operator:wikidata": "Q2883441", "operator:wikipedia": "ar:\u0627\u0644\u0628\u0646\u0643 \u0627\u0644\u0634\u0639\u0628\u064a (\u0627\u0644\u0645\u063a\u0631\u0628)", "operator:wikipedia:ar": "\u0627\u0644\u0628\u0646\u0643 \u0627\u0644\u0634\u0639\u0628\u064a (\u0627\u0644\u0645\u063a\u0631\u0628)"}}, {"type": "node", "id": 4834308121, "lat": 34.033468, "lon": -4.9955238, "tags": {"addr:street": "Avenue Mohamed Zektouni", "amenity": "bank", "brand": "\u0627\u0644\u0628\u0646\u0643 \u0627\u0644\u0645\u063a\u0631\u0628\u064a \u0644\u0644\u062a\u062c\u0627\u0631\u0629 \u0648\u0627\u0644\u0635\u0646\u0627\u0639\u0629", "brand:ar": "\u0627\u0644\u0628\u0646\u0643 \u0627\u0644\u0645\u063a\u0631\u0628\u064a \u0644\u0644\u062a\u062c\u0627\u0631\u0629 \u0648\u0627\u0644\u0635\u0646\u0627\u0639\u0629", "brand:wikidata": "Q2883409", "brand:wikipedia": "ar:\u0627\u0644\u0628\u0646\u0643 \u0627\u0644\u0645\u063a\u0631\u0628\u064a \u0644\u0644\u062a\u062c\u0627\u0631\u0629 \u0648\u0627\u0644\u0635\u0646\u0627\u0639\u0629", "brand:wikipedia:ar": "\u0627\u0644\u0628\u0646\u0643 \u0627\u0644\u0645\u063a\u0631\u0628\u064a \u0644\u0644\u062a\u062c\u0627\u0631\u0629 \u0648\u0627\u0644\u0635\u0646\u0627\u0639\u0629", "name": "BMCI \u0627\u0644\u0628\u0646\u0643 \u0627\u0644\u0645\u063a\u0631\u0628\u064a \u0644\u0644\u062a\u062c\u0627\u0631\u0629 \u0648\u0627\u0644\u0635\u0646\u0627\u0639\u0629", "name:ar": "\u0627\u0644\u0628\u0646\u0643 \u0627\u0644\u0645\u063a\u0631\u0628\u064a \u0644\u0644\u062a\u062c\u0627\u0631\u0629 \u0648\u0627\u0644\u0635\u0646\u0627\u0639\u0629", "name:fr": "BMCI", "operator": "\u0627\u0644\u0628\u0646\u0643 \u0627\u0644\u0645\u063a\u0631\u0628\u064a \u0644\u0644\u062a\u062c\u0627\u0631\u0629 \u0648\u0627\u0644\u0635\u0646\u0627\u0639\u0629", "operator:ar": "\u0627\u0644\u0628\u0646\u0643 \u0627\u0644\u0645\u063a\u0631\u0628\u064a \u0644\u0644\u062a\u062c\u0627\u0631\u0629 \u0648\u0627\u0644\u0635\u0646\u0627\u0639\u0629", "operator:wikidata": "Q499707", "operator:wikipedia": "ar:\u0627\u0644\u0628\u0646\u0643 \u0627\u0644\u0645\u063a\u0631\u0628\u064a \u0644\u0644\u062a\u062c\u0627\u0631\u0629 \u0648\u0627\u0644\u0635\u0646\u0627\u0639\u0629", "operator:wikipedia:ar": "\u0627\u0644\u0628\u0646\u0643 \u0627\u0644\u0645\u063a\u0631\u0628\u064a \u0644\u0644\u062a\u062c\u0627\u0631\u0629 \u0648\u0627\u0644\u0635\u0646\u0627\u0639\u0629"}}, {"type": "node", "id": 4844669975, "lat": 34.0416794, "lon": -5.0096526, "tags": {"addr:housenumber": "14", "addr:street": "Imam Jouayni", "amenity": "bank", "name": "Cr\u00e9dit Attawfiq"}}, {"type": "node", "id": 4844671435, "lat": 34.0417097, "lon": -5.0097116, "tags": {"addr:street": "Imam Jouayni", "amenity": "bank", "name": "Cr\u00e9dit Agricole Bank"}}, {"type": "node", "id": 4855498423, "lat": 34.0369407, "lon": -4.9980492, "tags": {"amenity": "bank", "name": "Banque populaire"}}, {"type": "node", "id": 4855539422, "lat": 34.0353686, "lon": -4.9979828, "tags": {"amenity": "bank", "name": "Banque populaire"}}, {"type": "node", "id": 4869707022, "lat": 34.0233431, "lon": -5.006203, "tags": {"addr:street": "Avenue Saint Louis", "amenity": "bank", "name": "Atjariwafabanque"}}, {"type": "node", "id": 4869742021, "lat": 34.0230707, "lon": -5.0063546, "tags": {"addr:street": "Avenue Saint Louis", "amenity": "bank", "name": "BMCE"}}, {"type": "node", "id": 4871849621, "lat": 34.0225646, "lon": -5.0066531, "tags": {"addr:street": "Avenue Saint Louis", "alt_name:ar": "\u0627\u0644\u0628\u0646\u0643 \u0627\u0644\u0634\u0639\u0628\u064a \u0627\u0644\u0645\u0631\u0643\u0632\u064a", "amenity": "bank", "brand": "\u0627\u0644\u0628\u0646\u0643 \u0627\u0644\u0634\u0639\u0628\u064a", "brand:ar": "\u0627\u0644\u0628\u0646\u0643 \u0627\u0644\u0634\u0639\u0628\u064a", "brand:website": "https://www.groupebcp.com/AR", "brand:wikidata": "Q2883441", "brand:wikipedia": "ar:\u0627\u0644\u0628\u0646\u0643 \u0627\u0644\u0634\u0639\u0628\u064a (\u0627\u0644\u0645\u063a\u0631\u0628)", "brand:wikipedia:ar": "\u0627\u0644\u0628\u0646\u0643 \u0627\u0644\u0634\u0639\u0628\u064a (\u0627\u0644\u0645\u063a\u0631\u0628)", "name": "Banque Populaire \u0627\u0644\u0628\u0646\u0643 \u0627\u0644\u0634\u0639\u0628\u064a", "name:ar": "\u0627\u0644\u0628\u0646\u0643 \u0627\u0644\u0634\u0639\u0628\u064a", "name:en": "Banque Populaire", "name:fr": "Banque Populaire", "operator": "\u0627\u0644\u0628\u0646\u0643 \u0627\u0644\u0634\u0639\u0628\u064a", "operator:ar": "\u0627\u0644\u0628\u0646\u0643 \u0627\u0644\u0634\u0639\u0628\u064a", "operator:website": "https://www.groupebcp.com/AR", "operator:wikidata": "Q2883441", "operator:wikipedia": "ar:\u0627\u0644\u0628\u0646\u0643 \u0627\u0644\u0634\u0639\u0628\u064a (\u0627\u0644\u0645\u063a\u0631\u0628)", "operator:wikipedia:ar": "\u0627\u0644\u0628\u0646\u0643 \u0627\u0644\u0634\u0639\u0628\u064a (\u0627\u0644\u0645\u063a\u0631\u0628)"}}, {"type": "node", "id": 4871876323, "lat": 34.0291821, "lon": -4.992815, "tags": {"addr:street": "Boulevard Moulay Rachid", "amenity": "bank", "brand": "\u0627\u0644\u0628\u0646\u0643 \u0627\u0644\u0645\u063a\u0631\u0628\u064a \u0644\u0644\u062a\u062c\u0627\u0631\u0629 \u0648\u0627\u0644\u0635\u0646\u0627\u0639\u0629", "brand:ar": "\u0627\u0644\u0628\u0646\u0643 \u0627\u0644\u0645\u063a\u0631\u0628\u064a \u0644\u0644\u062a\u062c\u0627\u0631\u0629 \u0648\u0627\u0644\u0635\u0646\u0627\u0639\u0629", "brand:wikidata": "Q2883409", "brand:wikipedia": "ar:\u0627\u0644\u0628\u0646\u0643 \u0627\u0644\u0645\u063a\u0631\u0628\u064a \u0644\u0644\u062a\u062c\u0627\u0631\u0629 \u0648\u0627\u0644\u0635\u0646\u0627\u0639\u0629", "brand:wikipedia:ar": "\u0627\u0644\u0628\u0646\u0643 \u0627\u0644\u0645\u063a\u0631\u0628\u064a \u0644\u0644\u062a\u062c\u0627\u0631\u0629 \u0648\u0627\u0644\u0635\u0646\u0627\u0639\u0629", "name": "BMCI \u0627\u0644\u0628\u0646\u0643 \u0627\u0644\u0645\u063a\u0631\u0628\u064a \u0644\u0644\u062a\u062c\u0627\u0631\u0629 \u0648\u0627\u0644\u0635\u0646\u0627\u0639\u0629", "name:ar": "\u0627\u0644\u0628\u0646\u0643 \u0627\u0644\u0645\u063a\u0631\u0628\u064a \u0644\u0644\u062a\u062c\u0627\u0631\u0629 \u0648\u0627\u0644\u0635\u0646\u0627\u0639\u0629", "name:fr": "BMCI", "operator": "\u0627\u0644\u0628\u0646\u0643 \u0627\u0644\u0645\u063a\u0631\u0628\u064a \u0644\u0644\u062a\u062c\u0627\u0631\u0629 \u0648\u0627\u0644\u0635\u0646\u0627\u0639\u0629", "operator:ar": "\u0627\u0644\u0628\u0646\u0643 \u0627\u0644\u0645\u063a\u0631\u0628\u064a \u0644\u0644\u062a\u062c\u0627\u0631\u0629 \u0648\u0627\u0644\u0635\u0646\u0627\u0639\u0629", "operator:wikidata": "Q499707", "operator:wikipedia": "ar:\u0627\u0644\u0628\u0646\u0643 \u0627\u0644\u0645\u063a\u0631\u0628\u064a \u0644\u0644\u062a\u062c\u0627\u0631\u0629 \u0648\u0627\u0644\u0635\u0646\u0627\u0639\u0629", "operator:wikipedia:ar": "\u0627\u0644\u0628\u0646\u0643 \u0627\u0644\u0645\u063a\u0631\u0628\u064a \u0644\u0644\u062a\u062c\u0627\u0631\u0629 \u0648\u0627\u0644\u0635\u0646\u0627\u0639\u0629"}}, {"type": "node", "id": 4873006622, "lat": 34.0440096, "lon": -5.0068908, "tags": {"addr:street": "Bv Otmane ben affane", "amenity": "bank", "brand": "\u0627\u0644\u062a\u062c\u0627\u0631\u064a \u0648\u0641\u0627 \u0628\u0646\u0643", "brand:ar": "\u0627\u0644\u062a\u062c\u0627\u0631\u064a \u0648\u0641\u0627 \u0628\u0646\u0643", "brand:website": "https://www.attijariwafabank.com/ar", "brand:wikidata": "Q758052", "brand:wikipedia": "ar:\u0627\u0644\u062a\u062c\u0627\u0631\u064a \u0648\u0641\u0627 \u0628\u0646\u0643", "brand:wikipedia:ar": "\u0627\u0644\u062a\u062c\u0627\u0631\u064a \u0648\u0641\u0627 \u0628\u0646\u0643", "name": "Attijariwafa Bank \u0627\u0644\u062a\u062c\u0627\u0631\u064a \u0648\u0641\u0627 \u0628\u0646\u0643", "name:ar": "\u0627\u0644\u062a\u062c\u0627\u0631\u064a \u0648\u0641\u0627 \u0628\u0646\u0643", "name:en": "Attijariwafa Bank", "name:fr": "Attijariwafa Bank", "operator": "\u0627\u0644\u062a\u062c\u0627\u0631\u064a \u0648\u0641\u0627 \u0628\u0646\u0643", "operator:ar": "\u0627\u0644\u062a\u062c\u0627\u0631\u064a \u0648\u0641\u0627 \u0628\u0646\u0643", "operator:website": "https://www.attijariwafabank.com/ar", "operator:wikidata": "Q758052", "operator:wikipedia": "ar:\u0627\u0644\u062a\u062c\u0627\u0631\u064a \u0648\u0641\u0627 \u0628\u0646\u0643", "operator:wikipedia:ar": "\u0627\u0644\u062a\u062c\u0627\u0631\u064a \u0648\u0641\u0627 \u0628\u0646\u0643"}}, {"type": "node", "id": 4873866627, "lat": 34.0205164, "lon": -5.006946, "tags": {"addr:street": "Avenue Saint Louis", "amenity": "bank", "name": "Attiraiwafabank"}}, {"type": "node", "id": 4874138923, "lat": 34.0301769, "lon": -4.9928482, "tags": {"amenity": "bank", "name": "Taslif de cr\u00e9dit"}}, {"type": "node", "id": 4874167823, "lat": 34.030575, "lon": -4.9930693, "tags": {"addr:city": "\u0641\u0627\u0633", "amenity": "bank", "name": "Cr\u00e9dit du Maroc \u0645\u0635\u0631\u0641 \u0627\u0644\u0645\u063a\u0631\u0628", "name:ar": "\u0645\u0635\u0631\u0641 \u0627\u0644\u0645\u063a\u0631\u0628", "name:fr": "Cr\u00e9dit du Maroc", "operator": "\u0645\u0635\u0631\u0641 \u0627\u0644\u0645\u063a\u0631\u0628"}}, {"type": "node", "id": 4875814421, "lat": 34.0161402, "lon": -5.0072843, "tags": {"addr:street": "AV Saint Louis", "amenity": "bank", "name": "Cr\u00e9dit Agricole"}}, {"type": "node", "id": 4885492621, "lat": 34.0326728, "lon": -4.9921947, "tags": {"addr:street": "Boulevard Dhar Marez", "amenity": "bank", "name": "Wafa cash - saiss financier"}}, {"type": "node", "id": 4887876321, "lat": 34.0181679, "lon": -5.0064882, "tags": {"addr:street": "Avenue Saint Louis", "amenity": "bank", "name": "CIN Bank"}}, {"type": "node", "id": 4897650822, "lat": 34.0349273, "lon": -4.9990915, "tags": {"alt_name:ar": "\u0627\u0644\u0628\u0646\u0643 \u0627\u0644\u0634\u0639\u0628\u064a \u0627\u0644\u0645\u0631\u0643\u0632\u064a", "amenity": "bank", "brand": "\u0627\u0644\u0628\u0646\u0643 \u0627\u0644\u0634\u0639\u0628\u064a", "brand:ar": "\u0627\u0644\u0628\u0646\u0643 \u0627\u0644\u0634\u0639\u0628\u064a", "brand:website": "https://www.groupebcp.com/AR", "brand:wikidata": "Q2883441", "brand:wikipedia": "ar:\u0627\u0644\u0628\u0646\u0643 \u0627\u0644\u0634\u0639\u0628\u064a (\u0627\u0644\u0645\u063a\u0631\u0628)", "brand:wikipedia:ar": "\u0627\u0644\u0628\u0646\u0643 \u0627\u0644\u0634\u0639\u0628\u064a (\u0627\u0644\u0645\u063a\u0631\u0628)", "name": "Banque Populaire \u0627\u0644\u0628\u0646\u0643 \u0627\u0644\u0634\u0639\u0628\u064a", "name:ar": "\u0627\u0644\u0628\u0646\u0643 \u0627\u0644\u0634\u0639\u0628\u064a", "name:en": "Banque Populaire", "name:fr": "Banque Populaire", "operator": "\u0627\u0644\u0628\u0646\u0643 \u0627\u0644\u0634\u0639\u0628\u064a", "operator:ar": "\u0627\u0644\u0628\u0646\u0643 \u0627\u0644\u0634\u0639\u0628\u064a", "operator:website": "https://www.groupebcp.com/AR", "operator:wikidata": "Q2883441", "operator:wikipedia": "ar:\u0627\u0644\u0628\u0646\u0643 \u0627\u0644\u0634\u0639\u0628\u064a (\u0627\u0644\u0645\u063a\u0631\u0628)", "operator:wikipedia:ar": "\u0627\u0644\u0628\u0646\u0643 \u0627\u0644\u0634\u0639\u0628\u064a (\u0627\u0644\u0645\u063a\u0631\u0628)"}}, {"type": "node", "id": 4903890522, "lat": 34.0226967, "lon": -5.0062886, "tags": {"addr:street": "Avenue Saint Louis", "amenity": "bank", "name": "Cr\u00e9dit du Maroc"}}, {"type": "node", "id": 4904439021, "lat": 34.0341569, "lon": -4.9900045, "tags": {"addr:street": "Bld Dhar Marez", "amenity": "bank", "name": "Banque populaire"}}, {"type": "node", "id": 4910697421, "lat": 34.0338358, "lon": -4.9904776, "tags": {"addr:street": "Bld Dhar Marez", "amenity": "bank", "name": "Cash plus"}}, {"type": "node", "id": 4910805023, "lat": 34.0250366, "lon": -5.0049619, "tags": {"addr:street": "Avenue Saint Louis", "amenity": "bank", "name": "S.G.M.B"}}, {"type": "node", "id": 4954476324, "lat": 34.031517, "lon": -4.9951764, "tags": {"addr:city": "\u0641\u0627\u0633", "alt_name": "\u0627\u0644\u0634\u0631\u0643\u0629 \u0627\u0644\u0639\u0627\u0645\u0629", "alt_name:ar": "\u0627\u0644\u0634\u0631\u0643\u0629 \u0627\u0644\u0639\u0627\u0645\u0629", "amenity": "bank", "brand": "\u0633\u0648\u0633\u064a\u062a\u064a\u0647 \u062c\u0646\u0631\u0627\u0644", "brand:es": "Soci\u00e9t\u00e9 G\u00e9n\u00e9rale", "brand:wikidata": "Q270363", "brand:wikipedia": "ar:\u0633\u0648\u0633\u064a\u062a\u064a\u0647 \u062c\u0646\u0631\u0627\u0644", "brand:wikipedia:es": "Soci\u00e9t\u00e9 G\u00e9n\u00e9rale", "name": "Soci\u00e9t\u00e9 G\u00e9n\u00e9rale \u0633\u0648\u0633\u064a\u062a\u064a\u0647 \u062c\u0646\u0631\u0627\u0644", "name:ar": "\u0633\u0648\u0633\u064a\u062a\u064a\u0647 \u062c\u0646\u0631\u0627\u0644", "name:de": "Soci\u00e9t\u00e9 G\u00e9n\u00e9rale", "name:en": "Soci\u00e9t\u00e9 G\u00e9n\u00e9rale", "name:es": "Soci\u00e9t\u00e9 G\u00e9n\u00e9rale", "name:fr": "Soci\u00e9t\u00e9 G\u00e9n\u00e9rale", "operator": "\u0633\u0648\u0633\u064a\u062a\u064a\u0647 \u062c\u0646\u0631\u0627\u0644", "operator:es": "Soci\u00e9t\u00e9 G\u00e9n\u00e9rale", "operator:wikidata": "Q270363", "operator:wikipedia": "ar:\u0633\u0648\u0633\u064a\u062a\u064a\u0647 \u062c\u0646\u0631\u0627\u0644", "operator:wikipedia:es": "Soci\u00e9t\u00e9 G\u00e9n\u00e9rale"}}, {"type": "node", "id": 4954599523, "lat": 34.0225575, "lon": -5.0126913, "tags": {"addr:housenumber": "192", "addr:street": "Avenue Ibn Al Atir", "alt_name:ar": "\u0627\u0644\u0628\u0646\u0643 \u0627\u0644\u0634\u0639\u0628\u064a \u0627\u0644\u0645\u0631\u0643\u0632\u064a", "amenity": "bank", "brand": "\u0627\u0644\u0628\u0646\u0643 \u0627\u0644\u0634\u0639\u0628\u064a", "brand:ar": "\u0627\u0644\u0628\u0646\u0643 \u0627\u0644\u0634\u0639\u0628\u064a", "brand:website": "https://www.groupebcp.com/AR", "brand:wikidata": "Q2883441", "brand:wikipedia": "ar:\u0627\u0644\u0628\u0646\u0643 \u0627\u0644\u0634\u0639\u0628\u064a (\u0627\u0644\u0645\u063a\u0631\u0628)", "brand:wikipedia:ar": "\u0627\u0644\u0628\u0646\u0643 \u0627\u0644\u0634\u0639\u0628\u064a (\u0627\u0644\u0645\u063a\u0631\u0628)", "name": "Banque Populaire \u0627\u0644\u0628\u0646\u0643 \u0627\u0644\u0634\u0639\u0628\u064a", "name:ar": "\u0627\u0644\u0628\u0646\u0643 \u0627\u0644\u0634\u0639\u0628\u064a", "name:en": "Banque Populaire", "name:fr": "Banque Populaire", "operator": "\u0627\u0644\u0628\u0646\u0643 \u0627\u0644\u0634\u0639\u0628\u064a", "operator:ar": "\u0627\u0644\u0628\u0646\u0643 \u0627\u0644\u0634\u0639\u0628\u064a", "operator:website": "https://www.groupebcp.com/AR", "operator:wikidata": "Q2883441", "operator:wikipedia": "ar:\u0627\u0644\u0628\u0646\u0643 \u0627\u0644\u0634\u0639\u0628\u064a (\u0627\u0644\u0645\u063a\u0631\u0628)", "operator:wikipedia:ar": "\u0627\u0644\u0628\u0646\u0643 \u0627\u0644\u0634\u0639\u0628\u064a (\u0627\u0644\u0645\u063a\u0631\u0628)"}}, {"type": "node", "id": 4956484124, "lat": 34.0401184, "lon": -4.9902376, "tags": {"addr:street": "Avenue Mohamed Ben Arbi Alaoui", "amenity": "bank", "name": "Banque CIH"}}, {"type": "node", "id": 4969327823, "lat": 34.0270449, "lon": -4.9868611, "tags": {"addr:street": "Bld Dhar Marez", "amenity": "bank", "name": "Wafa cash", "phone": "0535731816"}}, {"type": "node", "id": 4971325124, "lat": 34.0218804, "lon": -5.0114892, "tags": {"addr:street": "Avenue Ibn Al Atir", "amenity": "bank", "name": "Attijariwafa bank"}}, {"type": "node", "id": 4971325327, "lat": 34.0223816, "lon": -5.0130171, "tags": {"addr:street": "Avenue Ibn Al Atir", "amenity": "bank", "name": "Banque BMCE"}}, {"type": "node", "id": 4979189928, "lat": 34.0216127, "lon": -4.9877955, "tags": {"addr:street": "Boulevard Moulay Rachid", "amenity": "bank", "name": "Wafa cash", "source": "Kaart Ground Survey 2018"}}, {"type": "node", "id": 4982300023, "lat": 34.0252866, "lon": -4.9899986, "tags": {"addr:street": "Boulevard Moulay Rachid", "amenity": "bank", "name": "Banque populaire"}}, {"type": "node", "id": 4982434030, "lat": 34.0317925, "lon": -4.9949547, "tags": {"amenity": "bank", "name": "Attijariwafabank"}}, {"type": "node", "id": 4995017922, "lat": 34.0383632, "lon": -5.0051344, "tags": {"alt_name": "\u0627\u0644\u0634\u0631\u0643\u0629 \u0627\u0644\u0639\u0627\u0645\u0629", "alt_name:ar": "\u0627\u0644\u0634\u0631\u0643\u0629 \u0627\u0644\u0639\u0627\u0645\u0629", "amenity": "bank", "brand": "\u0633\u0648\u0633\u064a\u062a\u064a\u0647 \u062c\u0646\u0631\u0627\u0644", "brand:es": "Soci\u00e9t\u00e9 G\u00e9n\u00e9rale", "brand:wikidata": "Q270363", "brand:wikipedia": "ar:\u0633\u0648\u0633\u064a\u062a\u064a\u0647 \u062c\u0646\u0631\u0627\u0644", "brand:wikipedia:es": "Soci\u00e9t\u00e9 G\u00e9n\u00e9rale", "name": "Soci\u00e9t\u00e9 G\u00e9n\u00e9rale \u0633\u0648\u0633\u064a\u062a\u064a\u0647 \u062c\u0646\u0631\u0627\u0644", "name:ar": "\u0633\u0648\u0633\u064a\u062a\u064a\u0647 \u062c\u0646\u0631\u0627\u0644", "name:de": "Soci\u00e9t\u00e9 G\u00e9n\u00e9rale", "name:en": "Soci\u00e9t\u00e9 G\u00e9n\u00e9rale", "name:es": "Soci\u00e9t\u00e9 G\u00e9n\u00e9rale", "name:fr": "Soci\u00e9t\u00e9 G\u00e9n\u00e9rale", "operator": "\u0633\u0648\u0633\u064a\u062a\u064a\u0647 \u062c\u0646\u0631\u0627\u0644", "operator:es": "Soci\u00e9t\u00e9 G\u00e9n\u00e9rale", "operator:wikidata": "Q270363", "operator:wikipedia": "ar:\u0633\u0648\u0633\u064a\u062a\u064a\u0647 \u062c\u0646\u0631\u0627\u0644", "operator:wikipedia:es": "Soci\u00e9t\u00e9 G\u00e9n\u00e9rale"}}, {"type": "node", "id": 4995017923, "lat": 34.0384042, "lon": -5.0052434, "tags": {"amenity": "bank", "name": "Salafin cr\u00e9dit"}}, {"type": "node", "id": 4995065224, "lat": 34.0384977, "lon": -5.0053877, "tags": {"amenity": "bank", "name": "B.M.C.E"}}, {"type": "node", "id": 4996852423, "lat": 34.0186461, "lon": -5.0188418, "tags": {"addr:street": "Route A\u00efn Smen", "amenity": "bank", "branch": "Fes Ennakhil", "name": "Attijariwafa bank"}}, {"type": "node", "id": 4997121524, "lat": 34.018182, "lon": -5.0192005, "tags": {"addr:housenumber": "3", "addr:street": "Route A\u00efn Smen", "amenity": "bank", "name": "Cr\u00e9dit du Maroc"}}, {"type": "node", "id": 5005255624, "lat": 34.0381316, "lon": -5.0048032, "tags": {"amenity": "bank", "name": "Vivais \u0633\u0644\u0641", "name:ar": "\u0633\u0644\u0641", "name:fr": "Vivais"}}, {"type": "node", "id": 5012427922, "lat": 34.018006, "lon": -5.0045404, "tags": {"alt_name:ar": "\u0627\u0644\u0628\u0646\u0643 \u0627\u0644\u0634\u0639\u0628\u064a \u0627\u0644\u0645\u0631\u0643\u0632\u064a", "amenity": "bank", "brand": "\u0627\u0644\u0628\u0646\u0643 \u0627\u0644\u0634\u0639\u0628\u064a", "brand:ar": "\u0627\u0644\u0628\u0646\u0643 \u0627\u0644\u0634\u0639\u0628\u064a", "brand:website": "https://www.groupebcp.com/AR", "brand:wikidata": "Q2883441", "brand:wikipedia": "ar:\u0627\u0644\u0628\u0646\u0643 \u0627\u0644\u0634\u0639\u0628\u064a (\u0627\u0644\u0645\u063a\u0631\u0628)", "brand:wikipedia:ar": "\u0627\u0644\u0628\u0646\u0643 \u0627\u0644\u0634\u0639\u0628\u064a (\u0627\u0644\u0645\u063a\u0631\u0628)", "name": "Banque Populaire \u0627\u0644\u0628\u0646\u0643 \u0627\u0644\u0634\u0639\u0628\u064a", "name:ar": "\u0627\u0644\u0628\u0646\u0643 \u0627\u0644\u0634\u0639\u0628\u064a", "name:en": "Banque Populaire", "name:fr": "Banque Populaire", "operator": "\u0627\u0644\u0628\u0646\u0643 \u0627\u0644\u0634\u0639\u0628\u064a", "operator:ar": "\u0627\u0644\u0628\u0646\u0643 \u0627\u0644\u0634\u0639\u0628\u064a", "operator:website": "https://www.groupebcp.com/AR", "operator:wikidata": "Q2883441", "operator:wikipedia": "ar:\u0627\u0644\u0628\u0646\u0643 \u0627\u0644\u0634\u0639\u0628\u064a (\u0627\u0644\u0645\u063a\u0631\u0628)", "operator:wikipedia:ar": "\u0627\u0644\u0628\u0646\u0643 \u0627\u0644\u0634\u0639\u0628\u064a (\u0627\u0644\u0645\u063a\u0631\u0628)"}}, {"type": "node", "id": 5029654521, "lat": 34.0228903, "lon": -5.0263569, "tags": {"addr:street": "Mohammed 6 Hay Badr", "amenity": "bank", "branch": "Agence Fes Lalla Soukaina", "name": "Attijariwafa bank"}}, {"type": "node", "id": 5029654523, "lat": 34.0241424, "lon": -5.0267765, "tags": {"addr:street": "Mohammed 6 Hay Badr", "amenity": "bank", "branch": "Fes Mohammed 6", "name": "BMCE"}}, {"type": "node", "id": 5043819138, "lat": 34.0199139, "lon": -5.0232574, "tags": {"addr:housenumber": "14 R\u00e9si Ahl Fes", "addr:street": "Mohammed 6 Hay Badr", "amenity": "bank", "brand": "\u0627\u0644\u0628\u0646\u0643 \u0627\u0644\u0645\u063a\u0631\u0628\u064a \u0644\u0644\u062a\u062c\u0627\u0631\u0629 \u0648\u0627\u0644\u0635\u0646\u0627\u0639\u0629", "brand:ar": "\u0627\u0644\u0628\u0646\u0643 \u0627\u0644\u0645\u063a\u0631\u0628\u064a \u0644\u0644\u062a\u062c\u0627\u0631\u0629 \u0648\u0627\u0644\u0635\u0646\u0627\u0639\u0629", "brand:wikidata": "Q2883409", "brand:wikipedia": "ar:\u0627\u0644\u0628\u0646\u0643 \u0627\u0644\u0645\u063a\u0631\u0628\u064a \u0644\u0644\u062a\u062c\u0627\u0631\u0629 \u0648\u0627\u0644\u0635\u0646\u0627\u0639\u0629", "brand:wikipedia:ar": "\u0627\u0644\u0628\u0646\u0643 \u0627\u0644\u0645\u063a\u0631\u0628\u064a \u0644\u0644\u062a\u062c\u0627\u0631\u0629 \u0648\u0627\u0644\u0635\u0646\u0627\u0639\u0629", "name": "BMCI \u0627\u0644\u0628\u0646\u0643 \u0627\u0644\u0645\u063a\u0631\u0628\u064a \u0644\u0644\u062a\u062c\u0627\u0631\u0629 \u0648\u0627\u0644\u0635\u0646\u0627\u0639\u0629", "name:ar": "\u0627\u0644\u0628\u0646\u0643 \u0627\u0644\u0645\u063a\u0631\u0628\u064a \u0644\u0644\u062a\u062c\u0627\u0631\u0629 \u0648\u0627\u0644\u0635\u0646\u0627\u0639\u0629", "name:fr": "BMCI", "operator": "\u0627\u0644\u0628\u0646\u0643 \u0627\u0644\u0645\u063a\u0631\u0628\u064a \u0644\u0644\u062a\u062c\u0627\u0631\u0629 \u0648\u0627\u0644\u0635\u0646\u0627\u0639\u0629", "operator:ar": "\u0627\u0644\u0628\u0646\u0643 \u0627\u0644\u0645\u063a\u0631\u0628\u064a \u0644\u0644\u062a\u062c\u0627\u0631\u0629 \u0648\u0627\u0644\u0635\u0646\u0627\u0639\u0629", "operator:wikidata": "Q499707", "operator:wikipedia": "ar:\u0627\u0644\u0628\u0646\u0643 \u0627\u0644\u0645\u063a\u0631\u0628\u064a \u0644\u0644\u062a\u062c\u0627\u0631\u0629 \u0648\u0627\u0644\u0635\u0646\u0627\u0639\u0629", "operator:wikipedia:ar": "\u0627\u0644\u0628\u0646\u0643 \u0627\u0644\u0645\u063a\u0631\u0628\u064a \u0644\u0644\u062a\u062c\u0627\u0631\u0629 \u0648\u0627\u0644\u0635\u0646\u0627\u0639\u0629"}}, {"type": "node", "id": 5043819140, "lat": 34.0200917, "lon": -5.0235731, "tags": {"addr:housenumber": "18 R\u00e9si Ahl Fes", "addr:street": "Mohammed 6 Hay Badr", "amenity": "bank", "name": "Agence Al Amana Microfinance"}}, {"type": "node", "id": 5043820321, "lat": 34.0235366, "lon": -5.0157866, "tags": {"addr:housenumber": "43 Hay Farah 3", "addr:street": "Route A\u00efn Smen", "amenity": "bank", "branch": "Agence Fes Anass", "brand": "\u0627\u0644\u0628\u0646\u0643 \u0627\u0644\u0645\u063a\u0631\u0628\u064a \u0644\u0644\u062a\u062c\u0627\u0631\u0629 \u0648\u0627\u0644\u0635\u0646\u0627\u0639\u0629", "brand:ar": "\u0627\u0644\u0628\u0646\u0643 \u0627\u0644\u0645\u063a\u0631\u0628\u064a \u0644\u0644\u062a\u062c\u0627\u0631\u0629 \u0648\u0627\u0644\u0635\u0646\u0627\u0639\u0629", "brand:wikidata": "Q2883409", "brand:wikipedia": "ar:\u0627\u0644\u0628\u0646\u0643 \u0627\u0644\u0645\u063a\u0631\u0628\u064a \u0644\u0644\u062a\u062c\u0627\u0631\u0629 \u0648\u0627\u0644\u0635\u0646\u0627\u0639\u0629", "brand:wikipedia:ar": "\u0627\u0644\u0628\u0646\u0643 \u0627\u0644\u0645\u063a\u0631\u0628\u064a \u0644\u0644\u062a\u062c\u0627\u0631\u0629 \u0648\u0627\u0644\u0635\u0646\u0627\u0639\u0629", "name": "BMCI \u0627\u0644\u0628\u0646\u0643 \u0627\u0644\u0645\u063a\u0631\u0628\u064a \u0644\u0644\u062a\u062c\u0627\u0631\u0629 \u0648\u0627\u0644\u0635\u0646\u0627\u0639\u0629", "name:ar": "\u0627\u0644\u0628\u0646\u0643 \u0627\u0644\u0645\u063a\u0631\u0628\u064a \u0644\u0644\u062a\u062c\u0627\u0631\u0629 \u0648\u0627\u0644\u0635\u0646\u0627\u0639\u0629", "name:fr": "BMCI", "operator": "\u0627\u0644\u0628\u0646\u0643 \u0627\u0644\u0645\u063a\u0631\u0628\u064a \u0644\u0644\u062a\u062c\u0627\u0631\u0629 \u0648\u0627\u0644\u0635\u0646\u0627\u0639\u0629", "operator:ar": "\u0627\u0644\u0628\u0646\u0643 \u0627\u0644\u0645\u063a\u0631\u0628\u064a \u0644\u0644\u062a\u062c\u0627\u0631\u0629 \u0648\u0627\u0644\u0635\u0646\u0627\u0639\u0629", "operator:wikidata": "Q499707", "operator:wikipedia": "ar:\u0627\u0644\u0628\u0646\u0643 \u0627\u0644\u0645\u063a\u0631\u0628\u064a \u0644\u0644\u062a\u062c\u0627\u0631\u0629 \u0648\u0627\u0644\u0635\u0646\u0627\u0639\u0629", "operator:wikipedia:ar": "\u0627\u0644\u0628\u0646\u0643 \u0627\u0644\u0645\u063a\u0631\u0628\u064a \u0644\u0644\u062a\u062c\u0627\u0631\u0629 \u0648\u0627\u0644\u0635\u0646\u0627\u0639\u0629"}}, {"type": "node", "id": 5045436427, "lat": 34.0216977, "lon": -5.0252724, "tags": {"addr:street": "Mohammed 6 Hay Badr", "alt_name:ar": "\u0627\u0644\u0628\u0646\u0643 \u0627\u0644\u0634\u0639\u0628\u064a \u0627\u0644\u0645\u0631\u0643\u0632\u064a", "amenity": "bank", "branch": "Agence Mabrouka", "brand": "\u0627\u0644\u0628\u0646\u0643 \u0627\u0644\u0634\u0639\u0628\u064a", "brand:ar": "\u0627\u0644\u0628\u0646\u0643 \u0627\u0644\u0634\u0639\u0628\u064a", "brand:website": "https://www.groupebcp.com/AR", "brand:wikidata": "Q2883441", "brand:wikipedia": "ar:\u0627\u0644\u0628\u0646\u0643 \u0627\u0644\u0634\u0639\u0628\u064a (\u0627\u0644\u0645\u063a\u0631\u0628)", "brand:wikipedia:ar": "\u0627\u0644\u0628\u0646\u0643 \u0627\u0644\u0634\u0639\u0628\u064a (\u0627\u0644\u0645\u063a\u0631\u0628)", "name": "Banque Populaire \u0627\u0644\u0628\u0646\u0643 \u0627\u0644\u0634\u0639\u0628\u064a", "name:ar": "\u0627\u0644\u0628\u0646\u0643 \u0627\u0644\u0634\u0639\u0628\u064a", "name:en": "Banque Populaire", "name:fr": "Banque Populaire", "operator": "\u0627\u0644\u0628\u0646\u0643 \u0627\u0644\u0634\u0639\u0628\u064a", "operator:ar": "\u0627\u0644\u0628\u0646\u0643 \u0627\u0644\u0634\u0639\u0628\u064a", "operator:website": "https://www.groupebcp.com/AR", "operator:wikidata": "Q2883441", "operator:wikipedia": "ar:\u0627\u0644\u0628\u0646\u0643 \u0627\u0644\u0634\u0639\u0628\u064a (\u0627\u0644\u0645\u063a\u0631\u0628)", "operator:wikipedia:ar": "\u0627\u0644\u0628\u0646\u0643 \u0627\u0644\u0634\u0639\u0628\u064a (\u0627\u0644\u0645\u063a\u0631\u0628)"}}, {"type": "node", "id": 5045437628, "lat": 34.0168961, "lon": -5.0171727, "tags": {"addr:street": "Mohammed El Fassi Hay Adarissa", "amenity": "bank", "branch": "Agence Succussa Entreprise", "name": "Attijariwafa bank \u0627\u0644\u062a\u062c\u0627\u0631\u064a \u0648\u0641\u0627 \u0628\u0646\u0643", "name:ar": "\u0627\u0644\u062a\u062c\u0627\u0631\u064a \u0648\u0641\u0627 \u0628\u0646\u0643", "name:fr": "Attijariwafa bank"}}, {"type": "node", "id": 5085510321, "lat": 34.0323521, "lon": -4.9943}, {"type": "node", "id": 5085510421, "lat": 34.0327698, "lon": -4.9944223, "tags": {"alt_name": "\u0627\u0644\u0634\u0631\u0643\u0629 \u0627\u0644\u0639\u0627\u0645\u0629", "alt_name:ar": "\u0627\u0644\u0634\u0631\u0643\u0629 \u0627\u0644\u0639\u0627\u0645\u0629", "amenity": "bank", "atm": "yes", "brand": "\u0633\u0648\u0633\u064a\u062a\u064a\u0647 \u062c\u0646\u0631\u0627\u0644", "brand:es": "Soci\u00e9t\u00e9 G\u00e9n\u00e9rale", "brand:wikidata": "Q270363", "brand:wikipedia": "ar:\u0633\u0648\u0633\u064a\u062a\u064a\u0647 \u062c\u0646\u0631\u0627\u0644", "brand:wikipedia:es": "Soci\u00e9t\u00e9 G\u00e9n\u00e9rale", "name": "Soci\u00e9t\u00e9 G\u00e9n\u00e9rale \u0633\u0648\u0633\u064a\u062a\u064a\u0647 \u062c\u0646\u0631\u0627\u0644", "name:ar": "\u0633\u0648\u0633\u064a\u062a\u064a\u0647 \u062c\u0646\u0631\u0627\u0644", "name:de": "Soci\u00e9t\u00e9 G\u00e9n\u00e9rale", "name:en": "Soci\u00e9t\u00e9 G\u00e9n\u00e9rale", "name:es": "Soci\u00e9t\u00e9 G\u00e9n\u00e9rale", "name:fr": "Soci\u00e9t\u00e9 G\u00e9n\u00e9rale", "operator": "\u0633\u0648\u0633\u064a\u062a\u064a\u0647 \u062c\u0646\u0631\u0627\u0644", "operator:es": "Soci\u00e9t\u00e9 G\u00e9n\u00e9rale", "operator:wikidata": "Q270363", "operator:wikipedia": "ar:\u0633\u0648\u0633\u064a\u062a\u064a\u0647 \u062c\u0646\u0631\u0627\u0644", "operator:wikipedia:es": "Soci\u00e9t\u00e9 G\u00e9n\u00e9rale"}}, {"type": "node", "id": 5095344022, "lat": 33.9943063, "lon": -5.0586606, "tags": {"amenity": "bank", "name": "Wafacash \u0648\u0627\u0641\u0627 \u0643\u0627\u0634", "name:ar": "\u0648\u0627\u0641\u0627 \u0643\u0627\u0634", "name:fr": "Wafacash"}}, {"type": "node", "id": 5095348530, "lat": 33.9942831, "lon": -5.0585271, "tags": {"amenity": "bank", "name": "cr\u00e9dit agricole du maroc", "name:fr": "cr\u00e9dit agricole du maroc"}}, {"type": "node", "id": 5112592324, "lat": 34.0142346, "lon": -5.0024049, "tags": {"addr:street": "Route Ain Chkef", "amenity": "bank", "name": "Cr\u00e9dit t'as lifting Alkawtar"}}, {"type": "node", "id": 5112657222, "lat": 34.0143638, "lon": -5.0030618, "tags": {"addr:street": "Route Ain Chkef", "amenity": "bank", "name": "Banque populaire"}}, {"type": "node", "id": 5116873730, "lat": 34.0317602, "lon": -4.9950953, "tags": {"addr:city": "\u0641\u0627\u0633", "amenity": "bank", "name": "Oumnia bank"}}, {"type": "node", "id": 5122993730, "lat": 34.0294389, "lon": -4.998199, "tags": {"addr:city": "F\u00e8s", "addr:city:ar": "\u0641\u0627\u0633", "addr:city:es": "Fez", "addr:city:fr": "F\u00e8s", "addr:district": "F\u00e8s", "addr:district:ar": "\u0641\u0627\u0633", "addr:district:es": "Fez", "addr:district:fr": "F\u00e8s", "addr:housename": "R\u00e9si El Majd", "addr:housenumber": "4", "addr:street": "Route d'Immouzzer", "amenity": "bank", "name": "CIH Bank Rouen", "note": "Av Roi Houssaine"}}, {"type": "node", "id": 5130442545, "lat": 34.0308673, "lon": -4.9981685, "tags": {"addr:housenumber": "4", "addr:street": "Avenue Roi Houssaine Route d ' Immouzzer Resi Riad", "amenity": "bank", "name": "Sofac Cr\u00e9dit"}}, {"type": "node", "id": 5130510023, "lat": 34.0300512, "lon": -4.9984369, "tags": {"addr:housenumber": "3", "addr:street": "Avenue Roi Houssaine Route d ' Immouzzer Resi Amine", "amenity": "bank", "branch": "Agence Succursale", "name": "BMCI Bank"}}, {"type": "node", "id": 5130544822, "lat": 34.0294081, "lon": -4.9986298, "tags": {"addr:street": "Avenue Roi Houssaine Route d ' Immouzzer Resi Tarik", "amenity": "bank", "name": "Banque Cr\u00e9dit du Maroc"}}, {"type": "node", "id": 5132892823, "lat": 34.0245073, "lon": -4.9976778, "tags": {"alt_name:ar": "\u0627\u0644\u0628\u0646\u0643 \u0627\u0644\u0645\u063a\u0631\u0628\u064a \u0644\u0644\u062a\u062c\u0627\u0631\u0629 \u0627\u0644\u062e\u0627\u0631\u062c\u064a\u0629 \u0644\u0625\u0641\u0631\u064a\u0642\u064a\u0627;\u0628\u0646\u0643 \u0623\u0641\u0631\u064a\u0642\u064a\u0627", "amenity": "bank", "branch": "Agence Fes Route d 'Imouzzer", "brand": "\u0627\u0644\u0628\u0646\u0643 \u0627\u0644\u0645\u063a\u0631\u0628\u064a \u0644\u0644\u062a\u062c\u0627\u0631\u0629 \u0627\u0644\u062e\u0627\u0631\u062c\u064a\u0629", "brand:ar": "\u0627\u0644\u0628\u0646\u0643 \u0627\u0644\u0645\u063a\u0631\u0628\u064a \u0644\u0644\u062a\u062c\u0627\u0631\u0629 \u0627\u0644\u062e\u0627\u0631\u062c\u064a\u0629", "brand:website": "https://www.bankofafrica.ma/ar", "brand:wikidata": "Q2300433", "brand:wikipedia": "ar:\u0627\u0644\u0628\u0646\u0643 \u0627\u0644\u0645\u063a\u0631\u0628\u064a \u0644\u0644\u062a\u062c\u0627\u0631\u0629 \u0627\u0644\u062e\u0627\u0631\u062c\u064a\u0629", "brand:wikipedia:ar": "\u0627\u0644\u0628\u0646\u0643 \u0627\u0644\u0645\u063a\u0631\u0628\u064a \u0644\u0644\u062a\u062c\u0627\u0631\u0629 \u0627\u0644\u062e\u0627\u0631\u062c\u064a\u0629", "name": "BMCE Bank \u0627\u0644\u0628\u0646\u0643 \u0627\u0644\u0645\u063a\u0631\u0628\u064a \u0644\u0644\u062a\u062c\u0627\u0631\u0629 \u0627\u0644\u062e\u0627\u0631\u062c\u064a\u0629", "name:ar": "\u0627\u0644\u0628\u0646\u0643 \u0627\u0644\u0645\u063a\u0631\u0628\u064a \u0644\u0644\u062a\u062c\u0627\u0631\u0629 \u0627\u0644\u062e\u0627\u0631\u062c\u064a\u0629", "name:en": "BMCE Bank", "name:fr": "BMCE Bank", "official_name": "\u0627\u0644\u0628\u0646\u0643 \u0627\u0644\u0645\u063a\u0631\u0628\u064a \u0644\u0644\u062a\u062c\u0627\u0631\u0629 \u0627\u0644\u062e\u0627\u0631\u062c\u064a\u0629", "official_name:ar": "\u0627\u0644\u0628\u0646\u0643 \u0627\u0644\u0645\u063a\u0631\u0628\u064a \u0644\u0644\u062a\u062c\u0627\u0631\u0629 \u0627\u0644\u062e\u0627\u0631\u062c\u064a\u0629", "official_name:en": "Moroccan Bank of Foreign Commerce", "operator": "\u0627\u0644\u0628\u0646\u0643 \u0627\u0644\u0645\u063a\u0631\u0628\u064a \u0644\u0644\u062a\u062c\u0627\u0631\u0629 \u0627\u0644\u062e\u0627\u0631\u062c\u064a\u0629", "operator:ar": "\u0627\u0644\u0628\u0646\u0643 \u0627\u0644\u0645\u063a\u0631\u0628\u064a \u0644\u0644\u062a\u062c\u0627\u0631\u0629 \u0627\u0644\u062e\u0627\u0631\u062c\u064a\u0629", "operator:website": "https://www.bankofafrica.ma/ar", "operator:wikidata": "Q2300433", "operator:wikipedia": "ar:\u0627\u0644\u0628\u0646\u0643 \u0627\u0644\u0645\u063a\u0631\u0628\u064a \u0644\u0644\u062a\u062c\u0627\u0631\u0629 \u0627\u0644\u062e\u0627\u0631\u062c\u064a\u0629", "operator:wikipedia:ar": "\u0627\u0644\u0628\u0646\u0643 \u0627\u0644\u0645\u063a\u0631\u0628\u064a \u0644\u0644\u062a\u062c\u0627\u0631\u0629 \u0627\u0644\u062e\u0627\u0631\u062c\u064a\u0629"}}, {"type": "node", "id": 5132908121, "lat": 34.0243528, "lon": -4.9976348, "tags": {"addr:street": "Avenue Roi Houssaine Route d ' Immouzzer Resi Moulouk", "alt_name:ar": "\u0627\u0644\u0628\u0646\u0643 \u0627\u0644\u0634\u0639\u0628\u064a \u0627\u0644\u0645\u0631\u0643\u0632\u064a", "amenity": "bank", "branch": "Agence Moulouk", "brand": "\u0627\u0644\u0628\u0646\u0643 \u0627\u0644\u0634\u0639\u0628\u064a", "brand:ar": "\u0627\u0644\u0628\u0646\u0643 \u0627\u0644\u0634\u0639\u0628\u064a", "brand:website": "https://www.groupebcp.com/AR", "brand:wikidata": "Q2883441", "brand:wikipedia": "ar:\u0627\u0644\u0628\u0646\u0643 \u0627\u0644\u0634\u0639\u0628\u064a (\u0627\u0644\u0645\u063a\u0631\u0628)", "brand:wikipedia:ar": "\u0627\u0644\u0628\u0646\u0643 \u0627\u0644\u0634\u0639\u0628\u064a (\u0627\u0644\u0645\u063a\u0631\u0628)", "name": "Banque Populaire \u0627\u0644\u0628\u0646\u0643 \u0627\u0644\u0634\u0639\u0628\u064a", "name:ar": "\u0627\u0644\u0628\u0646\u0643 \u0627\u0644\u0634\u0639\u0628\u064a", "name:en": "Banque Populaire", "name:fr": "Banque Populaire", "operator": "\u0627\u0644\u0628\u0646\u0643 \u0627\u0644\u0634\u0639\u0628\u064a", "operator:ar": "\u0627\u0644\u0628\u0646\u0643 \u0627\u0644\u0634\u0639\u0628\u064a", "operator:website": "https://www.groupebcp.com/AR", "operator:wikidata": "Q2883441", "operator:wikipedia": "ar:\u0627\u0644\u0628\u0646\u0643 \u0627\u0644\u0634\u0639\u0628\u064a (\u0627\u0644\u0645\u063a\u0631\u0628)", "operator:wikipedia:ar": "\u0627\u0644\u0628\u0646\u0643 \u0627\u0644\u0634\u0639\u0628\u064a (\u0627\u0644\u0645\u063a\u0631\u0628)"}}, {"type": "node", "id": 5132916622, "lat": 34.0241113, "lon": -4.9975621, "tags": {"addr:street": "Avenue Roi Houssaine Route d ' Immouzzer Resi Nezha", "alt_name": "\u0627\u0644\u0634\u0631\u0643\u0629 \u0627\u0644\u0639\u0627\u0645\u0629", "alt_name:ar": "\u0627\u0644\u0634\u0631\u0643\u0629 \u0627\u0644\u0639\u0627\u0645\u0629", "amenity": "bank", "brand": "\u0633\u0648\u0633\u064a\u062a\u064a\u0647 \u062c\u0646\u0631\u0627\u0644", "brand:es": "Soci\u00e9t\u00e9 G\u00e9n\u00e9rale", "brand:wikidata": "Q270363", "brand:wikipedia": "ar:\u0633\u0648\u0633\u064a\u062a\u064a\u0647 \u062c\u0646\u0631\u0627\u0644", "brand:wikipedia:es": "Soci\u00e9t\u00e9 G\u00e9n\u00e9rale", "name": "Soci\u00e9t\u00e9 G\u00e9n\u00e9rale \u0633\u0648\u0633\u064a\u062a\u064a\u0647 \u062c\u0646\u0631\u0627\u0644", "name:ar": "\u0633\u0648\u0633\u064a\u062a\u064a\u0647 \u062c\u0646\u0631\u0627\u0644", "name:de": "Soci\u00e9t\u00e9 G\u00e9n\u00e9rale", "name:en": "Soci\u00e9t\u00e9 G\u00e9n\u00e9rale", "name:es": "Soci\u00e9t\u00e9 G\u00e9n\u00e9rale", "name:fr": "Soci\u00e9t\u00e9 G\u00e9n\u00e9rale", "operator": "\u0633\u0648\u0633\u064a\u062a\u064a\u0647 \u062c\u0646\u0631\u0627\u0644", "operator:es": "Soci\u00e9t\u00e9 G\u00e9n\u00e9rale", "operator:wikidata": "Q270363", "operator:wikipedia": "ar:\u0633\u0648\u0633\u064a\u062a\u064a\u0647 \u062c\u0646\u0631\u0627\u0644", "operator:wikipedia:es": "Soci\u00e9t\u00e9 G\u00e9n\u00e9rale"}}, {"type": "node", "id": 5147303722, "lat": 34.0269637, "lon": -4.9941936, "tags": {"addr:street": "Avenue My Hicham Hay Bouramana", "amenity": "bank", "branch": "Agence Fes Bouramana", "name": "Cr\u00e9dit Agricole"}}, {"type": "node", "id": 5149570524, "lat": 34.0244202, "lon": -4.9968979, "tags": {"addr:street": "Avenue Ibn Khatib Route d ' Immouzzer", "amenity": "bank", "branch": "Fes Ibn El Khatib", "name": "Attijariwafa bank"}}, {"type": "node", "id": 5172646725, "lat": 34.0451006, "lon": -4.9972223, "tags": {"addr:street": "Avenue lalla Hasnae", "amenity": "bank", "name": "Wafa cash"}}, {"type": "node", "id": 5173841424, "lat": 34.0134428, "lon": -4.9817402, "tags": {"addr:street": "Avenue My Rachid Route de Sefrou Lotis Ouafae 1", "amenity": "bank", "branch": "Agence Route de Sefrou", "name": "Attijariwafa bank"}}, {"type": "node", "id": 5173841425, "lat": 34.0133192, "lon": -4.9816366, "tags": {"addr:housenumber": "82", "addr:street": "Avenue My Rachid Route de Sefrou Lotis Ouafae 1", "amenity": "bank", "branch": "Agence Fes Route de Sefrou", "name": "Bank Assafa"}}, {"type": "node", "id": 5173850521, "lat": 34.0192014, "lon": -4.9862374, "tags": {"addr:street": "Avenue My Rachid Route de Sefrou Narjis A", "amenity": "bank", "branch": "Fes Les Tulipes", "name": "BMCE"}}, {"type": "node", "id": 5173850526, "lat": 34.014247, "lon": -4.982253, "tags": {"addr:street": "Avenue My Rachid Route de Sefrou Narjis A Lotis Amine", "alt_name:ar": "\u0627\u0644\u0628\u0646\u0643 \u0627\u0644\u0634\u0639\u0628\u064a \u0627\u0644\u0645\u0631\u0643\u0632\u064a", "amenity": "bank", "branch": "Agence Saiss", "brand": "\u0627\u0644\u0628\u0646\u0643 \u0627\u0644\u0634\u0639\u0628\u064a", "brand:ar": "\u0627\u0644\u0628\u0646\u0643 \u0627\u0644\u0634\u0639\u0628\u064a", "brand:website": "https://www.groupebcp.com/AR", "brand:wikidata": "Q2883441", "brand:wikipedia": "ar:\u0627\u0644\u0628\u0646\u0643 \u0627\u0644\u0634\u0639\u0628\u064a (\u0627\u0644\u0645\u063a\u0631\u0628)", "brand:wikipedia:ar": "\u0627\u0644\u0628\u0646\u0643 \u0627\u0644\u0634\u0639\u0628\u064a (\u0627\u0644\u0645\u063a\u0631\u0628)", "name": "Banque Populaire \u0627\u0644\u0628\u0646\u0643 \u0627\u0644\u0634\u0639\u0628\u064a", "name:ar": "\u0627\u0644\u0628\u0646\u0643 \u0627\u0644\u0634\u0639\u0628\u064a", "name:en": "Banque Populaire", "name:fr": "Banque Populaire", "operator": "\u0627\u0644\u0628\u0646\u0643 \u0627\u0644\u0634\u0639\u0628\u064a", "operator:ar": "\u0627\u0644\u0628\u0646\u0643 \u0627\u0644\u0634\u0639\u0628\u064a", "operator:website": "https://www.groupebcp.com/AR", "operator:wikidata": "Q2883441", "operator:wikipedia": "ar:\u0627\u0644\u0628\u0646\u0643 \u0627\u0644\u0634\u0639\u0628\u064a (\u0627\u0644\u0645\u063a\u0631\u0628)", "operator:wikipedia:ar": "\u0627\u0644\u0628\u0646\u0643 \u0627\u0644\u0634\u0639\u0628\u064a (\u0627\u0644\u0645\u063a\u0631\u0628)"}}, {"type": "node", "id": 5173850531, "lat": 34.011996, "lon": -4.9806646, "tags": {"addr:housenumber": "148", "addr:street": "Avenue My Rachid Route de Sefrou Lotis Ouafae 1", "alt_name": "\u0627\u0644\u0634\u0631\u0643\u0629 \u0627\u0644\u0639\u0627\u0645\u0629", "alt_name:ar": "\u0627\u0644\u0634\u0631\u0643\u0629 \u0627\u0644\u0639\u0627\u0645\u0629", "amenity": "bank", "brand": "\u0633\u0648\u0633\u064a\u062a\u064a\u0647 \u062c\u0646\u0631\u0627\u0644", "brand:es": "Soci\u00e9t\u00e9 G\u00e9n\u00e9rale", "brand:wikidata": "Q270363", "brand:wikipedia": "ar:\u0633\u0648\u0633\u064a\u062a\u064a\u0647 \u062c\u0646\u0631\u0627\u0644", "brand:wikipedia:es": "Soci\u00e9t\u00e9 G\u00e9n\u00e9rale", "name": "Soci\u00e9t\u00e9 G\u00e9n\u00e9rale \u0633\u0648\u0633\u064a\u062a\u064a\u0647 \u062c\u0646\u0631\u0627\u0644", "name:ar": "\u0633\u0648\u0633\u064a\u062a\u064a\u0647 \u062c\u0646\u0631\u0627\u0644", "name:de": "Soci\u00e9t\u00e9 G\u00e9n\u00e9rale", "name:en": "Soci\u00e9t\u00e9 G\u00e9n\u00e9rale", "name:es": "Soci\u00e9t\u00e9 G\u00e9n\u00e9rale", "name:fr": "Soci\u00e9t\u00e9 G\u00e9n\u00e9rale", "operator": "\u0633\u0648\u0633\u064a\u062a\u064a\u0647 \u062c\u0646\u0631\u0627\u0644", "operator:es": "Soci\u00e9t\u00e9 G\u00e9n\u00e9rale", "operator:wikidata": "Q270363", "operator:wikipedia": "ar:\u0633\u0648\u0633\u064a\u062a\u064a\u0647 \u062c\u0646\u0631\u0627\u0644", "operator:wikipedia:es": "Soci\u00e9t\u00e9 G\u00e9n\u00e9rale"}}, {"type": "node", "id": 5173850621, "lat": 34.0185812, "lon": -4.9857739, "tags": {"addr:street": "Avenue My Rachid Route de Sefrou Narjis A", "amenity": "bank", "branch": "Fes My Rachid Avenue", "name": "Attijariwafa bank"}}, {"type": "node", "id": 5174575621, "lat": 34.0098529, "lon": -4.9789517, "tags": {"addr:housenumber": "186", "addr:street": "Avenue My Rachid Route de Sefrou Lotis Ouafae 1", "amenity": "bank", "name": "Banque Cr\u00e9dit du Maroc"}}, {"type": "node", "id": 5176118322, "lat": 34.0432741, "lon": -4.9984984, "tags": {"addr:street": "Avenue Hassan II", "amenity": "bank", "brand": "\u0627\u0644\u0628\u0646\u0643 \u0627\u0644\u0645\u063a\u0631\u0628\u064a \u0644\u0644\u062a\u062c\u0627\u0631\u0629 \u0648\u0627\u0644\u0635\u0646\u0627\u0639\u0629", "brand:ar": "\u0627\u0644\u0628\u0646\u0643 \u0627\u0644\u0645\u063a\u0631\u0628\u064a \u0644\u0644\u062a\u062c\u0627\u0631\u0629 \u0648\u0627\u0644\u0635\u0646\u0627\u0639\u0629", "brand:wikidata": "Q2883409", "brand:wikipedia": "ar:\u0627\u0644\u0628\u0646\u0643 \u0627\u0644\u0645\u063a\u0631\u0628\u064a \u0644\u0644\u062a\u062c\u0627\u0631\u0629 \u0648\u0627\u0644\u0635\u0646\u0627\u0639\u0629", "brand:wikipedia:ar": "\u0627\u0644\u0628\u0646\u0643 \u0627\u0644\u0645\u063a\u0631\u0628\u064a \u0644\u0644\u062a\u062c\u0627\u0631\u0629 \u0648\u0627\u0644\u0635\u0646\u0627\u0639\u0629", "name": "BMCI \u0627\u0644\u0628\u0646\u0643 \u0627\u0644\u0645\u063a\u0631\u0628\u064a \u0644\u0644\u062a\u062c\u0627\u0631\u0629 \u0648\u0627\u0644\u0635\u0646\u0627\u0639\u0629", "name:ar": "\u0627\u0644\u0628\u0646\u0643 \u0627\u0644\u0645\u063a\u0631\u0628\u064a \u0644\u0644\u062a\u062c\u0627\u0631\u0629 \u0648\u0627\u0644\u0635\u0646\u0627\u0639\u0629", "name:fr": "BMCI", "operator": "\u0627\u0644\u0628\u0646\u0643 \u0627\u0644\u0645\u063a\u0631\u0628\u064a \u0644\u0644\u062a\u062c\u0627\u0631\u0629 \u0648\u0627\u0644\u0635\u0646\u0627\u0639\u0629", "operator:ar": "\u0627\u0644\u0628\u0646\u0643 \u0627\u0644\u0645\u063a\u0631\u0628\u064a \u0644\u0644\u062a\u062c\u0627\u0631\u0629 \u0648\u0627\u0644\u0635\u0646\u0627\u0639\u0629", "operator:wikidata": "Q499707", "operator:wikipedia": "ar:\u0627\u0644\u0628\u0646\u0643 \u0627\u0644\u0645\u063a\u0631\u0628\u064a \u0644\u0644\u062a\u062c\u0627\u0631\u0629 \u0648\u0627\u0644\u0635\u0646\u0627\u0639\u0629", "operator:wikipedia:ar": "\u0627\u0644\u0628\u0646\u0643 \u0627\u0644\u0645\u063a\u0631\u0628\u064a \u0644\u0644\u062a\u062c\u0627\u0631\u0629 \u0648\u0627\u0644\u0635\u0646\u0627\u0639\u0629"}}, {"type": "node", "id": 5188167722, "lat": 34.0166073, "lon": -4.9780324, "tags": {"amenity": "bank", "name": "Cr\u00e9dit Agricole"}}, {"type": "node", "id": 5194884628, "lat": 34.0118421, "lon": -4.9811124, "tags": {"addr:street": "Avenue My Rachid Route de Sefrou Zohor 1 Resi Mehdi 3", "amenity": "bank", "branch": "Agence Fes Saiss", "brand": "\u0627\u0644\u0628\u0646\u0643 \u0627\u0644\u0645\u063a\u0631\u0628\u064a \u0644\u0644\u062a\u062c\u0627\u0631\u0629 \u0648\u0627\u0644\u0635\u0646\u0627\u0639\u0629", "brand:ar": "\u0627\u0644\u0628\u0646\u0643 \u0627\u0644\u0645\u063a\u0631\u0628\u064a \u0644\u0644\u062a\u062c\u0627\u0631\u0629 \u0648\u0627\u0644\u0635\u0646\u0627\u0639\u0629", "brand:wikidata": "Q2883409", "brand:wikipedia": "ar:\u0627\u0644\u0628\u0646\u0643 \u0627\u0644\u0645\u063a\u0631\u0628\u064a \u0644\u0644\u062a\u062c\u0627\u0631\u0629 \u0648\u0627\u0644\u0635\u0646\u0627\u0639\u0629", "brand:wikipedia:ar": "\u0627\u0644\u0628\u0646\u0643 \u0627\u0644\u0645\u063a\u0631\u0628\u064a \u0644\u0644\u062a\u062c\u0627\u0631\u0629 \u0648\u0627\u0644\u0635\u0646\u0627\u0639\u0629", "name": "BMCI \u0627\u0644\u0628\u0646\u0643 \u0627\u0644\u0645\u063a\u0631\u0628\u064a \u0644\u0644\u062a\u062c\u0627\u0631\u0629 \u0648\u0627\u0644\u0635\u0646\u0627\u0639\u0629", "name:ar": "\u0627\u0644\u0628\u0646\u0643 \u0627\u0644\u0645\u063a\u0631\u0628\u064a \u0644\u0644\u062a\u062c\u0627\u0631\u0629 \u0648\u0627\u0644\u0635\u0646\u0627\u0639\u0629", "name:fr": "BMCI", "operator": "\u0627\u0644\u0628\u0646\u0643 \u0627\u0644\u0645\u063a\u0631\u0628\u064a \u0644\u0644\u062a\u062c\u0627\u0631\u0629 \u0648\u0627\u0644\u0635\u0646\u0627\u0639\u0629", "operator:ar": "\u0627\u0644\u0628\u0646\u0643 \u0627\u0644\u0645\u063a\u0631\u0628\u064a \u0644\u0644\u062a\u062c\u0627\u0631\u0629 \u0648\u0627\u0644\u0635\u0646\u0627\u0639\u0629", "operator:wikidata": "Q499707", "operator:wikipedia": "ar:\u0627\u0644\u0628\u0646\u0643 \u0627\u0644\u0645\u063a\u0631\u0628\u064a \u0644\u0644\u062a\u062c\u0627\u0631\u0629 \u0648\u0627\u0644\u0635\u0646\u0627\u0639\u0629", "operator:wikipedia:ar": "\u0627\u0644\u0628\u0646\u0643 \u0627\u0644\u0645\u063a\u0631\u0628\u064a \u0644\u0644\u062a\u062c\u0627\u0631\u0629 \u0648\u0627\u0644\u0635\u0646\u0627\u0639\u0629"}}, {"type": "node", "id": 5194884631, "lat": 34.0086806, "lon": -4.9787469, "tags": {"addr:housenumber": "261", "addr:street": "Avenue My Rachid Route de Sefrou Zohor 2 Resi Saiss", "amenity": "bank", "brand": "Agence Fes Saiss", "name": "Attijariwafa bank"}}, {"type": "node", "id": 5194917425, "lat": 34.0176861, "lon": -4.9855521, "tags": {"addr:housenumber": "17", "addr:street": "Avenue My Rachid Route de Sefrou Zohor 1", "alt_name": "\u0627\u0644\u0634\u0631\u0643\u0629 \u0627\u0644\u0639\u0627\u0645\u0629", "alt_name:ar": "\u0627\u0644\u0634\u0631\u0643\u0629 \u0627\u0644\u0639\u0627\u0645\u0629", "amenity": "bank", "brand": "\u0633\u0648\u0633\u064a\u062a\u064a\u0647 \u062c\u0646\u0631\u0627\u0644", "brand:es": "Soci\u00e9t\u00e9 G\u00e9n\u00e9rale", "brand:wikidata": "Q270363", "brand:wikipedia": "ar:\u0633\u0648\u0633\u064a\u062a\u064a\u0647 \u062c\u0646\u0631\u0627\u0644", "brand:wikipedia:es": "Soci\u00e9t\u00e9 G\u00e9n\u00e9rale", "name": "Soci\u00e9t\u00e9 G\u00e9n\u00e9rale \u0633\u0648\u0633\u064a\u062a\u064a\u0647 \u062c\u0646\u0631\u0627\u0644", "name:ar": "\u0633\u0648\u0633\u064a\u062a\u064a\u0647 \u062c\u0646\u0631\u0627\u0644", "name:de": "Soci\u00e9t\u00e9 G\u00e9n\u00e9rale", "name:en": "Soci\u00e9t\u00e9 G\u00e9n\u00e9rale", "name:es": "Soci\u00e9t\u00e9 G\u00e9n\u00e9rale", "name:fr": "Soci\u00e9t\u00e9 G\u00e9n\u00e9rale", "operator": "\u0633\u0648\u0633\u064a\u062a\u064a\u0647 \u062c\u0646\u0631\u0627\u0644", "operator:es": "Soci\u00e9t\u00e9 G\u00e9n\u00e9rale", "operator:wikidata": "Q270363", "operator:wikipedia": "ar:\u0633\u0648\u0633\u064a\u062a\u064a\u0647 \u062c\u0646\u0631\u0627\u0644", "operator:wikipedia:es": "Soci\u00e9t\u00e9 G\u00e9n\u00e9rale"}}, {"type": "node", "id": 5194917445, "lat": 34.0089, "lon": -4.9790479, "tags": {"addr:housenumber": "249", "addr:street": "Avenue My Rachid Route de Sefrou Zohor 2 Lotis Iraki", "alt_name:ar": "\u0627\u0644\u0628\u0646\u0643 \u0627\u0644\u0639\u0642\u0627\u0631\u064a \u0648\u0627\u0644\u0633\u064a\u0627\u062d\u064a", "amenity": "bank", "brand": "\u0627\u0644\u0642\u0631\u0636 \u0627\u0644\u0639\u0642\u0627\u0631\u064a \u0648\u0627\u0644\u0633\u064a\u0627\u062d\u064a", "brand:ar": "\u0627\u0644\u0642\u0631\u0636 \u0627\u0644\u0639\u0642\u0627\u0631\u064a \u0648\u0627\u0644\u0633\u064a\u0627\u062d\u064a", "brand:website": "https://www.cihbank.ma/ar/", "brand:wikidata": "Q3006220", "brand:wikipedia": "ar:\u0627\u0644\u0642\u0631\u0636 \u0627\u0644\u0639\u0642\u0627\u0631\u064a \u0648\u0627\u0644\u0633\u064a\u0627\u062d\u064a", "brand:wikipedia:ar": "\u0627\u0644\u0642\u0631\u0636 \u0627\u0644\u0639\u0642\u0627\u0631\u064a \u0648\u0627\u0644\u0633\u064a\u0627\u062d\u064a", "name": "CIH Bank \u0627\u0644\u0642\u0631\u0636 \u0627\u0644\u0639\u0642\u0627\u0631\u064a \u0648\u0627\u0644\u0633\u064a\u0627\u062d\u064a", "name:ar": "\u0627\u0644\u0642\u0631\u0636 \u0627\u0644\u0639\u0642\u0627\u0631\u064a \u0648\u0627\u0644\u0633\u064a\u0627\u062d\u064a", "name:en": "CIH Bank", "name:fr": "CIH Bank", "operator": "\u0627\u0644\u0642\u0631\u0636 \u0627\u0644\u0639\u0642\u0627\u0631\u064a \u0648\u0627\u0644\u0633\u064a\u0627\u062d\u064a", "operator:ar": "\u0627\u0644\u0642\u0631\u0636 \u0627\u0644\u0639\u0642\u0627\u0631\u064a \u0648\u0627\u0644\u0633\u064a\u0627\u062d\u064a", "operator:website": "https://www.cihbank.ma/ar/", "operator:wikidata": "Q3006220", "operator:wikipedia": "ar:\u0627\u0644\u0642\u0631\u0636 \u0627\u0644\u0639\u0642\u0627\u0631\u064a \u0648\u0627\u0644\u0633\u064a\u0627\u062d\u064a", "operator:wikipedia:ar": "\u0627\u0644\u0642\u0631\u0636 \u0627\u0644\u0639\u0642\u0627\u0631\u064a \u0648\u0627\u0644\u0633\u064a\u0627\u062d\u064a"}}, {"type": "node", "id": 5201960121, "lat": 34.0164623, "lon": -4.977263, "tags": {"amenity": "bank", "name": "Attijariwafabank"}}, {"type": "node", "id": 5207351521, "lat": 34.017316, "lon": -4.988709, "tags": {"addr:housenumber": "106", "addr:street": "Avenue Abi Horaira Zohor 1", "alt_name:ar": "\u0627\u0644\u0628\u0646\u0643 \u0627\u0644\u0634\u0639\u0628\u064a \u0627\u0644\u0645\u0631\u0643\u0632\u064a", "amenity": "bank", "branch": "Agence Zohour", "brand": "\u0627\u0644\u0628\u0646\u0643 \u0627\u0644\u0634\u0639\u0628\u064a", "brand:ar": "\u0627\u0644\u0628\u0646\u0643 \u0627\u0644\u0634\u0639\u0628\u064a", "brand:website": "https://www.groupebcp.com/AR", "brand:wikidata": "Q2883441", "brand:wikipedia": "ar:\u0627\u0644\u0628\u0646\u0643 \u0627\u0644\u0634\u0639\u0628\u064a (\u0627\u0644\u0645\u063a\u0631\u0628)", "brand:wikipedia:ar": "\u0627\u0644\u0628\u0646\u0643 \u0627\u0644\u0634\u0639\u0628\u064a (\u0627\u0644\u0645\u063a\u0631\u0628)", "name": "Banque Populaire \u0627\u0644\u0628\u0646\u0643 \u0627\u0644\u0634\u0639\u0628\u064a", "name:ar": "\u0627\u0644\u0628\u0646\u0643 \u0627\u0644\u0634\u0639\u0628\u064a", "name:en": "Banque Populaire", "name:fr": "Banque Populaire", "operator": "\u0627\u0644\u0628\u0646\u0643 \u0627\u0644\u0634\u0639\u0628\u064a", "operator:ar": "\u0627\u0644\u0628\u0646\u0643 \u0627\u0644\u0634\u0639\u0628\u064a", "operator:website": "https://www.groupebcp.com/AR", "operator:wikidata": "Q2883441", "operator:wikipedia": "ar:\u0627\u0644\u0628\u0646\u0643 \u0627\u0644\u0634\u0639\u0628\u064a (\u0627\u0644\u0645\u063a\u0631\u0628)", "operator:wikipedia:ar": "\u0627\u0644\u0628\u0646\u0643 \u0627\u0644\u0634\u0639\u0628\u064a (\u0627\u0644\u0645\u063a\u0631\u0628)"}}, {"type": "node", "id": 5215980026, "lat": 34.0139933, "lon": -4.9817576, "tags": {"amenity": "bank", "name": "BMCE"}}, {"type": "node", "id": 5217809633, "lat": 34.0158779, "lon": -4.9860456, "tags": {"alt_name:ar": "\u0627\u0644\u0628\u0646\u0643 \u0627\u0644\u0645\u063a\u0631\u0628\u064a \u0644\u0644\u062a\u062c\u0627\u0631\u0629 \u0627\u0644\u062e\u0627\u0631\u062c\u064a\u0629 \u0644\u0625\u0641\u0631\u064a\u0642\u064a\u0627;\u0628\u0646\u0643 \u0623\u0641\u0631\u064a\u0642\u064a\u0627", "amenity": "bank", "branch": "Agence Mont Fleuri", "brand": "\u0627\u0644\u0628\u0646\u0643 \u0627\u0644\u0645\u063a\u0631\u0628\u064a \u0644\u0644\u062a\u062c\u0627\u0631\u0629 \u0627\u0644\u062e\u0627\u0631\u062c\u064a\u0629", "brand:ar": "\u0627\u0644\u0628\u0646\u0643 \u0627\u0644\u0645\u063a\u0631\u0628\u064a \u0644\u0644\u062a\u062c\u0627\u0631\u0629 \u0627\u0644\u062e\u0627\u0631\u062c\u064a\u0629", "brand:website": "https://www.bankofafrica.ma/ar", "brand:wikidata": "Q2300433", "brand:wikipedia": "ar:\u0627\u0644\u0628\u0646\u0643 \u0627\u0644\u0645\u063a\u0631\u0628\u064a \u0644\u0644\u062a\u062c\u0627\u0631\u0629 \u0627\u0644\u062e\u0627\u0631\u062c\u064a\u0629", "brand:wikipedia:ar": "\u0627\u0644\u0628\u0646\u0643 \u0627\u0644\u0645\u063a\u0631\u0628\u064a \u0644\u0644\u062a\u062c\u0627\u0631\u0629 \u0627\u0644\u062e\u0627\u0631\u062c\u064a\u0629", "name": "BMCE Bank \u0627\u0644\u0628\u0646\u0643 \u0627\u0644\u0645\u063a\u0631\u0628\u064a \u0644\u0644\u062a\u062c\u0627\u0631\u0629 \u0627\u0644\u062e\u0627\u0631\u062c\u064a\u0629", "name:ar": "\u0627\u0644\u0628\u0646\u0643 \u0627\u0644\u0645\u063a\u0631\u0628\u064a \u0644\u0644\u062a\u062c\u0627\u0631\u0629 \u0627\u0644\u062e\u0627\u0631\u062c\u064a\u0629", "name:en": "BMCE Bank", "name:fr": "BMCE Bank", "official_name": "\u0627\u0644\u0628\u0646\u0643 \u0627\u0644\u0645\u063a\u0631\u0628\u064a \u0644\u0644\u062a\u062c\u0627\u0631\u0629 \u0627\u0644\u062e\u0627\u0631\u062c\u064a\u0629", "official_name:ar": "\u0627\u0644\u0628\u0646\u0643 \u0627\u0644\u0645\u063a\u0631\u0628\u064a \u0644\u0644\u062a\u062c\u0627\u0631\u0629 \u0627\u0644\u062e\u0627\u0631\u062c\u064a\u0629", "official_name:en": "Moroccan Bank of Foreign Commerce", "operator": "\u0627\u0644\u0628\u0646\u0643 \u0627\u0644\u0645\u063a\u0631\u0628\u064a \u0644\u0644\u062a\u062c\u0627\u0631\u0629 \u0627\u0644\u062e\u0627\u0631\u062c\u064a\u0629", "operator:ar": "\u0627\u0644\u0628\u0646\u0643 \u0627\u0644\u0645\u063a\u0631\u0628\u064a \u0644\u0644\u062a\u062c\u0627\u0631\u0629 \u0627\u0644\u062e\u0627\u0631\u062c\u064a\u0629", "operator:website": "https://www.bankofafrica.ma/ar", "operator:wikidata": "Q2300433", "operator:wikipedia": "ar:\u0627\u0644\u0628\u0646\u0643 \u0627\u0644\u0645\u063a\u0631\u0628\u064a \u0644\u0644\u062a\u062c\u0627\u0631\u0629 \u0627\u0644\u062e\u0627\u0631\u062c\u064a\u0629", "operator:wikipedia:ar": "\u0627\u0644\u0628\u0646\u0643 \u0627\u0644\u0645\u063a\u0631\u0628\u064a \u0644\u0644\u062a\u062c\u0627\u0631\u0629 \u0627\u0644\u062e\u0627\u0631\u062c\u064a\u0629"}}, {"type": "node", "id": 5220186722, "lat": 34.0137228, "lon": -4.986234, "tags": {"addr:housenumber": "167", "addr:street": "Avenue Karama Zohour 1", "alt_name:ar": "\u0627\u0644\u0628\u0646\u0643 \u0627\u0644\u0634\u0639\u0628\u064a \u0627\u0644\u0645\u0631\u0643\u0632\u064a", "amenity": "bank", "branch": "Agence Karama", "brand": "\u0627\u0644\u0628\u0646\u0643 \u0627\u0644\u0634\u0639\u0628\u064a", "brand:ar": "\u0627\u0644\u0628\u0646\u0643 \u0627\u0644\u0634\u0639\u0628\u064a", "brand:website": "https://www.groupebcp.com/AR", "brand:wikidata": "Q2883441", "brand:wikipedia": "ar:\u0627\u0644\u0628\u0646\u0643 \u0627\u0644\u0634\u0639\u0628\u064a (\u0627\u0644\u0645\u063a\u0631\u0628)", "brand:wikipedia:ar": "\u0627\u0644\u0628\u0646\u0643 \u0627\u0644\u0634\u0639\u0628\u064a (\u0627\u0644\u0645\u063a\u0631\u0628)", "name": "Banque Populaire \u0627\u0644\u0628\u0646\u0643 \u0627\u0644\u0634\u0639\u0628\u064a", "name:ar": "\u0627\u0644\u0628\u0646\u0643 \u0627\u0644\u0634\u0639\u0628\u064a", "name:en": "Banque Populaire", "name:fr": "Banque Populaire", "operator": "\u0627\u0644\u0628\u0646\u0643 \u0627\u0644\u0634\u0639\u0628\u064a", "operator:ar": "\u0627\u0644\u0628\u0646\u0643 \u0627\u0644\u0634\u0639\u0628\u064a", "operator:website": "https://www.groupebcp.com/AR", "operator:wikidata": "Q2883441", "operator:wikipedia": "ar:\u0627\u0644\u0628\u0646\u0643 \u0627\u0644\u0634\u0639\u0628\u064a (\u0627\u0644\u0645\u063a\u0631\u0628)", "operator:wikipedia:ar": "\u0627\u0644\u0628\u0646\u0643 \u0627\u0644\u0634\u0639\u0628\u064a (\u0627\u0644\u0645\u063a\u0631\u0628)"}}, {"type": "node", "id": 5226244022, "lat": 34.0133871, "lon": -5.0028379, "tags": {"addr:street": "Route Imouzer", "amenity": "bank", "name": "Attijariwafabank"}}, {"type": "node", "id": 5228040721, "lat": 34.013851, "lon": -5.0025022, "tags": {"addr:street": "Mohammed El Fassi", "amenity": "bank", "name": "BMCE BANK"}}, {"type": "node", "id": 5228043821, "lat": 34.0098964, "lon": -4.9779007, "tags": {"amenity": "bank", "name": "BMCE BANK"}}, {"type": "node", "id": 5231444737, "lat": 34.0113162, "lon": -4.9891054, "tags": {"addr:street": "Avenue Karama et Avenue Oran Zohour 1", "amenity": "bank", "branch": "Fes Mont Fleurie", "name": "Attijariwafa bank"}}, {"type": "node", "id": 5232481525, "lat": 34.0138922, "lon": -4.9713548, "tags": {"amenity": "bank", "name": "BMCI BANK"}}, {"type": "node", "id": 5232492422, "lat": 34.0135093, "lon": -4.9720038, "tags": {"amenity": "bank", "name": "Soci\u00e9t\u00e9 G\u00e9n\u00e9rale banque"}}, {"type": "node", "id": 5232558021, "lat": 34.0130226, "lon": -4.9729576, "tags": {"amenity": "bank", "name": "Cr\u00e9dit du Maroc"}}, {"type": "node", "id": 5239189522, "lat": 34.0225365, "lon": -4.988802, "tags": {"addr:street": "Boulevard Moulay Rachid", "amenity": "bank", "name": "Attijariwafa bank"}}, {"type": "node", "id": 5239335927, "lat": 34.0079968, "lon": -4.9645523, "tags": {"addr:street": "Route du parc Fes-Shore", "amenity": "bank", "name": "BMCE"}}, {"type": "node", "id": 5240878422, "lat": 34.0086188, "lon": -4.9631844, "tags": {"addr:street": "Route du parc Fes-Shore", "amenity": "bank", "name": "Cr\u00e9dit Agricole"}}, {"type": "node", "id": 5240927321, "lat": 34.0095081, "lon": -4.9614506, "tags": {"addr:street": "Route du parc Fes-Shore", "amenity": "bank", "name": "Banque populaire"}}, {"type": "node", "id": 5240940921, "lat": 34.010044, "lon": -4.9783427, "tags": {"amenity": "bank", "name": "Banque populaire"}}, {"type": "node", "id": 5242511722, "lat": 34.037, "lon": -5.0133698, "tags": {"addr:street": "Av Omar Ibn Al Khattab", "amenity": "bank", "name": "Attiraiwafabank"}}, {"type": "node", "id": 5242511824, "lat": 34.0366728, "lon": -5.0138476, "tags": {"addr:street": "Av Omar Ibn Al Khattab", "amenity": "bank", "name": "BMCE BANK"}}, {"type": "node", "id": 5250353621, "lat": 34.0108512, "lon": -4.96603, "tags": {"addr:street": "Al Madina Mounawara", "alt_name:ar": "\u0627\u0644\u0628\u0646\u0643 \u0627\u0644\u0634\u0639\u0628\u064a \u0627\u0644\u0645\u0631\u0643\u0632\u064a", "amenity": "bank", "brand": "\u0627\u0644\u0628\u0646\u0643 \u0627\u0644\u0634\u0639\u0628\u064a", "brand:ar": "\u0627\u0644\u0628\u0646\u0643 \u0627\u0644\u0634\u0639\u0628\u064a", "brand:website": "https://www.groupebcp.com/AR", "brand:wikidata": "Q2883441", "brand:wikipedia": "ar:\u0627\u0644\u0628\u0646\u0643 \u0627\u0644\u0634\u0639\u0628\u064a (\u0627\u0644\u0645\u063a\u0631\u0628)", "brand:wikipedia:ar": "\u0627\u0644\u0628\u0646\u0643 \u0627\u0644\u0634\u0639\u0628\u064a (\u0627\u0644\u0645\u063a\u0631\u0628)", "name": "Banque Populaire \u0627\u0644\u0628\u0646\u0643 \u0627\u0644\u0634\u0639\u0628\u064a", "name:ar": "\u0627\u0644\u0628\u0646\u0643 \u0627\u0644\u0634\u0639\u0628\u064a", "name:en": "Banque Populaire", "name:fr": "Banque Populaire", "operator": "\u0627\u0644\u0628\u0646\u0643 \u0627\u0644\u0634\u0639\u0628\u064a", "operator:ar": "\u0627\u0644\u0628\u0646\u0643 \u0627\u0644\u0634\u0639\u0628\u064a", "operator:website": "https://www.groupebcp.com/AR", "operator:wikidata": "Q2883441", "operator:wikipedia": "ar:\u0627\u0644\u0628\u0646\u0643 \u0627\u0644\u0634\u0639\u0628\u064a (\u0627\u0644\u0645\u063a\u0631\u0628)", "operator:wikipedia:ar": "\u0627\u0644\u0628\u0646\u0643 \u0627\u0644\u0634\u0639\u0628\u064a (\u0627\u0644\u0645\u063a\u0631\u0628)"}}, {"type": "node", "id": 5251893425, "lat": 34.0107566, "lon": -4.9884311, "tags": {"addr:housenumber": "220", "addr:street": "Avenue Oran Zohour 1", "amenity": "bank", "branch": "Agence Fes Mont Fleuri", "name": "Cr\u00e9dit du Maroc"}}, {"type": "node", "id": 5252073642, "lat": 34.0141068, "lon": -4.970409, "tags": {"amenity": "bank", "name": "Attijariwafabank"}}, {"type": "node", "id": 5269865822, "lat": 34.0153787, "lon": -4.962485, "tags": {"addr:street": "Av Ocean Pacifique Hay Riad", "amenity": "bank", "name": "Banque populaire"}}, {"type": "node", "id": 5298347227, "lat": 34.0051015, "lon": -4.9849589, "tags": {"addr:housenumber": "169", "addr:street": "Avenue Soussa Rue Ourika Zohour 2", "alt_name:ar": "\u0627\u0644\u0628\u0646\u0643 \u0627\u0644\u0634\u0639\u0628\u064a \u0627\u0644\u0645\u0631\u0643\u0632\u064a", "amenity": "bank", "branch": "Agence Monfleuri II", "brand": "\u0627\u0644\u0628\u0646\u0643 \u0627\u0644\u0634\u0639\u0628\u064a", "brand:ar": "\u0627\u0644\u0628\u0646\u0643 \u0627\u0644\u0634\u0639\u0628\u064a", "brand:website": "https://www.groupebcp.com/AR", "brand:wikidata": "Q2883441", "brand:wikipedia": "ar:\u0627\u0644\u0628\u0646\u0643 \u0627\u0644\u0634\u0639\u0628\u064a (\u0627\u0644\u0645\u063a\u0631\u0628)", "brand:wikipedia:ar": "\u0627\u0644\u0628\u0646\u0643 \u0627\u0644\u0634\u0639\u0628\u064a (\u0627\u0644\u0645\u063a\u0631\u0628)", "name": "Banque Populaire \u0627\u0644\u0628\u0646\u0643 \u0627\u0644\u0634\u0639\u0628\u064a", "name:ar": "\u0627\u0644\u0628\u0646\u0643 \u0627\u0644\u0634\u0639\u0628\u064a", "name:en": "Banque Populaire", "name:fr": "Banque Populaire", "operator": "\u0627\u0644\u0628\u0646\u0643 \u0627\u0644\u0634\u0639\u0628\u064a", "operator:ar": "\u0627\u0644\u0628\u0646\u0643 \u0627\u0644\u0634\u0639\u0628\u064a", "operator:website": "https://www.groupebcp.com/AR", "operator:wikidata": "Q2883441", "operator:wikipedia": "ar:\u0627\u0644\u0628\u0646\u0643 \u0627\u0644\u0634\u0639\u0628\u064a (\u0627\u0644\u0645\u063a\u0631\u0628)", "operator:wikipedia:ar": "\u0627\u0644\u0628\u0646\u0643 \u0627\u0644\u0634\u0639\u0628\u064a (\u0627\u0644\u0645\u063a\u0631\u0628)"}}, {"type": "node", "id": 5298347524, "lat": 34.0045723, "lon": -4.9856246, "tags": {"addr:housenumber": "205", "addr:street": "Avenue Soussa Resi Tinghir Zohour 2", "amenity": "bank", "branch": "Agence Zohour", "name": "Attijariwafa bank"}}, {"type": "node", "id": 5298347526, "lat": 34.0041853, "lon": -4.9862153, "tags": {"addr:housenumber": "307", "addr:street": "Avenue Soussa Resi Goulmima Zohour 2", "amenity": "bank", "branch": "Agence Monfleuri II", "name": "Cr\u00e9dit Agricole du Maroc"}}, {"type": "node", "id": 5303035821, "lat": 34.0197445, "lon": -4.9854564, "tags": {"amenity": "bank", "name": "Banque populaire"}}, {"type": "node", "id": 5308276521, "lat": 34.0193463, "lon": -4.9731624, "tags": {"amenity": "bank", "name": "Banque populaire"}}, {"type": "node", "id": 5308291722, "lat": 34.0197152, "lon": -4.9739587, "tags": {"amenity": "bank", "name": "Ste Attawfiq"}}, {"type": "node", "id": 5308328623, "lat": 34.0200872, "lon": -4.9747797, "tags": {"amenity": "bank", "name": "Attijariwafabank"}}, {"type": "node", "id": 5309133124, "lat": 34.0056367, "lon": -4.9847313, "tags": {"addr:street": "Avenue Port - Sa\u00efd Zohour 2", "amenity": "bank", "branch": "Agence Fes Zohour", "name": "BMCE"}}, {"type": "node", "id": 5309147425, "lat": 34.0042938, "lon": -4.9775433, "tags": {"addr:street": "Avenue Koufa Zohour 2 Face Arendissement Saiss", "alt_name:ar": "\u0627\u0644\u0628\u0646\u0643 \u0627\u0644\u0634\u0639\u0628\u064a \u0627\u0644\u0645\u0631\u0643\u0632\u064a", "amenity": "bank", "branch": "Agence Aerodrom", "brand": "\u0627\u0644\u0628\u0646\u0643 \u0627\u0644\u0634\u0639\u0628\u064a", "brand:ar": "\u0627\u0644\u0628\u0646\u0643 \u0627\u0644\u0634\u0639\u0628\u064a", "brand:website": "https://www.groupebcp.com/AR", "brand:wikidata": "Q2883441", "brand:wikipedia": "ar:\u0627\u0644\u0628\u0646\u0643 \u0627\u0644\u0634\u0639\u0628\u064a (\u0627\u0644\u0645\u063a\u0631\u0628)", "brand:wikipedia:ar": "\u0627\u0644\u0628\u0646\u0643 \u0627\u0644\u0634\u0639\u0628\u064a (\u0627\u0644\u0645\u063a\u0631\u0628)", "name": "Banque Populaire \u0627\u0644\u0628\u0646\u0643 \u0627\u0644\u0634\u0639\u0628\u064a", "name:ar": "\u0627\u0644\u0628\u0646\u0643 \u0627\u0644\u0634\u0639\u0628\u064a", "name:en": "Banque Populaire", "name:fr": "Banque Populaire", "operator": "\u0627\u0644\u0628\u0646\u0643 \u0627\u0644\u0634\u0639\u0628\u064a", "operator:ar": "\u0627\u0644\u0628\u0646\u0643 \u0627\u0644\u0634\u0639\u0628\u064a", "operator:website": "https://www.groupebcp.com/AR", "operator:wikidata": "Q2883441", "operator:wikipedia": "ar:\u0627\u0644\u0628\u0646\u0643 \u0627\u0644\u0634\u0639\u0628\u064a (\u0627\u0644\u0645\u063a\u0631\u0628)", "operator:wikipedia:ar": "\u0627\u0644\u0628\u0646\u0643 \u0627\u0644\u0634\u0639\u0628\u064a (\u0627\u0644\u0645\u063a\u0631\u0628)"}}, {"type": "node", "id": 5320204624, "lat": 34.0228071, "lon": -4.9788444, "tags": {"amenity": "bank", "name": "Banque populaire"}}, {"type": "node", "id": 5333830025, "lat": 33.9927951, "lon": -4.9946681, "tags": {"addr:street": "Avenue My Abdellah Route d ' Imouzzer", "alt_name:ar": "\u0627\u0644\u0628\u0646\u0643 \u0627\u0644\u0634\u0639\u0628\u064a \u0627\u0644\u0645\u0631\u0643\u0632\u064a", "amenity": "bank", "branch": "Agence Al Izdihar", "brand": "\u0627\u0644\u0628\u0646\u0643 \u0627\u0644\u0634\u0639\u0628\u064a", "brand:ar": "\u0627\u0644\u0628\u0646\u0643 \u0627\u0644\u0634\u0639\u0628\u064a", "brand:website": "https://www.groupebcp.com/AR", "brand:wikidata": "Q2883441", "brand:wikipedia": "ar:\u0627\u0644\u0628\u0646\u0643 \u0627\u0644\u0634\u0639\u0628\u064a (\u0627\u0644\u0645\u063a\u0631\u0628)", "brand:wikipedia:ar": "\u0627\u0644\u0628\u0646\u0643 \u0627\u0644\u0634\u0639\u0628\u064a (\u0627\u0644\u0645\u063a\u0631\u0628)", "name": "Banque Populaire \u0627\u0644\u0628\u0646\u0643 \u0627\u0644\u0634\u0639\u0628\u064a", "name:ar": "\u0627\u0644\u0628\u0646\u0643 \u0627\u0644\u0634\u0639\u0628\u064a", "name:en": "Banque Populaire", "name:fr": "Banque Populaire", "operator": "\u0627\u0644\u0628\u0646\u0643 \u0627\u0644\u0634\u0639\u0628\u064a", "operator:ar": "\u0627\u0644\u0628\u0646\u0643 \u0627\u0644\u0634\u0639\u0628\u064a", "operator:website": "https://www.groupebcp.com/AR", "operator:wikidata": "Q2883441", "operator:wikipedia": "ar:\u0627\u0644\u0628\u0646\u0643 \u0627\u0644\u0634\u0639\u0628\u064a (\u0627\u0644\u0645\u063a\u0631\u0628)", "operator:wikipedia:ar": "\u0627\u0644\u0628\u0646\u0643 \u0627\u0644\u0634\u0639\u0628\u064a (\u0627\u0644\u0645\u063a\u0631\u0628)"}}, {"type": "node", "id": 5333830030, "lat": 34.0040613, "lon": -4.9918397, "tags": {"addr:street": "Avenue My Abdellah Route d ' Imouzzer F\u00e8s Saiss Lotis Riad Annakhil", "amenity": "bank", "branch": "Agence Jnane F\u00e8s", "name": "BMCE", "name:fr": "BMCE"}}, {"type": "node", "id": 5333830033, "lat": 34.0150135, "lon": -4.9962107, "tags": {"addr:street": "Avenue Moulay Abdellah", "amenity": "bank", "name": "Attijariwafa bank", "name:fr": "Attijariwafa bank"}}, {"type": "node", "id": 5358780821, "lat": 34.0206139, "lon": -5.0541833, "tags": {"amenity": "bank", "name": "Banque populaire"}}, {"type": "node", "id": 5358875121, "lat": 34.0181343, "lon": -5.0524635, "tags": {"addr:street": "Lot Fadwa BenSouda", "amenity": "bank", "name": "Attiraiwafabank"}}, {"type": "node", "id": 5360745622, "lat": 34.0183156, "lon": -5.0516842, "tags": {"addr:street": "Lot Fadwa BenSouda", "amenity": "bank", "name": "BMCE BANK"}}, {"type": "node", "id": 5372497222, "lat": 34.0236924, "lon": -5.0397791, "tags": {"addr:street": "Lot Anis Ouad Fes", "amenity": "bank", "name": "Banque populaire"}}, {"type": "node", "id": 5375120230, "lat": 34.0158342, "lon": -5.0512675, "tags": {"alt_name:ar": "\u0627\u0644\u0628\u0646\u0643 \u0627\u0644\u0639\u0642\u0627\u0631\u064a \u0648\u0627\u0644\u0633\u064a\u0627\u062d\u064a", "amenity": "bank", "brand": "\u0627\u0644\u0642\u0631\u0636 \u0627\u0644\u0639\u0642\u0627\u0631\u064a \u0648\u0627\u0644\u0633\u064a\u0627\u062d\u064a", "brand:ar": "\u0627\u0644\u0642\u0631\u0636 \u0627\u0644\u0639\u0642\u0627\u0631\u064a \u0648\u0627\u0644\u0633\u064a\u0627\u062d\u064a", "brand:website": "https://www.cihbank.ma/ar/", "brand:wikidata": "Q3006220", "brand:wikipedia": "ar:\u0627\u0644\u0642\u0631\u0636 \u0627\u0644\u0639\u0642\u0627\u0631\u064a \u0648\u0627\u0644\u0633\u064a\u0627\u062d\u064a", "brand:wikipedia:ar": "\u0627\u0644\u0642\u0631\u0636 \u0627\u0644\u0639\u0642\u0627\u0631\u064a \u0648\u0627\u0644\u0633\u064a\u0627\u062d\u064a", "name": "CIH Bank \u0627\u0644\u0642\u0631\u0636 \u0627\u0644\u0639\u0642\u0627\u0631\u064a \u0648\u0627\u0644\u0633\u064a\u0627\u062d\u064a", "name:ar": "\u0627\u0644\u0642\u0631\u0636 \u0627\u0644\u0639\u0642\u0627\u0631\u064a \u0648\u0627\u0644\u0633\u064a\u0627\u062d\u064a", "name:en": "CIH Bank", "name:fr": "CIH Bank", "operator": "\u0627\u0644\u0642\u0631\u0636 \u0627\u0644\u0639\u0642\u0627\u0631\u064a \u0648\u0627\u0644\u0633\u064a\u0627\u062d\u064a", "operator:ar": "\u0627\u0644\u0642\u0631\u0636 \u0627\u0644\u0639\u0642\u0627\u0631\u064a \u0648\u0627\u0644\u0633\u064a\u0627\u062d\u064a", "operator:website": "https://www.cihbank.ma/ar/", "operator:wikidata": "Q3006220", "operator:wikipedia": "ar:\u0627\u0644\u0642\u0631\u0636 \u0627\u0644\u0639\u0642\u0627\u0631\u064a \u0648\u0627\u0644\u0633\u064a\u0627\u062d\u064a", "operator:wikipedia:ar": "\u0627\u0644\u0642\u0631\u0636 \u0627\u0644\u0639\u0642\u0627\u0631\u064a \u0648\u0627\u0644\u0633\u064a\u0627\u062d\u064a"}}, {"type": "node", "id": 5375123521, "lat": 34.0161457, "lon": -5.0514564, "tags": {"alt_name": "\u0627\u0644\u0634\u0631\u0643\u0629 \u0627\u0644\u0639\u0627\u0645\u0629", "alt_name:ar": "\u0627\u0644\u0634\u0631\u0643\u0629 \u0627\u0644\u0639\u0627\u0645\u0629", "amenity": "bank", "brand": "\u0633\u0648\u0633\u064a\u062a\u064a\u0647 \u062c\u0646\u0631\u0627\u0644", "brand:es": "Soci\u00e9t\u00e9 G\u00e9n\u00e9rale", "brand:wikidata": "Q270363", "brand:wikipedia": "ar:\u0633\u0648\u0633\u064a\u062a\u064a\u0647 \u062c\u0646\u0631\u0627\u0644", "brand:wikipedia:es": "Soci\u00e9t\u00e9 G\u00e9n\u00e9rale", "name": "Soci\u00e9t\u00e9 G\u00e9n\u00e9rale \u0633\u0648\u0633\u064a\u062a\u064a\u0647 \u062c\u0646\u0631\u0627\u0644", "name:ar": "\u0633\u0648\u0633\u064a\u062a\u064a\u0647 \u062c\u0646\u0631\u0627\u0644", "name:de": "Soci\u00e9t\u00e9 G\u00e9n\u00e9rale", "name:en": "Soci\u00e9t\u00e9 G\u00e9n\u00e9rale", "name:es": "Soci\u00e9t\u00e9 G\u00e9n\u00e9rale", "name:fr": "Soci\u00e9t\u00e9 G\u00e9n\u00e9rale", "operator": "\u0633\u0648\u0633\u064a\u062a\u064a\u0647 \u062c\u0646\u0631\u0627\u0644", "operator:es": "Soci\u00e9t\u00e9 G\u00e9n\u00e9rale", "operator:wikidata": "Q270363", "operator:wikipedia": "ar:\u0633\u0648\u0633\u064a\u062a\u064a\u0647 \u062c\u0646\u0631\u0627\u0644", "operator:wikipedia:es": "Soci\u00e9t\u00e9 G\u00e9n\u00e9rale"}}, {"type": "node", "id": 5375241321, "lat": 34.0311277, "lon": -5.0430543, "tags": {"addr:street": "Lot Ahlan Marja", "amenity": "bank", "name": "Banque populaire"}}, {"type": "node", "id": 5393785521, "lat": 34.0010107, "lon": -5.0118732, "tags": {"addr:street": "Route d ' Ain Chkef Lotis Karaouiyine", "amenity": "bank", "name": "Banque Populaire Agence Al Boustane", "name:fr": "Banque Populaire Agence Al Boustane"}}, {"type": "node", "id": 5393990124, "lat": 34.0131626, "lon": -5.0084186, "tags": {"addr:street": "Route d ' Ain Chkef Resi Nouzha Lotis Nouzha", "amenity": "bank", "name": "Banque Populaire Agence Ain Chkef", "name:fr": "Banque Populaire Agence Ain Chkef"}}, {"type": "node", "id": 5393990521, "lat": 34.01293, "lon": -5.008427, "tags": {"addr:street": "RTE Ain Chkef loti nouzha", "amenity": "bank", "name": "SGMB", "name:fr": "SGMB"}}, {"type": "node", "id": 5399382127, "lat": 34.0055246, "lon": -5.0104378, "tags": {"addr:street": "Route d ' Ain Chkef Lotis Asmae", "amenity": "bank", "name": "Attijariwafa bank Agence Route d ' Ain Chkef", "name:fr": "Attijariwafa bank Agence Route d ' Ain Chkef"}}, {"type": "node", "id": 5407304233, "lat": 34.0237752, "lon": -5.0371679, "tags": {"addr:city": "\u0641\u0627\u0633", "addr:street": "\u0632\u0648\u0627\u063a\u0629 \u0637\u0631\u064a\u0642 \u0628\u0646\u0633\u0648\u062f\u0629", "amenity": "bank", "name": "BMCE BANK \u0627\u0644\u0628\u0646\u0643 \u0627\u0644\u0645\u063a\u0631\u0628\u064a \u0644\u0644\u062a\u062c\u0627\u0631\u0629 \u0627\u0644\u062e\u0627\u0631\u062c\u064a\u0629", "name:ar": "\u0627\u0644\u0628\u0646\u0643 \u0627\u0644\u0645\u063a\u0631\u0628\u064a \u0644\u0644\u062a\u062c\u0627\u0631\u0629 \u0627\u0644\u062e\u0627\u0631\u062c\u064a\u0629", "name:fr": "BMCE BANK", "operator": "\u0627\u0644\u0628\u0646\u0643 \u0627\u0644\u0645\u063a\u0631\u0628\u064a \u0644\u0644\u062a\u062c\u0627\u0631\u0629 \u0627\u0644\u062e\u0627\u0631\u062c\u064a\u0629"}}, {"type": "node", "id": 5409736227, "lat": 34.0258224, "lon": -5.0336509, "tags": {"addr:street": "Zouaghat Haut", "amenity": "bank", "name": "Attiraiwafabank"}}, {"type": "node", "id": 5412025623, "lat": 34.0239692, "lon": -5.0363045, "tags": {"addr:street": "Zouaghat Haut", "amenity": "bank", "name": "Banque populaire"}}, {"type": "node", "id": 5424447142, "lat": 34.0251157, "lon": -5.0281131, "tags": {"addr:city": "\u0641\u0627\u0633", "addr:street": "\u0634\u0627\u0631\u0639 \u0645\u062d\u0645\u062f \u0627\u0644\u0633\u0627\u062f\u0633", "amenity": "bank", "name": "Cr\u00e9dit Agricole Du Maroc \u0627\u0644\u0642\u0631\u0636 \u0627\u0644\u0641\u0644\u0627\u062d\u064a \u0627\u0644\u0645\u063a\u0631\u0628\u064a", "name:ar": "\u0627\u0644\u0642\u0631\u0636 \u0627\u0644\u0641\u0644\u0627\u062d\u064a \u0627\u0644\u0645\u063a\u0631\u0628\u064a", "name:fr": "Cr\u00e9dit Agricole Du Maroc", "operator": "\u0627\u0644\u0642\u0631\u0636 \u0627\u0644\u0641\u0644\u0627\u062d\u064a \u0627\u0644\u0645\u063a\u0631\u0628\u064a", "short_name:ar": "\u0627\u0644\u0642\u0631\u0636 \u0627\u0644\u0641\u0644\u0627\u062d\u064a"}}, {"type": "node", "id": 5426493822, "lat": 34.0154445, "lon": -5.0519016, "tags": {"amenity": "bank", "name": "Banque populaire"}}, {"type": "node", "id": 5427054825, "lat": 34.0147605, "lon": -5.0513899, "tags": {"amenity": "bank", "name": "Cr\u00e9dit agricole du Maroc"}}, {"type": "node", "id": 5437146323, "lat": 34.0102803, "lon": -5.0247205, "tags": {"addr:street": "Route A\u00efn Smen", "amenity": "bank", "name": "Banque populaire"}}, {"type": "node", "id": 5437148422, "lat": 34.0105714, "lon": -5.0243295, "tags": {"addr:street": "Route A\u00efn Smen", "amenity": "bank", "name": "Al Barid Bank"}}, {"type": "node", "id": 5440099625, "lat": 34.000542, "lon": -5.0436149, "tags": {"amenity": "bank", "name": "Banque populaire"}}, {"type": "node", "id": 5440261121, "lat": 34.0096234, "lon": -5.0260749, "tags": {"addr:street": "Route A\u00efn Smen", "amenity": "bank", "name": "Attiraiwafabank"}}, {"type": "node", "id": 5446674421, "lat": 34.0151447, "lon": -5.0132393, "tags": {"addr:city": "F\u00e9s", "addr:street": "Avenue Mohamed Fassi Lotis Rachidia", "amenity": "bank", "branch": "Agence F\u00e8s El Azhar", "name": "BMCE"}}, {"type": "node", "id": 5446674528, "lat": 33.9917232, "lon": -5.0444888, "tags": {"addr:housenumber": "18", "addr:street": "Arset Zitoune Doha", "amenity": "bank", "branch": "F\u00e8s Oliveraie", "name": "BMCE"}}, {"type": "node", "id": 5485438731, "lat": 33.9942638, "lon": -5.0585329, "tags": {"addr:street": "Lotis Moustakbal Hay Massira Resid Nassim", "amenity": "bank", "name": "Cr\u00e9dit Agricole Agence Fes Nassim"}}, {"type": "node", "id": 5488375222, "lat": 33.9976469, "lon": -5.0536214, "tags": {"amenity": "bank", "name": "Banque populaire"}}, {"type": "node", "id": 5491100122, "lat": 33.9991463, "lon": -5.0541875, "tags": {"amenity": "bank", "name": "Ste Al Baraka"}}, {"type": "node", "id": 5491116621, "lat": 33.9993646, "lon": -5.0543074, "tags": {"amenity": "bank", "name": "BMCE BANK"}}, {"type": "node", "id": 5493451737, "lat": 33.9993012, "lon": -5.0551801, "tags": {"amenity": "bank", "name": "Al Amana Microfinance"}}, {"type": "node", "id": 5493481722, "lat": 33.9994929, "lon": -5.0545733, "tags": {"amenity": "bank", "name": "Attijariwafabank"}}, {"type": "node", "id": 5505235521, "lat": 34.0216798, "lon": -5.0358435, "tags": {"addr:street": "Lot Mabrouka Zouagha Haute", "amenity": "bank", "name": "Barid Bank"}}, {"type": "node", "id": 5508319521, "lat": 34.019223, "lon": -5.0342209, "tags": {"addr:street": "BVD Sanabil Zouagha Haute", "amenity": "bank", "name": "Attijariwafabank"}}, {"type": "node", "id": 5527697021, "lat": 34.0141229, "lon": -5.0430377, "tags": {"addr:street": "Lot Adouha Zouagha Haute", "amenity": "bank", "name": "CIN BANK"}}, {"type": "node", "id": 5582213176, "lat": 34.0617306, "lon": -4.983332, "tags": {"addr:city": "talaa SGHIRA", "amenity": "bank", "brand": "\u0627\u0644\u062a\u062c\u0627\u0631\u064a \u0648\u0641\u0627 \u0628\u0646\u0643", "brand:ar": "\u0627\u0644\u062a\u062c\u0627\u0631\u064a \u0648\u0641\u0627 \u0628\u0646\u0643", "brand:website": "https://www.attijariwafabank.com/ar", "brand:wikidata": "Q758052", "brand:wikipedia": "ar:\u0627\u0644\u062a\u062c\u0627\u0631\u064a \u0648\u0641\u0627 \u0628\u0646\u0643", "brand:wikipedia:ar": "\u0627\u0644\u062a\u062c\u0627\u0631\u064a \u0648\u0641\u0627 \u0628\u0646\u0643", "name": "Attijariwafa Bank \u0627\u0644\u062a\u062c\u0627\u0631\u064a \u0648\u0641\u0627 \u0628\u0646\u0643", "name:ar": "\u0627\u0644\u062a\u062c\u0627\u0631\u064a \u0648\u0641\u0627 \u0628\u0646\u0643", "name:en": "Attijariwafa Bank", "name:fr": "Attijariwafa Bank", "operator": "\u0627\u0644\u062a\u062c\u0627\u0631\u064a \u0648\u0641\u0627 \u0628\u0646\u0643", "operator:ar": "\u0627\u0644\u062a\u062c\u0627\u0631\u064a \u0648\u0641\u0627 \u0628\u0646\u0643", "operator:website": "https://www.attijariwafabank.com/ar", "operator:wikidata": "Q758052", "operator:wikipedia": "ar:\u0627\u0644\u062a\u062c\u0627\u0631\u064a \u0648\u0641\u0627 \u0628\u0646\u0643", "operator:wikipedia:ar": "\u0627\u0644\u062a\u062c\u0627\u0631\u064a \u0648\u0641\u0627 \u0628\u0646\u0643"}}, {"type": "node", "id": 5708668421, "lat": 34.0123467, "lon": -5.0431714, "tags": {"addr:street": "Lot Warda Zouagha Haute", "amenity": "bank", "name": "Banque populaire"}}, {"type": "node", "id": 5708668522, "lat": 34.012264, "lon": -5.0434497, "tags": {"addr:street": "Lot Warda Zouagha Haute", "alt_name": "Banque populaire du Maroc", "alt_name:ar": "\u0627\u0644\u0628\u0646\u0643 \u0627\u0644\u0634\u0639\u0628\u064a \u0627\u0644\u0645\u0631\u0643\u0632\u064a", "alt_name:es": "Banco Popular de Marruecos", "alt_name:fr": "Banque populaire du Maroc", "amenity": "bank", "brand": "Banque populaire", "brand:ar": "\u0627\u0644\u0628\u0646\u0643 \u0627\u0644\u0634\u0639\u0628\u064a", "brand:es": "Banco Popular", "brand:fr": "Banque populaire", "brand:website": "https://www.groupebcp.com/fr", "brand:wikidata": "Q2883441", "brand:wikipedia": "fr:Banque populaire (Maroc)", "name": "Banque populaire", "name:ar": "\u0627\u0644\u0628\u0646\u0643 \u0627\u0644\u0634\u0639\u0628\u064a", "name:ary": "\u0627\u0644\u0628\u0646\u0643 \u0627\u0644\u0634\u0639\u0628\u064a", "name:en": "Banque populaire", "name:es": "Banco Popular", "name:fr": "Banque populaire", "operator": "Banque populaire", "operator:ar": "\u0627\u0644\u0628\u0646\u0643 \u0627\u0644\u0634\u0639\u0628\u064a", "operator:es": "Banco Popular", "operator:fr": "Banque populaire", "operator:website": "https://www.groupebcp.com/fr", "operator:wikidata": "Q2883441", "operator:wikipedia": "fr:Banque populaire (Maroc)"}}, {"type": "node", "id": 5720129221, "lat": 34.0559526, "lon": -5.0370104, "tags": {"amenity": "bank", "name": "Banque populaire"}}, {"type": "node", "id": 5725544021, "lat": 34.0571165, "lon": -5.0324095, "tags": {"amenity": "bank", "name": "Banque populaire"}}, {"type": "node", "id": 5725685421, "lat": 34.0573978, "lon": -5.0310826, "tags": {"amenity": "bank", "name": "BMCE BANK"}}, {"type": "node", "id": 5725851925, "lat": 34.0576559, "lon": -5.0307079, "tags": {"amenity": "bank", "name": "Attijariwafabank"}}, {"type": "node", "id": 5725904322, "lat": 34.0577187, "lon": -5.0305398, "tags": {"amenity": "bank", "name": "Cr\u00e9dit du Maroc"}}, {"type": "node", "id": 5725939621, "lat": 34.057752, "lon": -5.0304413, "tags": {"alt_name": "\u0627\u0644\u0634\u0631\u0643\u0629 \u0627\u0644\u0639\u0627\u0645\u0629", "alt_name:ar": "\u0627\u0644\u0634\u0631\u0643\u0629 \u0627\u0644\u0639\u0627\u0645\u0629", "amenity": "bank", "brand": "\u0633\u0648\u0633\u064a\u062a\u064a\u0647 \u062c\u0646\u0631\u0627\u0644", "brand:es": "Soci\u00e9t\u00e9 G\u00e9n\u00e9rale", "brand:wikidata": "Q270363", "brand:wikipedia": "ar:\u0633\u0648\u0633\u064a\u062a\u064a\u0647 \u062c\u0646\u0631\u0627\u0644", "brand:wikipedia:es": "Soci\u00e9t\u00e9 G\u00e9n\u00e9rale", "name": "Soci\u00e9t\u00e9 G\u00e9n\u00e9rale \u0633\u0648\u0633\u064a\u062a\u064a\u0647 \u062c\u0646\u0631\u0627\u0644", "name:ar": "\u0633\u0648\u0633\u064a\u062a\u064a\u0647 \u062c\u0646\u0631\u0627\u0644", "name:de": "Soci\u00e9t\u00e9 G\u00e9n\u00e9rale", "name:en": "Soci\u00e9t\u00e9 G\u00e9n\u00e9rale", "name:es": "Soci\u00e9t\u00e9 G\u00e9n\u00e9rale", "name:fr": "Soci\u00e9t\u00e9 G\u00e9n\u00e9rale", "operator": "\u0633\u0648\u0633\u064a\u062a\u064a\u0647 \u062c\u0646\u0631\u0627\u0644", "operator:es": "Soci\u00e9t\u00e9 G\u00e9n\u00e9rale", "operator:wikidata": "Q270363", "operator:wikipedia": "ar:\u0633\u0648\u0633\u064a\u062a\u064a\u0647 \u062c\u0646\u0631\u0627\u0644", "operator:wikipedia:es": "Soci\u00e9t\u00e9 G\u00e9n\u00e9rale"}}, {"type": "node", "id": 5734859103, "lat": 34.0655043, "lon": -4.9996564, "tags": {"alt_name:ar": "\u0627\u0644\u0628\u0646\u0643 \u0627\u0644\u0645\u063a\u0631\u0628\u064a \u0644\u0644\u062a\u062c\u0627\u0631\u0629 \u0627\u0644\u062e\u0627\u0631\u062c\u064a\u0629 \u0644\u0625\u0641\u0631\u064a\u0642\u064a\u0627;\u0628\u0646\u0643 \u0623\u0641\u0631\u064a\u0642\u064a\u0627", "amenity": "bank", "brand": "\u0627\u0644\u0628\u0646\u0643 \u0627\u0644\u0645\u063a\u0631\u0628\u064a \u0644\u0644\u062a\u062c\u0627\u0631\u0629 \u0627\u0644\u062e\u0627\u0631\u062c\u064a\u0629", "brand:ar": "\u0627\u0644\u0628\u0646\u0643 \u0627\u0644\u0645\u063a\u0631\u0628\u064a \u0644\u0644\u062a\u062c\u0627\u0631\u0629 \u0627\u0644\u062e\u0627\u0631\u062c\u064a\u0629", "brand:website": "https://www.bankofafrica.ma/ar", "brand:wikidata": "Q2300433", "brand:wikipedia": "ar:\u0627\u0644\u0628\u0646\u0643 \u0627\u0644\u0645\u063a\u0631\u0628\u064a \u0644\u0644\u062a\u062c\u0627\u0631\u0629 \u0627\u0644\u062e\u0627\u0631\u062c\u064a\u0629", "brand:wikipedia:ar": "\u0627\u0644\u0628\u0646\u0643 \u0627\u0644\u0645\u063a\u0631\u0628\u064a \u0644\u0644\u062a\u062c\u0627\u0631\u0629 \u0627\u0644\u062e\u0627\u0631\u062c\u064a\u0629", "name": "BMCE Bank \u0627\u0644\u0628\u0646\u0643 \u0627\u0644\u0645\u063a\u0631\u0628\u064a \u0644\u0644\u062a\u062c\u0627\u0631\u0629 \u0627\u0644\u062e\u0627\u0631\u062c\u064a\u0629", "name:ar": "\u0627\u0644\u0628\u0646\u0643 \u0627\u0644\u0645\u063a\u0631\u0628\u064a \u0644\u0644\u062a\u062c\u0627\u0631\u0629 \u0627\u0644\u062e\u0627\u0631\u062c\u064a\u0629", "name:en": "BMCE Bank", "name:fr": "BMCE Bank", "official_name": "\u0627\u0644\u0628\u0646\u0643 \u0627\u0644\u0645\u063a\u0631\u0628\u064a \u0644\u0644\u062a\u062c\u0627\u0631\u0629 \u0627\u0644\u062e\u0627\u0631\u062c\u064a\u0629", "official_name:ar": "\u0627\u0644\u0628\u0646\u0643 \u0627\u0644\u0645\u063a\u0631\u0628\u064a \u0644\u0644\u062a\u062c\u0627\u0631\u0629 \u0627\u0644\u062e\u0627\u0631\u062c\u064a\u0629", "official_name:en": "Moroccan Bank of Foreign Commerce", "operator": "\u0627\u0644\u0628\u0646\u0643 \u0627\u0644\u0645\u063a\u0631\u0628\u064a \u0644\u0644\u062a\u062c\u0627\u0631\u0629 \u0627\u0644\u062e\u0627\u0631\u062c\u064a\u0629", "operator:ar": "\u0627\u0644\u0628\u0646\u0643 \u0627\u0644\u0645\u063a\u0631\u0628\u064a \u0644\u0644\u062a\u062c\u0627\u0631\u0629 \u0627\u0644\u062e\u0627\u0631\u062c\u064a\u0629", "operator:website": "https://www.bankofafrica.ma/ar", "operator:wikidata": "Q2300433", "operator:wikipedia": "ar:\u0627\u0644\u0628\u0646\u0643 \u0627\u0644\u0645\u063a\u0631\u0628\u064a \u0644\u0644\u062a\u062c\u0627\u0631\u0629 \u0627\u0644\u062e\u0627\u0631\u062c\u064a\u0629", "operator:wikipedia:ar": "\u0627\u0644\u0628\u0646\u0643 \u0627\u0644\u0645\u063a\u0631\u0628\u064a \u0644\u0644\u062a\u062c\u0627\u0631\u0629 \u0627\u0644\u062e\u0627\u0631\u062c\u064a\u0629"}}, {"type": "node", "id": 5736767430, "lat": 34.0323686, "lon": -4.9940703}, {"type": "node", "id": 5736767431, "lat": 34.0322153, "lon": -4.9940542}, {"type": "node", "id": 5736767432, "lat": 34.0321987, "lon": -4.9942839}, {"type": "node", "id": 5741334093, "lat": 34.0109905, "lon": -4.9798563, "tags": {"addr:street": "Route Sefrou", "amenity": "bank", "name": "Credit Du Maroc", "source": "Kaart Ground Survey"}}, {"type": "node", "id": 5741538253, "lat": 34.0237405, "lon": -5.0365555, "tags": {"addr:street": "\u0632\u0648\u0627\u063a\u0629 \u0637\u0631\u064a\u0642 \u0628\u0646\u0633\u0648\u062f\u0629", "amenity": "bank", "name": "Banque populaire", "source": "Kaart Ground Survey 2018"}}, {"type": "node", "id": 5741538523, "lat": 34.0258201, "lon": -5.0337379, "tags": {"addr:street": "\u0632\u0648\u0627\u063a\u0629 \u0637\u0631\u064a\u0642 \u0628\u0646\u0633\u0648\u062f\u0629", "amenity": "bank", "name": "Attijariwafa bank", "source": "Kaart Ground Survey 2018"}}, {"type": "node", "id": 5741538546, "lat": 34.0236171, "lon": -5.0371724, "tags": {"amenity": "bank", "name": "BMCE Bank of Africa", "source": "Kaart Ground Survey 2018"}}, {"type": "node", "id": 5741933458, "lat": 34.0108915, "lon": -4.9903545, "tags": {"addr:street": "Avenue Al Karama", "alt_name:ar": "\u0627\u0644\u0628\u0646\u0643 \u0627\u0644\u0634\u0639\u0628\u064a \u0627\u0644\u0645\u0631\u0643\u0632\u064a", "amenity": "bank", "brand": "\u0627\u0644\u0628\u0646\u0643 \u0627\u0644\u0634\u0639\u0628\u064a", "brand:ar": "\u0627\u0644\u0628\u0646\u0643 \u0627\u0644\u0634\u0639\u0628\u064a", "brand:website": "https://www.groupebcp.com/AR", "brand:wikidata": "Q2883441", "brand:wikipedia": "ar:\u0627\u0644\u0628\u0646\u0643 \u0627\u0644\u0634\u0639\u0628\u064a (\u0627\u0644\u0645\u063a\u0631\u0628)", "brand:wikipedia:ar": "\u0627\u0644\u0628\u0646\u0643 \u0627\u0644\u0634\u0639\u0628\u064a (\u0627\u0644\u0645\u063a\u0631\u0628)", "name": "Banque Populaire \u0627\u0644\u0628\u0646\u0643 \u0627\u0644\u0634\u0639\u0628\u064a", "name:ar": "\u0627\u0644\u0628\u0646\u0643 \u0627\u0644\u0634\u0639\u0628\u064a", "name:en": "Banque Populaire", "name:fr": "Banque Populaire", "operator": "\u0627\u0644\u0628\u0646\u0643 \u0627\u0644\u0634\u0639\u0628\u064a", "operator:ar": "\u0627\u0644\u0628\u0646\u0643 \u0627\u0644\u0634\u0639\u0628\u064a", "operator:website": "https://www.groupebcp.com/AR", "operator:wikidata": "Q2883441", "operator:wikipedia": "ar:\u0627\u0644\u0628\u0646\u0643 \u0627\u0644\u0634\u0639\u0628\u064a (\u0627\u0644\u0645\u063a\u0631\u0628)", "operator:wikipedia:ar": "\u0627\u0644\u0628\u0646\u0643 \u0627\u0644\u0634\u0639\u0628\u064a (\u0627\u0644\u0645\u063a\u0631\u0628)"}}, {"type": "node", "id": 5742279900, "lat": 34.01955, "lon": -5.0225987, "tags": {"addr:street": "Boulevard Mohamed VI", "amenity": "bank", "brand": "\u0627\u0644\u0628\u0646\u0643 \u0627\u0644\u0645\u063a\u0631\u0628\u064a \u0644\u0644\u062a\u062c\u0627\u0631\u0629 \u0648\u0627\u0644\u0635\u0646\u0627\u0639\u0629", "brand:ar": "\u0627\u0644\u0628\u0646\u0643 \u0627\u0644\u0645\u063a\u0631\u0628\u064a \u0644\u0644\u062a\u062c\u0627\u0631\u0629 \u0648\u0627\u0644\u0635\u0646\u0627\u0639\u0629", "brand:wikidata": "Q2883409", "brand:wikipedia": "ar:\u0627\u0644\u0628\u0646\u0643 \u0627\u0644\u0645\u063a\u0631\u0628\u064a \u0644\u0644\u062a\u062c\u0627\u0631\u0629 \u0648\u0627\u0644\u0635\u0646\u0627\u0639\u0629", "brand:wikipedia:ar": "\u0627\u0644\u0628\u0646\u0643 \u0627\u0644\u0645\u063a\u0631\u0628\u064a \u0644\u0644\u062a\u062c\u0627\u0631\u0629 \u0648\u0627\u0644\u0635\u0646\u0627\u0639\u0629", "name": "BMCI \u0627\u0644\u0628\u0646\u0643 \u0627\u0644\u0645\u063a\u0631\u0628\u064a \u0644\u0644\u062a\u062c\u0627\u0631\u0629 \u0648\u0627\u0644\u0635\u0646\u0627\u0639\u0629", "name:ar": "\u0627\u0644\u0628\u0646\u0643 \u0627\u0644\u0645\u063a\u0631\u0628\u064a \u0644\u0644\u062a\u062c\u0627\u0631\u0629 \u0648\u0627\u0644\u0635\u0646\u0627\u0639\u0629", "name:fr": "BMCI", "operator": "\u0627\u0644\u0628\u0646\u0643 \u0627\u0644\u0645\u063a\u0631\u0628\u064a \u0644\u0644\u062a\u062c\u0627\u0631\u0629 \u0648\u0627\u0644\u0635\u0646\u0627\u0639\u0629", "operator:ar": "\u0627\u0644\u0628\u0646\u0643 \u0627\u0644\u0645\u063a\u0631\u0628\u064a \u0644\u0644\u062a\u062c\u0627\u0631\u0629 \u0648\u0627\u0644\u0635\u0646\u0627\u0639\u0629", "operator:wikidata": "Q499707", "operator:wikipedia": "ar:\u0627\u0644\u0628\u0646\u0643 \u0627\u0644\u0645\u063a\u0631\u0628\u064a \u0644\u0644\u062a\u062c\u0627\u0631\u0629 \u0648\u0627\u0644\u0635\u0646\u0627\u0639\u0629", "operator:wikipedia:ar": "\u0627\u0644\u0628\u0646\u0643 \u0627\u0644\u0645\u063a\u0631\u0628\u064a \u0644\u0644\u062a\u062c\u0627\u0631\u0629 \u0648\u0627\u0644\u0635\u0646\u0627\u0639\u0629"}}, {"type": "node", "id": 5744069124, "lat": 34.014012, "lon": -5.0429794, "tags": {"alt_name:ar": "\u0627\u0644\u0628\u0646\u0643 \u0627\u0644\u0639\u0642\u0627\u0631\u064a \u0648\u0627\u0644\u0633\u064a\u0627\u062d\u064a", "amenity": "bank", "brand": "\u0627\u0644\u0642\u0631\u0636 \u0627\u0644\u0639\u0642\u0627\u0631\u064a \u0648\u0627\u0644\u0633\u064a\u0627\u062d\u064a", "brand:ar": "\u0627\u0644\u0642\u0631\u0636 \u0627\u0644\u0639\u0642\u0627\u0631\u064a \u0648\u0627\u0644\u0633\u064a\u0627\u062d\u064a", "brand:website": "https://www.cihbank.ma/ar/", "brand:wikidata": "Q3006220", "brand:wikipedia": "ar:\u0627\u0644\u0642\u0631\u0636 \u0627\u0644\u0639\u0642\u0627\u0631\u064a \u0648\u0627\u0644\u0633\u064a\u0627\u062d\u064a", "brand:wikipedia:ar": "\u0627\u0644\u0642\u0631\u0636 \u0627\u0644\u0639\u0642\u0627\u0631\u064a \u0648\u0627\u0644\u0633\u064a\u0627\u062d\u064a", "name": "CIH Bank \u0627\u0644\u0642\u0631\u0636 \u0627\u0644\u0639\u0642\u0627\u0631\u064a \u0648\u0627\u0644\u0633\u064a\u0627\u062d\u064a", "name:ar": "\u0627\u0644\u0642\u0631\u0636 \u0627\u0644\u0639\u0642\u0627\u0631\u064a \u0648\u0627\u0644\u0633\u064a\u0627\u062d\u064a", "name:en": "CIH Bank", "name:fr": "CIH Bank", "operator": "\u0627\u0644\u0642\u0631\u0636 \u0627\u0644\u0639\u0642\u0627\u0631\u064a \u0648\u0627\u0644\u0633\u064a\u0627\u062d\u064a", "operator:ar": "\u0627\u0644\u0642\u0631\u0636 \u0627\u0644\u0639\u0642\u0627\u0631\u064a \u0648\u0627\u0644\u0633\u064a\u0627\u062d\u064a", "operator:website": "https://www.cihbank.ma/ar/", "operator:wikidata": "Q3006220", "operator:wikipedia": "ar:\u0627\u0644\u0642\u0631\u0636 \u0627\u0644\u0639\u0642\u0627\u0631\u064a \u0648\u0627\u0644\u0633\u064a\u0627\u062d\u064a", "operator:wikipedia:ar": "\u0627\u0644\u0642\u0631\u0636 \u0627\u0644\u0639\u0642\u0627\u0631\u064a \u0648\u0627\u0644\u0633\u064a\u0627\u062d\u064a"}}, {"type": "node", "id": 5744534110, "lat": 34.033339, "lon": -5.0054231, "tags": {"addr:street": "Avenue Allal Ben Abdallah", "amenity": "bank", "name": "BMCE Bank of Africa", "source": "Kaart Ground Survey 2018"}}, {"type": "node", "id": 5749776036, "lat": 34.0326655, "lon": -4.9974717, "tags": {"addr:street": "Avenue Moulay Abdellah", "amenity": "bank", "brand": "\u0627\u0644\u062a\u062c\u0627\u0631\u064a \u0648\u0641\u0627 \u0628\u0646\u0643", "brand:ar": "\u0627\u0644\u062a\u062c\u0627\u0631\u064a \u0648\u0641\u0627 \u0628\u0646\u0643", "brand:website": "https://www.attijariwafabank.com/ar", "brand:wikidata": "Q758052", "brand:wikipedia": "ar:\u0627\u0644\u062a\u062c\u0627\u0631\u064a \u0648\u0641\u0627 \u0628\u0646\u0643", "brand:wikipedia:ar": "\u0627\u0644\u062a\u062c\u0627\u0631\u064a \u0648\u0641\u0627 \u0628\u0646\u0643", "name": "Attijariwafa Bank \u0627\u0644\u062a\u062c\u0627\u0631\u064a \u0648\u0641\u0627 \u0628\u0646\u0643", "name:ar": "\u0627\u0644\u062a\u062c\u0627\u0631\u064a \u0648\u0641\u0627 \u0628\u0646\u0643", "name:en": "Attijariwafa Bank", "name:fr": "Attijariwafa Bank", "operator": "\u0627\u0644\u062a\u062c\u0627\u0631\u064a \u0648\u0641\u0627 \u0628\u0646\u0643", "operator:ar": "\u0627\u0644\u062a\u062c\u0627\u0631\u064a \u0648\u0641\u0627 \u0628\u0646\u0643", "operator:website": "https://www.attijariwafabank.com/ar", "operator:wikidata": "Q758052", "operator:wikipedia": "ar:\u0627\u0644\u062a\u062c\u0627\u0631\u064a \u0648\u0641\u0627 \u0628\u0646\u0643", "operator:wikipedia:ar": "\u0627\u0644\u062a\u062c\u0627\u0631\u064a \u0648\u0641\u0627 \u0628\u0646\u0643", "source": "Kaart Ground Survey 2018"}}, {"type": "node", "id": 5749824926, "lat": 34.0136429, "lon": -4.9706778, "tags": {"addr:street": "Boulevard Wafa", "amenity": "bank", "brand": "\u0627\u0644\u062a\u062c\u0627\u0631\u064a \u0648\u0641\u0627 \u0628\u0646\u0643", "brand:ar": "\u0627\u0644\u062a\u062c\u0627\u0631\u064a \u0648\u0641\u0627 \u0628\u0646\u0643", "brand:website": "https://www.attijariwafabank.com/ar", "brand:wikidata": "Q758052", "brand:wikipedia": "ar:\u0627\u0644\u062a\u062c\u0627\u0631\u064a \u0648\u0641\u0627 \u0628\u0646\u0643", "brand:wikipedia:ar": "\u0627\u0644\u062a\u062c\u0627\u0631\u064a \u0648\u0641\u0627 \u0628\u0646\u0643", "name": "Attijariwafa Bank \u0627\u0644\u062a\u062c\u0627\u0631\u064a \u0648\u0641\u0627 \u0628\u0646\u0643", "name:ar": "\u0627\u0644\u062a\u062c\u0627\u0631\u064a \u0648\u0641\u0627 \u0628\u0646\u0643", "name:en": "Attijariwafa Bank", "name:fr": "Attijariwafa Bank", "operator": "\u0627\u0644\u062a\u062c\u0627\u0631\u064a \u0648\u0641\u0627 \u0628\u0646\u0643", "operator:ar": "\u0627\u0644\u062a\u062c\u0627\u0631\u064a \u0648\u0641\u0627 \u0628\u0646\u0643", "operator:website": "https://www.attijariwafabank.com/ar", "operator:wikidata": "Q758052", "operator:wikipedia": "ar:\u0627\u0644\u062a\u062c\u0627\u0631\u064a \u0648\u0641\u0627 \u0628\u0646\u0643", "operator:wikipedia:ar": "\u0627\u0644\u062a\u062c\u0627\u0631\u064a \u0648\u0641\u0627 \u0628\u0646\u0643", "source": "Kaart Ground Survey 2018"}}, {"type": "node", "id": 5752685943, "lat": 34.024433, "lon": -4.9976407, "tags": {"addr:street": "Avenue Roi Houssaine", "alt_name": "\u0627\u0644\u0634\u0631\u0643\u0629 \u0627\u0644\u0639\u0627\u0645\u0629", "alt_name:ar": "\u0627\u0644\u0634\u0631\u0643\u0629 \u0627\u0644\u0639\u0627\u0645\u0629", "amenity": "bank", "brand": "\u0633\u0648\u0633\u064a\u062a\u064a\u0647 \u062c\u0646\u0631\u0627\u0644", "brand:es": "Soci\u00e9t\u00e9 G\u00e9n\u00e9rale", "brand:wikidata": "Q270363", "brand:wikipedia": "ar:\u0633\u0648\u0633\u064a\u062a\u064a\u0647 \u062c\u0646\u0631\u0627\u0644", "brand:wikipedia:es": "Soci\u00e9t\u00e9 G\u00e9n\u00e9rale", "name": "Soci\u00e9t\u00e9 G\u00e9n\u00e9rale \u0633\u0648\u0633\u064a\u062a\u064a\u0647 \u062c\u0646\u0631\u0627\u0644", "name:ar": "\u0633\u0648\u0633\u064a\u062a\u064a\u0647 \u062c\u0646\u0631\u0627\u0644", "name:de": "Soci\u00e9t\u00e9 G\u00e9n\u00e9rale", "name:en": "Soci\u00e9t\u00e9 G\u00e9n\u00e9rale", "name:es": "Soci\u00e9t\u00e9 G\u00e9n\u00e9rale", "name:fr": "Soci\u00e9t\u00e9 G\u00e9n\u00e9rale", "operator": "\u0633\u0648\u0633\u064a\u062a\u064a\u0647 \u062c\u0646\u0631\u0627\u0644", "operator:es": "Soci\u00e9t\u00e9 G\u00e9n\u00e9rale", "operator:wikidata": "Q270363", "operator:wikipedia": "ar:\u0633\u0648\u0633\u064a\u062a\u064a\u0647 \u062c\u0646\u0631\u0627\u0644", "operator:wikipedia:es": "Soci\u00e9t\u00e9 G\u00e9n\u00e9rale"}}, {"type": "node", "id": 5752685954, "lat": 34.0249587, "lon": -5.0047942, "tags": {"addr:street": "Route Ain Chkef", "alt_name": "\u0627\u0644\u0634\u0631\u0643\u0629 \u0627\u0644\u0639\u0627\u0645\u0629", "alt_name:ar": "\u0627\u0644\u0634\u0631\u0643\u0629 \u0627\u0644\u0639\u0627\u0645\u0629", "amenity": "bank", "brand": "\u0633\u0648\u0633\u064a\u062a\u064a\u0647 \u062c\u0646\u0631\u0627\u0644", "brand:es": "Soci\u00e9t\u00e9 G\u00e9n\u00e9rale", "brand:wikidata": "Q270363", "brand:wikipedia": "ar:\u0633\u0648\u0633\u064a\u062a\u064a\u0647 \u062c\u0646\u0631\u0627\u0644", "brand:wikipedia:es": "Soci\u00e9t\u00e9 G\u00e9n\u00e9rale", "name": "Soci\u00e9t\u00e9 G\u00e9n\u00e9rale \u0633\u0648\u0633\u064a\u062a\u064a\u0647 \u062c\u0646\u0631\u0627\u0644", "name:ar": "\u0633\u0648\u0633\u064a\u062a\u064a\u0647 \u062c\u0646\u0631\u0627\u0644", "name:de": "Soci\u00e9t\u00e9 G\u00e9n\u00e9rale", "name:en": "Soci\u00e9t\u00e9 G\u00e9n\u00e9rale", "name:es": "Soci\u00e9t\u00e9 G\u00e9n\u00e9rale", "name:fr": "Soci\u00e9t\u00e9 G\u00e9n\u00e9rale", "operator": "\u0633\u0648\u0633\u064a\u062a\u064a\u0647 \u062c\u0646\u0631\u0627\u0644", "operator:es": "Soci\u00e9t\u00e9 G\u00e9n\u00e9rale", "operator:wikidata": "Q270363", "operator:wikipedia": "ar:\u0633\u0648\u0633\u064a\u062a\u064a\u0647 \u062c\u0646\u0631\u0627\u0644", "operator:wikipedia:es": "Soci\u00e9t\u00e9 G\u00e9n\u00e9rale"}}, {"type": "node", "id": 5752692135, "lat": 34.020048, "lon": -5.0030923, "tags": {"addr:street": "Avenue Lissan-Edine Ibn Al-Khatib", "amenity": "bank", "brand": "\u0627\u0644\u062a\u062c\u0627\u0631\u064a \u0648\u0641\u0627 \u0628\u0646\u0643", "brand:ar": "\u0627\u0644\u062a\u062c\u0627\u0631\u064a \u0648\u0641\u0627 \u0628\u0646\u0643", "brand:website": "https://www.attijariwafabank.com/ar", "brand:wikidata": "Q758052", "brand:wikipedia": "ar:\u0627\u0644\u062a\u062c\u0627\u0631\u064a \u0648\u0641\u0627 \u0628\u0646\u0643", "brand:wikipedia:ar": "\u0627\u0644\u062a\u062c\u0627\u0631\u064a \u0648\u0641\u0627 \u0628\u0646\u0643", "name": "Attijariwafa Bank \u0627\u0644\u062a\u062c\u0627\u0631\u064a \u0648\u0641\u0627 \u0628\u0646\u0643", "name:ar": "\u0627\u0644\u062a\u062c\u0627\u0631\u064a \u0648\u0641\u0627 \u0628\u0646\u0643", "name:en": "Attijariwafa Bank", "name:fr": "Attijariwafa Bank", "operator": "\u0627\u0644\u062a\u062c\u0627\u0631\u064a \u0648\u0641\u0627 \u0628\u0646\u0643", "operator:ar": "\u0627\u0644\u062a\u062c\u0627\u0631\u064a \u0648\u0641\u0627 \u0628\u0646\u0643", "operator:website": "https://www.attijariwafabank.com/ar", "operator:wikidata": "Q758052", "operator:wikipedia": "ar:\u0627\u0644\u062a\u062c\u0627\u0631\u064a \u0648\u0641\u0627 \u0628\u0646\u0643", "operator:wikipedia:ar": "\u0627\u0644\u062a\u062c\u0627\u0631\u064a \u0648\u0641\u0627 \u0628\u0646\u0643", "source": "Kaart Ground Survey 2018"}}, {"type": "node", "id": 5754364197, "lat": 34.0136662, "lon": -5.0027892, "tags": {"alt_name:ar": "\u0627\u0644\u0628\u0646\u0643 \u0627\u0644\u0645\u063a\u0631\u0628\u064a \u0644\u0644\u062a\u062c\u0627\u0631\u0629 \u0627\u0644\u062e\u0627\u0631\u062c\u064a\u0629 \u0644\u0625\u0641\u0631\u064a\u0642\u064a\u0627;\u0628\u0646\u0643 \u0623\u0641\u0631\u064a\u0642\u064a\u0627", "amenity": "bank", "brand": "\u0627\u0644\u0628\u0646\u0643 \u0627\u0644\u0645\u063a\u0631\u0628\u064a \u0644\u0644\u062a\u062c\u0627\u0631\u0629 \u0627\u0644\u062e\u0627\u0631\u062c\u064a\u0629", "brand:ar": "\u0627\u0644\u0628\u0646\u0643 \u0627\u0644\u0645\u063a\u0631\u0628\u064a \u0644\u0644\u062a\u062c\u0627\u0631\u0629 \u0627\u0644\u062e\u0627\u0631\u062c\u064a\u0629", "brand:website": "https://www.bankofafrica.ma/ar", "brand:wikidata": "Q2300433", "brand:wikipedia": "ar:\u0627\u0644\u0628\u0646\u0643 \u0627\u0644\u0645\u063a\u0631\u0628\u064a \u0644\u0644\u062a\u062c\u0627\u0631\u0629 \u0627\u0644\u062e\u0627\u0631\u062c\u064a\u0629", "brand:wikipedia:ar": "\u0627\u0644\u0628\u0646\u0643 \u0627\u0644\u0645\u063a\u0631\u0628\u064a \u0644\u0644\u062a\u062c\u0627\u0631\u0629 \u0627\u0644\u062e\u0627\u0631\u062c\u064a\u0629", "name": "BMCE Bank \u0627\u0644\u0628\u0646\u0643 \u0627\u0644\u0645\u063a\u0631\u0628\u064a \u0644\u0644\u062a\u062c\u0627\u0631\u0629 \u0627\u0644\u062e\u0627\u0631\u062c\u064a\u0629", "name:ar": "\u0627\u0644\u0628\u0646\u0643 \u0627\u0644\u0645\u063a\u0631\u0628\u064a \u0644\u0644\u062a\u062c\u0627\u0631\u0629 \u0627\u0644\u062e\u0627\u0631\u062c\u064a\u0629", "name:en": "BMCE Bank", "name:fr": "BMCE Bank", "official_name": "\u0627\u0644\u0628\u0646\u0643 \u0627\u0644\u0645\u063a\u0631\u0628\u064a \u0644\u0644\u062a\u062c\u0627\u0631\u0629 \u0627\u0644\u062e\u0627\u0631\u062c\u064a\u0629", "official_name:ar": "\u0627\u0644\u0628\u0646\u0643 \u0627\u0644\u0645\u063a\u0631\u0628\u064a \u0644\u0644\u062a\u062c\u0627\u0631\u0629 \u0627\u0644\u062e\u0627\u0631\u062c\u064a\u0629", "official_name:en": "Moroccan Bank of Foreign Commerce", "operator": "\u0627\u0644\u0628\u0646\u0643 \u0627\u0644\u0645\u063a\u0631\u0628\u064a \u0644\u0644\u062a\u062c\u0627\u0631\u0629 \u0627\u0644\u062e\u0627\u0631\u062c\u064a\u0629", "operator:ar": "\u0627\u0644\u0628\u0646\u0643 \u0627\u0644\u0645\u063a\u0631\u0628\u064a \u0644\u0644\u062a\u062c\u0627\u0631\u0629 \u0627\u0644\u062e\u0627\u0631\u062c\u064a\u0629", "operator:website": "https://www.bankofafrica.ma/ar", "operator:wikidata": "Q2300433", "operator:wikipedia": "ar:\u0627\u0644\u0628\u0646\u0643 \u0627\u0644\u0645\u063a\u0631\u0628\u064a \u0644\u0644\u062a\u062c\u0627\u0631\u0629 \u0627\u0644\u062e\u0627\u0631\u062c\u064a\u0629", "operator:wikipedia:ar": "\u0627\u0644\u0628\u0646\u0643 \u0627\u0644\u0645\u063a\u0631\u0628\u064a \u0644\u0644\u062a\u062c\u0627\u0631\u0629 \u0627\u0644\u062e\u0627\u0631\u062c\u064a\u0629"}}, {"type": "node", "id": 6418186789, "lat": 34.0687727, "lon": -4.9653828, "tags": {"amenity": "bank", "name:en": "Al barid bank"}}, {"type": "node", "id": 6418186888, "lat": 34.0539081, "lon": -4.9890239, "tags": {"amenity": "bank", "name:en": "BMCE"}}, {"type": "node", "id": 6418186889, "lat": 34.0692261, "lon": -4.9655616, "tags": {"amenity": "bank"}}, {"type": "node", "id": 6603107487, "lat": 34.0124139, "lon": -4.9706245, "tags": {"addr:street": "Avenue Karouyine \u0634\u0627\u0631\u0639 \u0627\u0644\u0642\u0631\u0648\u064a\u064a\u0646", "amenity": "bank", "name": "ES01601 CHAABICASH ESPACE NOUR ALAMAL", "phone": "0663795934", "website": "http://www.chaabicash.ma"}}, {"type": "node", "id": 6616725916, "lat": 34.0130915, "lon": -4.9706411, "tags": {"addr:street": "Boulevard Wafa", "amenity": "bank", "name": "ES01601 CHAABICASH ESPACE NOUR ALAMAL"}}, {"type": "node", "id": 6761443487, "lat": 34.0319649, "lon": -5.0067082, "tags": {"amenity": "bank", "name:en": "CIH BANK"}}, {"type": "node", "id": 10484121609, "lat": 34.0159776, "lon": -4.9542473, "tags": {"amenity": "bank"}}, {"type": "node", "id": 10933664507, "lat": 34.0609028, "lon": -4.9821926, "tags": {"amenity": "bank", "name:en": "Al Barid Bank"}}, {"type": "node", "id": 11303098469, "lat": 34.0612189, "lon": -4.9667161, "tags": {"amenity": "bank", "name": "Attijariwafa Bank \u0627\u0644\u062a\u062c\u0627\u0631\u064a \u0648\u0641\u0627 \u0628\u0646\u0643"}}, {"type": "node", "id": 11303103569, "lat": 34.0619426, "lon": -4.9663962, "tags": {"amenity": "bank", "name": "Banque Populaire \u0627\u0644\u0628\u0646\u0643 \u0627\u0644\u0634\u0639\u0628\u064a"}}, {"type": "node", "id": 11383512169, "lat": 34.0141451, "lon": -4.9702308, "tags": {"amenity": "bank", "name:fr": "attijari wafa banque"}}, {"type": "node", "id": 11472793569, "lat": 34.0642038, "lon": -4.9740175, "tags": {"amenity": "bank", "name:fr": "Credit du Maroc"}}, {"type": "way", "id": 604659442, "nodes": [5085510321, 5736767430, 5736767431, 5736767432, 5085510321], "tags": {"addr:street": "Place Allal Al Fassi", "amenity": "bank", "building": "commercial", "name": "Attijariwafabank"}}]}